{"type":"FeatureCollection","features":[{"type":"Feature","geometry":{"type":"Polygon","coordinates":[[[127.21728,35.80164],[127.21367,35.80472],[127.20713,35.80563],[127.20345,35.80944],[127.19787,35.81104],[127.19153,35.81001],[127.18786,35.80591],[127.18028,35.80528],[127.17211,35.81174],[127.16597,35.80704],[127.16084,35.81157],[127.15319,35.81067],[127.15135,35.8034],[127.15605,35.79455],[127.16165,35.7925],[127.16242,35.78394],[127.16365,35.78188],[127.1729,35.77917],[127.17885,35.77261],[127.18544,35.77915],[127.19541,35.77429],[127.1994,35.77607],[127.19969,35.78603],[127.21194,35.79397],[127.21728,35.80164]]]},"properties":{"code":"35011600","name":"동서학동"}},{"type":"Feature","geometry":{"type":"Polygon","coordinates":[[[127.15319,35.81067],[127.14895,35.81109],[127.14431,35.80284],[127.1413,35.80254],[127.14639,35.79685],[127.1456,35.79472],[127.15145,35.78477],[127.15194,35.78141],[127.15342,35.77857],[127.16242,35.78394],[127.16165,35.7925],[127.15605,35.79455],[127.15135,35.8034],[127.15319,35.81067]]]},"properties":{"code":"35011610","name":"서서학동"}},{"type":"Feature","geometry":{"type":"Polygon","coordinates":[[[127.1385,35.81374],[127.13537,35.82035],[127.12942,35.81944],[127.12293,35.8165],[127.12306,35.81205],[127.12347,35.80935],[127.12982,35.80861],[127.1385,35.81374]]]},"properties":{"code":"35011620","name":"중화산1동"}},{"type":"Feature","geometry":{"type":"Polygon","coordinates":[[[127.12942,35.81944],[127.12665,35.82523],[127.11365,35.82532],[127.11324,35.81545],[127.12306,35.81205],[127.12293,35.8165],[127.12942,35.81944]]]},"properties":{"code":"35011630","name":"중화산2동"}},{"type":"Feature","geometry":{"type":"Polygon","coordinates":[[[127.1413,35.80254],[127.14098,35.80208],[127.1376,35.80078],[127.1355,35.79976],[127.13624,35.79182],[127.14085,35.79105],[127.14934,35.78232],[127.15194,35.78141],[127.15145,35.78477],[127.1456,35.79472],[127.14639,35.79685],[127.1413,35.80254]]]},"properties":{"code":"35011640","name":"평화1동"}},{"type":"Feature","geometry":{"type":"Polygon","coordinates":[[[127.15194,35.78141],[127.14934,35.78232],[127.14085,35.79105],[127.13624,35.79182],[127.1355,35.79976],[127.13036,35.79779],[127.11687,35.79045],[127.1096,35.78587],[127.1128,35.77929],[127.1085,35.77605],[127.11098,35.77277],[127.10301,35.76747],[127.09976,35.75566],[127.10206,35.75187],[127.11587,35.74943],[127.11836,35.7531],[127.12401,35.75223],[127.13666,35.76097],[127.1463,35.7595],[127.14622,35.76371],[127.14969,35.76879],[127.14893,35.77318],[127.15342,35.77857],[127.15194,35.78141]]]},"properties":{"code":"35011650","name":"평화2동"}},{"type":"Feature","geometry":{"type":"Polygon","coordinates":[[[127.12665,35.82523],[127.12861,35.82952],[127.12388,35.83477],[127.11768,35.83823],[127.11203,35.83813],[127.10555,35.84223],[127.105,35.84486],[127.10474,35.8401],[127.10535,35.83285],[127.11157,35.82807],[127.11277,35.82585],[127.11365,35.82532],[127.12665,35.82523]]]},"properties":{"code":"35011660","name":"서신동"}},{"type":"Feature","geometry":{"type":"Polygon","coordinates":[[[127.1376,35.80078],[127.1319,35.80295],[127.1253,35.8026],[127.11688,35.80225],[127.11685,35.79862],[127.12571,35.79708],[127.13036,35.79779],[127.1355,35.79976],[127.1376,35.80078]]]},"properties":{"code":"35011670","name":"삼천1동"}},{"type":"Feature","geometry":{"type":"Polygon","coordinates":[[[127.13036,35.79779],[127.12571,35.79708],[127.11685,35.79862],[127.11687,35.79045],[127.13036,35.79779]]]},"properties":{"code":"35011680","name":"삼천2동"}},{"type":"Feature","geometry":{"type":"Polygon","coordinates":[[[127.11687,35.79045],[127.11685,35.79862],[127.11001,35.80128],[127.10778,35.79716],[127.09561,35.79477],[127.08554,35.80321],[127.06746,35.80379],[127.06524,35.80255],[127.06591,35.79076],[127.06486,35.78616],[127.07117,35.78214],[127.07435,35.77519],[127.06672,35.77039],[127.06427,35.76675],[127.05369,35.76288],[127.05147,35.75966],[127.05955,35.75842],[127.06621,35.74928],[127.07059,35.74678],[127.07051,35.74223],[127.07839,35.73663],[127.08172,35.72964],[127.08518,35.72843],[127.09147,35.73625],[127.09542,35.73732],[127.09621,35.74535],[127.10206,35.75187],[127.09976,35.75566],[127.10301,35.76747],[127.11098,35.77277],[127.1085,35.77605],[127.1128,35.77929],[127.1096,35.78587],[127.11687,35.79045]]]},"properties":{"code":"35011690","name":"삼천3동"}},{"type":"Feature","geometry":{"type":"Polygon","coordinates":[[[127.12347,35.80935],[127.1253,35.8026],[127.1319,35.80295],[127.1376,35.80078],[127.14098,35.80208],[127.14095,35.80865],[127.13206,35.80655],[127.12982,35.80861],[127.12347,35.80935]]]},"properties":{"code":"35011700","name":"효자1동"}},{"type":"Feature","geometry":{"type":"Polygon","coordinates":[[[127.12306,35.81205],[127.11324,35.81545],[127.11263,35.81365],[127.11682,35.80668],[127.11688,35.80225],[127.1253,35.8026],[127.12347,35.80935],[127.12306,35.81205]]]},"properties":{"code":"35011710","name":"효자2동"}},{"type":"Feature","geometry":{"type":"Polygon","coordinates":[[[127.11688,35.80225],[127.11682,35.80668],[127.11263,35.81365],[127.11199,35.81363],[127.10918,35.80677],[127.11001,35.80128],[127.11685,35.79862],[127.11688,35.80225]]]},"properties":{"code":"35011720","name":"효자3동"}},{"type":"Feature","geometry":{"type":"Polygon","coordinates":[[[127.11001,35.80128],[127.10918,35.80677],[127.11199,35.81363],[127.0944,35.81363],[127.09241,35.81836],[127.07992,35.82397],[127.0719,35.82524],[127.07037,35.82505],[127.05624,35.82526],[127.05681,35.82304],[127.06553,35.81853],[127.06763,35.81424],[127.06746,35.80379],[127.08554,35.80321],[127.09561,35.79477],[127.10778,35.79716],[127.11001,35.80128]]]},"properties":{"code":"35011780","name":"효자4동"}},{"type":"Feature","geometry":{"type":"Polygon","coordinates":[[[127.1385,35.81374],[127.14317,35.81283],[127.14665,35.81441],[127.14566,35.82169],[127.14136,35.82783],[127.13216,35.82395],[127.13537,35.82035],[127.1385,35.81374]]]},"properties":{"code":"35011740","name":"중앙동"}},{"type":"Feature","geometry":{"type":"Polygon","coordinates":[[[127.17211,35.81174],[127.16932,35.81756],[127.15358,35.81765],[127.14936,35.82275],[127.14566,35.82169],[127.14665,35.81441],[127.14317,35.81283],[127.14895,35.81109],[127.15319,35.81067],[127.16084,35.81157],[127.16597,35.80704],[127.17211,35.81174]]]},"properties":{"code":"35011750","name":"풍남동"}},{"type":"Feature","geometry":{"type":"Polygon","coordinates":[[[127.14566,35.82169],[127.14936,35.82275],[127.15358,35.81765],[127.16932,35.81756],[127.16978,35.81845],[127.15819,35.82805],[127.1541,35.8296],[127.15154,35.82968],[127.14645,35.83067],[127.14136,35.82783],[127.14566,35.82169]]]},"properties":{"code":"35011760","name":"노송동"}},{"type":"Feature","geometry":{"type":"Polygon","coordinates":[[[127.14895,35.81109],[127.14317,35.81283],[127.1385,35.81374],[127.12982,35.80861],[127.13206,35.80655],[127.14095,35.80865],[127.14098,35.80208],[127.1413,35.80254],[127.14431,35.80284],[127.14895,35.81109]]]},"properties":{"code":"35011770","name":"완산동"}},{"type":"Feature","geometry":{"type":"Polygon","coordinates":[[[127.1541,35.8296],[127.15828,35.8365],[127.16366,35.83759],[127.16264,35.84301],[127.15288,35.84368],[127.15025,35.83618],[127.15154,35.82968],[127.1541,35.8296]]]},"properties":{"code":"35012540","name":"인후1동"}},{"type":"Feature","geometry":{"type":"Polygon","coordinates":[[[127.15154,35.82968],[127.15025,35.83618],[127.15288,35.84368],[127.14991,35.8505],[127.14454,35.85061],[127.14365,35.84395],[127.1453,35.84116],[127.14257,35.83284],[127.14645,35.83067],[127.15154,35.82968]]]},"properties":{"code":"35012550","name":"인후2동"}},{"type":"Feature","geometry":{"type":"Polygon","coordinates":[[[127.16978,35.81845],[127.17054,35.82505],[127.16712,35.83562],[127.16366,35.83759],[127.15828,35.8365],[127.1541,35.8296],[127.15819,35.82805],[127.16978,35.81845]]]},"properties":{"code":"35012560","name":"인후3동"}},{"type":"Feature","geometry":{"type":"Polygon","coordinates":[[[127.12388,35.83477],[127.12674,35.83427],[127.13064,35.84175],[127.13794,35.84465],[127.13606,35.85022],[127.14267,35.85268],[127.14454,35.85061],[127.14991,35.8505],[127.15031,35.85171],[127.1435,35.86158],[127.1404,35.85814],[127.13142,35.85634],[127.12816,35.85299],[127.12031,35.85108],[127.11498,35.85367],[127.105,35.84486],[127.10555,35.84223],[127.11203,35.83813],[127.11768,35.83823],[127.12388,35.83477]]]},"properties":{"code":"35012570","name":"덕진동"}},{"type":"Feature","geometry":{"type":"Polygon","coordinates":[[[127.14454,35.85061],[127.14267,35.85268],[127.13606,35.85022],[127.13794,35.84465],[127.13064,35.84175],[127.12674,35.83427],[127.13542,35.83199],[127.14257,35.83284],[127.1453,35.84116],[127.14365,35.84395],[127.14454,35.85061]]]},"properties":{"code":"35012721","name":"금암동"}},{"type":"Feature","geometry":{"type":"Polygon","coordinates":[[[127.105,35.84486],[127.11498,35.85367],[127.11415,35.85842],[127.10683,35.86193],[127.10711,35.86682],[127.1015,35.87362],[127.09222,35.86632],[127.09663,35.86371],[127.09265,35.86001],[127.08168,35.86485],[127.07882,35.86164],[127.08347,35.8571],[127.0826,35.85001],[127.0883,35.8469],[127.08727,35.84003],[127.09023,35.83813],[127.10474,35.8401],[127.105,35.84486]]]},"properties":{"code":"35012600","name":"팔복동"}},{"type":"Feature","geometry":{"type":"Polygon","coordinates":[[[127.16264,35.84301],[127.1681,35.8461],[127.1676,35.85699],[127.16659,35.85898],[127.15725,35.85722],[127.15031,35.85171],[127.14991,35.8505],[127.15288,35.84368],[127.16264,35.84301]]]},"properties":{"code":"35012610","name":"우아1동"}},{"type":"Feature","geometry":{"type":"Polygon","coordinates":[[[127.21728,35.80164],[127.22822,35.8088],[127.2311,35.81851],[127.23561,35.82149],[127.22753,35.82228],[127.2195,35.81987],[127.21418,35.82212],[127.20854,35.8292],[127.21022,35.84119],[127.20497,35.84511],[127.19812,35.85686],[127.19457,35.85877],[127.1854,35.85578],[127.17405,35.8547],[127.1676,35.85699],[127.1681,35.8461],[127.16264,35.84301],[127.16366,35.83759],[127.16712,35.83562],[127.17054,35.82505],[127.16978,35.81845],[127.16932,35.81756],[127.17211,35.81174],[127.18028,35.80528],[127.18786,35.80591],[127.19153,35.81001],[127.19787,35.81104],[127.20345,35.80944],[127.20713,35.80563],[127.21367,35.80472],[127.21728,35.80164]]]},"properties":{"code":"35012620","name":"우아2동"}},{"type":"Feature","geometry":{"type":"Polygon","coordinates":[[[127.15031,35.85171],[127.15725,35.85722],[127.16659,35.85898],[127.16223,35.86796],[127.15197,35.88059],[127.1479,35.89014],[127.14101,35.89775],[127.13637,35.90046],[127.12763,35.90149],[127.12888,35.89603],[127.13419,35.89338],[127.13317,35.88962],[127.13478,35.88096],[127.13712,35.87931],[127.1424,35.86905],[127.1435,35.86158],[127.15031,35.85171]]]},"properties":{"code":"35012630","name":"호성동"}},{"type":"Feature","geometry":{"type":"Polygon","coordinates":[[[127.1435,35.86158],[127.1424,35.86905],[127.12135,35.86968],[127.12153,35.86103],[127.12031,35.85108],[127.12816,35.85299],[127.13142,35.85634],[127.1404,35.85814],[127.1435,35.86158]]]},"properties":{"code":"35012650","name":"송천1동"}},{"type":"Feature","geometry":{"type":"Polygon","coordinates":[[[127.12031,35.85108],[127.12153,35.86103],[127.12135,35.86968],[127.12605,35.87551],[127.11853,35.87876],[127.13217,35.8816],[127.13478,35.88096],[127.13317,35.88962],[127.13419,35.89338],[127.12888,35.89603],[127.12763,35.90149],[127.11174,35.89793],[127.10583,35.89612],[127.0979,35.89613],[127.08864,35.89331],[127.0924,35.88085],[127.09887,35.87774],[127.1015,35.87362],[127.10711,35.86682],[127.10683,35.86193],[127.11415,35.85842],[127.11498,35.85367],[127.12031,35.85108]]]},"properties":{"code":"35012660","name":"송천2동"}},{"type":"Feature","geometry":{"type":"Polygon","coordinates":[[[127.07668,35.89815],[127.06421,35.89898],[127.05262,35.89208],[127.04534,35.89337],[127.04198,35.89644],[127.03723,35.89346],[127.03404,35.89247],[127.02819,35.89783],[127.01905,35.89421],[127.0149,35.89573],[127.00032,35.89278],[127.00144,35.88905],[126.99787,35.8837],[127.00655,35.87671],[127.00666,35.87045],[127.00553,35.86204],[127.0162,35.85923],[127.02466,35.86471],[127.02846,35.8612],[127.02935,35.85381],[127.03408,35.85073],[127.04988,35.85387],[127.04855,35.85951],[127.04553,35.86152],[127.04681,35.86834],[127.05061,35.86965],[127.05861,35.86578],[127.06564,35.8662],[127.06933,35.87024],[127.07642,35.87154],[127.07713,35.88744],[127.07668,35.89815]]]},"properties":{"code":"35012670","name":"조촌동"}},{"type":"Feature","geometry":{"type":"Polygon","coordinates":[[[127.0719,35.82524],[127.07727,35.82953],[127.0856,35.83247],[127.08727,35.84003],[127.0883,35.8469],[127.0826,35.85001],[127.08347,35.8571],[127.07882,35.86164],[127.08168,35.86485],[127.09265,35.86001],[127.09663,35.86371],[127.09222,35.86632],[127.1015,35.87362],[127.09887,35.87774],[127.0924,35.88085],[127.08864,35.89331],[127.07668,35.89815],[127.07713,35.88744],[127.07642,35.87154],[127.06933,35.87024],[127.06564,35.8662],[127.05861,35.86578],[127.05061,35.86965],[127.04681,35.86834],[127.04553,35.86152],[127.04855,35.85951],[127.04988,35.85387],[127.04985,35.85181],[127.05634,35.83915],[127.05862,35.83828],[127.06722,35.8385],[127.06779,35.83282],[127.07202,35.83189],[127.07037,35.82505],[127.0719,35.82524]]]},"properties":{"code":"35012710","name":"여의동"}},{"type":"Feature","geometry":{"type":"Polygon","coordinates":[[[127.13537,35.82035],[127.13216,35.82395],[127.14136,35.82783],[127.14645,35.83067],[127.14257,35.83284],[127.13542,35.83199],[127.12674,35.83427],[127.12388,35.83477],[127.12861,35.82952],[127.12665,35.82523],[127.12942,35.81944],[127.13537,35.82035]]]},"properties":{"code":"35012690","name":"진북동"}},{"type":"Feature","geometry":{"type":"Polygon","coordinates":[[[127.11365,35.82532],[127.11277,35.82585],[127.11157,35.82807],[127.10535,35.83285],[127.10474,35.8401],[127.09023,35.83813],[127.08727,35.84003],[127.0856,35.83247],[127.07727,35.82953],[127.0719,35.82524],[127.07992,35.82397],[127.09241,35.81836],[127.0944,35.81363],[127.11199,35.81363],[127.11263,35.81365],[127.11324,35.81545],[127.11365,35.82532]]]},"properties":{"code":"35011790","name":"효자5동"}},{"type":"Feature","geometry":{"type":"Polygon","coordinates":[[[127.07037,35.82505],[127.07202,35.83189],[127.06779,35.83282],[127.06722,35.8385],[127.05862,35.83828],[127.05855,35.83296],[127.05177,35.83331],[127.05094,35.82864],[127.05624,35.82526],[127.07037,35.82505]]]},"properties":{"code":"35012700","name":"혁신동"}},{"type":"Feature","geometry":{"type":"Polygon","coordinates":[[[127.13478,35.88096],[127.13217,35.8816],[127.11853,35.87876],[127.12605,35.87551],[127.12135,35.86968],[127.1424,35.86905],[127.13712,35.87931],[127.13478,35.88096]]]},"properties":{"code":"35012722","name":"송천3동"}}]}