{"type":"FeatureCollection","features":[{"type":"Feature","geometry":{"type":"Polygon","coordinates":[[[126.70935,35.94287],[126.7016,35.94266],[126.6882,35.93405],[126.68049,35.9337],[126.67664,35.92733],[126.66746,35.92751],[126.65061,35.93065],[126.65012,35.90214],[126.65897,35.89865],[126.65249,35.88527],[126.65051,35.88412],[126.65865,35.88467],[126.66767,35.88343],[126.67489,35.88914],[126.67639,35.89466],[126.69913,35.89374],[126.71313,35.88927],[126.71583,35.89544],[126.7149,35.89921],[126.72474,35.90194],[126.72988,35.90582],[126.7295,35.91996],[126.72647,35.92853],[126.71662,35.9286],[126.7102,35.93698],[126.70935,35.94287]]]},"properties":{"code":"35020110","name":"옥구읍"}},{"type":"Feature","geometry":{"type":"Polygon","coordinates":[[[126.7295,35.91996],[126.7354,35.91502],[126.74085,35.9142],[126.74259,35.91744],[126.74028,35.92488],[126.7483,35.93499],[126.75608,35.93166],[126.76034,35.93337],[126.77215,35.93239],[126.77384,35.93972],[126.76901,35.94796],[126.76859,35.955],[126.75455,35.95475],[126.73569,35.95895],[126.71847,35.95522],[126.70935,35.94287],[126.7102,35.93698],[126.71662,35.9286],[126.72647,35.92853],[126.7295,35.91996]]]},"properties":{"code":"35020310","name":"옥산면"}},{"type":"Feature","geometry":{"type":"Polygon","coordinates":[[[126.71313,35.88927],[126.725,35.88577],[126.73634,35.89157],[126.74175,35.89003],[126.76305,35.89147],[126.76999,35.88901],[126.78415,35.90237],[126.79895,35.90688],[126.80688,35.90814],[126.80271,35.91625],[126.79812,35.91629],[126.78689,35.92395],[126.78536,35.93442],[126.77384,35.93972],[126.77215,35.93239],[126.76034,35.93337],[126.75608,35.93166],[126.7483,35.93499],[126.74028,35.92488],[126.74259,35.91744],[126.74085,35.9142],[126.7354,35.91502],[126.7295,35.91996],[126.72988,35.90582],[126.72474,35.90194],[126.7149,35.89921],[126.71583,35.89544],[126.71313,35.88927]]]},"properties":{"code":"35020320","name":"회현면"}},{"type":"Feature","geometry":{"type":"Polygon","coordinates":[[[126.84367,36.00641],[126.84066,36.00498],[126.84042,35.99849],[126.8328,35.99139],[126.82858,35.98442],[126.83433,35.97803],[126.83198,35.97651],[126.83502,35.97205],[126.83354,35.96692],[126.83437,35.95828],[126.83263,35.9519],[126.84276,35.95337],[126.84943,35.95141],[126.85897,35.95221],[126.86449,35.94916],[126.87126,35.95193],[126.87906,35.95004],[126.88199,35.95481],[126.89034,35.95268],[126.89374,35.95512],[126.88521,35.96085],[126.89976,35.97092],[126.9029,35.97205],[126.90226,35.97863],[126.90947,35.98191],[126.90919,35.98354],[126.90777,35.98338],[126.87586,35.97388],[126.86509,35.97453],[126.85694,35.97358],[126.85719,35.97882],[126.86543,35.98672],[126.86727,35.99317],[126.85841,35.99754],[126.84745,36.00132],[126.84367,36.00641]]]},"properties":{"code":"35020330","name":"임피면"}},{"type":"Feature","geometry":{"type":"Polygon","coordinates":[[[126.90777,35.98338],[126.91201,35.98922],[126.91522,35.99676],[126.91479,36.00435],[126.90101,36.00786],[126.89657,36.0136],[126.89066,36.01744],[126.88401,36.02612],[126.8703,36.03283],[126.87145,36.02744],[126.86688,36.0224],[126.86652,36.01737],[126.85592,36.01829],[126.85362,36.02036],[126.84403,36.02022],[126.84024,36.01873],[126.84567,36.01221],[126.84367,36.00641],[126.84745,36.00132],[126.85841,35.99754],[126.86727,35.99317],[126.86543,35.98672],[126.85719,35.97882],[126.85694,35.97358],[126.86509,35.97453],[126.87586,35.97388],[126.90777,35.98338]]]},"properties":{"code":"35020340","name":"서수면"}},{"type":"Feature","geometry":{"type":"Polygon","coordinates":[[[126.80688,35.90814],[126.81928,35.90814],[126.82812,35.90678],[126.83728,35.91156],[126.84749,35.92021],[126.8536,35.91679],[126.86076,35.91889],[126.86611,35.92439],[126.87719,35.93327],[126.88098,35.93832],[126.88183,35.94725],[126.89034,35.95268],[126.88199,35.95481],[126.87906,35.95004],[126.87126,35.95193],[126.86449,35.94916],[126.85897,35.95221],[126.84943,35.95141],[126.84276,35.95337],[126.83263,35.9519],[126.83437,35.95828],[126.83354,35.96692],[126.83502,35.97205],[126.83198,35.97651],[126.81615,35.972],[126.80584,35.97189],[126.80731,35.9658],[126.80615,35.95996],[126.80818,35.95345],[126.80719,35.94643],[126.80351,35.94027],[126.78536,35.93442],[126.78689,35.92395],[126.79812,35.91629],[126.80271,35.91625],[126.80688,35.90814]]]},"properties":{"code":"35020350","name":"대야면"}},{"type":"Feature","geometry":{"type":"Polygon","coordinates":[[[126.77384,35.93972],[126.78536,35.93442],[126.80351,35.94027],[126.80719,35.94643],[126.80818,35.95345],[126.80615,35.95996],[126.80731,35.9658],[126.80584,35.97189],[126.80495,35.97659],[126.80031,35.97983],[126.79151,35.97921],[126.77561,35.98113],[126.76973,35.98865],[126.76501,35.99043],[126.76148,35.98341],[126.7633,35.98043],[126.76787,35.9769],[126.76688,35.96449],[126.76964,35.96191],[126.76859,35.955],[126.76901,35.94796],[126.77384,35.93972]]]},"properties":{"code":"35020360","name":"개정면"}},{"type":"Feature","geometry":{"type":"Polygon","coordinates":[[[126.7448,36.01814],[126.74916,36.01304],[126.76484,36.00641],[126.76889,36.01026],[126.76995,35.99695],[126.76436,35.99482],[126.76501,35.99043],[126.76973,35.98865],[126.77561,35.98113],[126.79151,35.97921],[126.80031,35.97983],[126.80495,35.97659],[126.80584,35.97189],[126.81615,35.972],[126.83198,35.97651],[126.83433,35.97803],[126.82858,35.98442],[126.8328,35.99139],[126.82574,35.99734],[126.81927,36.00789],[126.81417,36.00421],[126.80629,36.01406],[126.79651,36.01625],[126.79344,36.01197],[126.78473,36.01713],[126.78822,36.03068],[126.77527,36.03164],[126.76514,36.02941],[126.75667,36.02576],[126.74868,36.02354],[126.7448,36.01814]]]},"properties":{"code":"35020370","name":"성산면"}},{"type":"Feature","geometry":{"type":"Polygon","coordinates":[[[126.78822,36.03068],[126.78473,36.01713],[126.79344,36.01197],[126.79651,36.01625],[126.80629,36.01406],[126.81417,36.00421],[126.81927,36.00789],[126.82574,35.99734],[126.8328,35.99139],[126.84042,35.99849],[126.84066,36.00498],[126.84367,36.00641],[126.84567,36.01221],[126.84024,36.01873],[126.84403,36.02022],[126.85362,36.02036],[126.85592,36.01829],[126.86652,36.01737],[126.86688,36.0224],[126.87145,36.02744],[126.8703,36.03283],[126.87292,36.03963],[126.87369,36.04253],[126.86862,36.04598],[126.86358,36.06057],[126.84363,36.05245],[126.8297,36.0469],[126.81333,36.03557],[126.79767,36.03077],[126.78822,36.03068]]]},"properties":{"code":"35020380","name":"나포면"}},{"type":"Feature","geometry":{"type":"MultiPolygon","coordinates":[[[[126.4481,35.7486],[126.44005,35.74341],[126.44734,35.74],[126.45135,35.73608],[126.44845,35.73137],[126.45556,35.7297],[126.45843,35.7376],[126.45462,35.74492],[126.4481,35.7486]]],[[[126.44057,35.8061],[126.43755,35.81072],[126.43178,35.80226],[126.42122,35.80681],[126.41733,35.80482],[126.41343,35.79867],[126.41931,35.79359],[126.42512,35.79312],[126.42944,35.79738],[126.43784,35.80195],[126.44057,35.8061]]],[[[126.39742,35.8189],[126.38916,35.82189],[126.38713,35.81947],[126.39661,35.81443],[126.39742,35.8189]]],[[[126.37121,35.82066],[126.36671,35.81491],[126.36795,35.80849],[126.37298,35.80433],[126.37945,35.80566],[126.37601,35.81462],[126.37122,35.81589],[126.37121,35.82066]]],[[[126.40466,35.83211],[126.40522,35.82717],[126.4126,35.82323],[126.40956,35.81458],[126.40285,35.81202],[126.40981,35.80468],[126.41505,35.80594],[126.41726,35.82369],[126.41403,35.83057],[126.40466,35.83211]]],[[[126.49065,35.84699],[126.48584,35.84373],[126.49096,35.8382],[126.47561,35.82241],[126.45956,35.82612],[126.45538,35.83101],[126.44423,35.83168],[126.44157,35.82769],[126.44479,35.8233],[126.4522,35.82035],[126.44951,35.81618],[126.44927,35.80749],[126.45357,35.80599],[126.45715,35.81011],[126.45731,35.8145],[126.47034,35.81074],[126.48069,35.81208],[126.48742,35.81567],[126.48074,35.81888],[126.49657,35.83318],[126.49925,35.8374],[126.50045,35.84422],[126.49065,35.84699]]],[[[126.34125,35.85393],[126.34049,35.85048],[126.35245,35.84913],[126.35238,35.85343],[126.34125,35.85393]]],[[[126.38721,35.85556],[126.37816,35.85353],[126.37145,35.85387],[126.36171,35.84627],[126.37201,35.84602],[126.37988,35.84748],[126.38721,35.85556]]],[[[126.31615,35.85906],[126.31948,35.85293],[126.32624,35.85217],[126.32562,35.85755],[126.31615,35.85906]]],[[[126.53098,36.03529],[126.52838,36.04219],[126.52317,36.03716],[126.53098,36.03529]]],[[[126.55711,36.04469],[126.5549,36.04724],[126.54394,36.04447],[126.54071,36.03726],[126.55106,36.03338],[126.55688,36.02989],[126.55864,36.03762],[126.55711,36.04469]]],[[[126.43938,36.08563],[126.42789,36.08559],[126.43023,36.07992],[126.43508,36.07612],[126.44473,36.07869],[126.44603,36.08202],[126.43938,36.08563]]],[[[125.98405,36.12318],[125.97772,36.1262],[125.96924,36.12757],[125.96654,36.12484],[125.97343,36.11202],[125.98041,36.11043],[125.98431,36.11297],[125.99341,36.11161],[125.99568,36.11779],[125.9949,36.12245],[125.98405,36.12318]]]]},"properties":{"code":"35020390","name":"옥도면"}},{"type":"Feature","geometry":{"type":"Polygon","coordinates":[[[126.65061,35.93065],[126.63641,35.93752],[126.63146,35.9446],[126.62505,35.94237],[126.61495,35.94267],[126.61696,35.9395],[126.61152,35.9296],[126.61038,35.9166],[126.61131,35.90713],[126.61475,35.89105],[126.61155,35.88757],[126.61792,35.88598],[126.62055,35.88837],[126.6307,35.8857],[126.65051,35.88412],[126.65249,35.88527],[126.65897,35.89865],[126.65012,35.90214],[126.65061,35.93065]]]},"properties":{"code":"35020400","name":"옥서면"}},{"type":"Feature","geometry":{"type":"Polygon","coordinates":[[[126.71371,35.99729],[126.70412,35.99969],[126.68011,35.99929],[126.68626,35.99324],[126.69587,35.98289],[126.69976,35.98452],[126.70731,35.98707],[126.71371,35.99729]]]},"properties":{"code":"35020510","name":"해신동"}},{"type":"Feature","geometry":{"type":"Polygon","coordinates":[[[126.69976,35.98452],[126.70301,35.98215],[126.70776,35.98359],[126.71389,35.97993],[126.71722,35.98107],[126.71422,35.98266],[126.72159,35.99541],[126.71371,35.99729],[126.70731,35.98707],[126.69976,35.98452]]]},"properties":{"code":"35020530","name":"월명동"}},{"type":"Feature","geometry":{"type":"Polygon","coordinates":[[[126.69587,35.98289],[126.69391,35.97634],[126.70521,35.96979],[126.71067,35.96984],[126.70921,35.97488],[126.70301,35.98215],[126.69976,35.98452],[126.69587,35.98289]]]},"properties":{"code":"35020550","name":"신풍동"}},{"type":"Feature","geometry":{"type":"Polygon","coordinates":[[[126.70301,35.98215],[126.70921,35.97488],[126.71472,35.97508],[126.71389,35.97993],[126.70776,35.98359],[126.70301,35.98215]]]},"properties":{"code":"35020560","name":"삼학동"}},{"type":"Feature","geometry":{"type":"Polygon","coordinates":[[[126.71722,35.98107],[126.721,35.98239],[126.72736,35.98184],[126.72858,35.98483],[126.72892,35.996],[126.72159,35.99541],[126.71422,35.98266],[126.71722,35.98107]]]},"properties":{"code":"35020600","name":"중앙동"}},{"type":"Feature","geometry":{"type":"Polygon","coordinates":[[[126.71389,35.97993],[126.71472,35.97508],[126.70921,35.97488],[126.71067,35.96984],[126.71564,35.97287],[126.72411,35.97301],[126.72416,35.97668],[126.721,35.98239],[126.71722,35.98107],[126.71389,35.97993]]]},"properties":{"code":"35020640","name":"흥남동"}},{"type":"Feature","geometry":{"type":"Polygon","coordinates":[[[126.72411,35.97301],[126.7356,35.96413],[126.73569,35.95895],[126.7414,35.96043],[126.74162,35.9651],[126.7453,35.96959],[126.75135,35.97307],[126.74932,35.97956],[126.74471,35.98316],[126.73928,35.98246],[126.73502,35.97746],[126.72919,35.97396],[126.72416,35.97668],[126.72411,35.97301]]]},"properties":{"code":"35020650","name":"조촌동"}},{"type":"Feature","geometry":{"type":"Polygon","coordinates":[[[126.721,35.98239],[126.72416,35.97668],[126.72919,35.97396],[126.73502,35.97746],[126.73928,35.98246],[126.73225,35.99755],[126.72892,35.996],[126.72858,35.98483],[126.72736,35.98184],[126.721,35.98239]]]},"properties":{"code":"35020660","name":"경암동"}},{"type":"Feature","geometry":{"type":"Polygon","coordinates":[[[126.7348,36.00085],[126.73225,35.99755],[126.73928,35.98246],[126.74471,35.98316],[126.74932,35.97956],[126.75135,35.97307],[126.7633,35.98043],[126.76148,35.98341],[126.76501,35.99043],[126.76436,35.99482],[126.76995,35.99695],[126.76889,36.01026],[126.76484,36.00641],[126.74916,36.01304],[126.7448,36.01814],[126.73482,36.00088],[126.7348,36.00085]]]},"properties":{"code":"35020670","name":"구암동"}},{"type":"Feature","geometry":{"type":"Polygon","coordinates":[[[126.76859,35.955],[126.76964,35.96191],[126.76688,35.96449],[126.76787,35.9769],[126.7633,35.98043],[126.75135,35.97307],[126.7453,35.96959],[126.74162,35.9651],[126.7414,35.96043],[126.73569,35.95895],[126.75455,35.95475],[126.76859,35.955]]]},"properties":{"code":"35020680","name":"개정동"}},{"type":"Feature","geometry":{"type":"Polygon","coordinates":[[[126.70935,35.94287],[126.71847,35.95522],[126.73569,35.95895],[126.7356,35.96413],[126.72411,35.97301],[126.71564,35.97287],[126.71067,35.96984],[126.71071,35.96396],[126.70508,35.96075],[126.70376,35.94841],[126.7016,35.94266],[126.70935,35.94287]]]},"properties":{"code":"35020690","name":"수송동"}},{"type":"Feature","geometry":{"type":"Polygon","coordinates":[[[126.69391,35.97634],[126.68796,35.96734],[126.68914,35.96492],[126.69658,35.96246],[126.70287,35.96979],[126.70521,35.96979],[126.69391,35.97634]]]},"properties":{"code":"35020700","name":"나운1동"}},{"type":"Feature","geometry":{"type":"Polygon","coordinates":[[[126.70521,35.96979],[126.70287,35.96979],[126.69658,35.96246],[126.70508,35.96075],[126.71071,35.96396],[126.71067,35.96984],[126.70521,35.96979]]]},"properties":{"code":"35020710","name":"나운2동"}},{"type":"Feature","geometry":{"type":"Polygon","coordinates":[[[126.68626,35.99324],[126.67569,35.99063],[126.67771,35.9834],[126.66644,35.98406],[126.64279,35.97889],[126.63873,35.98015],[126.63164,35.97832],[126.6091,35.97853],[126.59572,35.97731],[126.56852,35.97591],[126.56869,35.97376],[126.55109,35.97504],[126.52114,35.97102],[126.52301,35.94977],[126.52566,35.93438],[126.53382,35.93248],[126.53704,35.94062],[126.5493,35.93967],[126.54943,35.94314],[126.59508,35.9475],[126.58374,35.95424],[126.59372,35.95527],[126.61114,35.96485],[126.62195,35.96543],[126.65281,35.97279],[126.67175,35.97892],[126.67766,35.97467],[126.67504,35.96943],[126.6843,35.96925],[126.68677,35.9664],[126.68796,35.96734],[126.69391,35.97634],[126.69587,35.98289],[126.68626,35.99324]]]},"properties":{"code":"35020720","name":"소룡동"}},{"type":"Feature","geometry":{"type":"Polygon","coordinates":[[[126.66746,35.92751],[126.66904,35.93145],[126.66854,35.95079],[126.67315,35.95066],[126.67506,35.95962],[126.6856,35.95841],[126.68677,35.9664],[126.6843,35.96925],[126.67504,35.96943],[126.67766,35.97467],[126.67175,35.97892],[126.65281,35.97279],[126.62195,35.96543],[126.61114,35.96485],[126.59372,35.95527],[126.58374,35.95424],[126.59508,35.9475],[126.61495,35.94267],[126.62505,35.94237],[126.63146,35.9446],[126.63641,35.93752],[126.65061,35.93065],[126.66746,35.92751]]]},"properties":{"code":"35020730","name":"미성동"}},{"type":"Feature","geometry":{"type":"Polygon","coordinates":[[[126.7016,35.94266],[126.70376,35.94841],[126.70508,35.96075],[126.69658,35.96246],[126.68914,35.96492],[126.68796,35.96734],[126.68677,35.9664],[126.6856,35.95841],[126.67506,35.95962],[126.67315,35.95066],[126.66854,35.95079],[126.66904,35.93145],[126.66746,35.92751],[126.67664,35.92733],[126.68049,35.9337],[126.6882,35.93405],[126.7016,35.94266]]]},"properties":{"code":"35020740","name":"나운3동"}}]}