{"type":"FeatureCollection","features":[{"type":"Feature","geometry":{"type":"Polygon","coordinates":[[[126.98845,36.08714],[126.98263,36.08929],[126.97377,36.08394],[126.96738,36.08535],[126.96631,36.08821],[126.95764,36.094],[126.95158,36.09391],[126.9511,36.08742],[126.94811,36.08026],[126.95034,36.06387],[126.94873,36.05198],[126.94508,36.05182],[126.94335,36.03888],[126.95382,36.0302],[126.96205,36.02697],[126.97043,36.03471],[126.97389,36.03945],[126.97664,36.04704],[126.98291,36.0528],[126.98253,36.05751],[126.98524,36.06938],[126.98164,36.07936],[126.98902,36.08176],[126.98845,36.08714]]]},"properties":{"code":"35030110","name":"함열읍"}},{"type":"Feature","geometry":{"type":"Polygon","coordinates":[[[126.89034,35.95268],[126.88183,35.94725],[126.88098,35.93832],[126.87719,35.93327],[126.86611,35.92439],[126.86076,35.91889],[126.8536,35.91679],[126.85493,35.90897],[126.86031,35.90524],[126.86681,35.90773],[126.87161,35.91087],[126.87818,35.90977],[126.89209,35.9151],[126.89948,35.91233],[126.90572,35.90532],[126.91782,35.90572],[126.92332,35.90834],[126.93261,35.91157],[126.92546,35.91278],[126.91144,35.91973],[126.91505,35.92798],[126.92188,35.93706],[126.93224,35.94649],[126.93368,35.95053],[126.93274,35.9575],[126.92884,35.9601],[126.9227,35.96469],[126.92184,35.9727],[126.91679,35.97226],[126.90947,35.98191],[126.90226,35.97863],[126.9029,35.97205],[126.89976,35.97092],[126.88521,35.96085],[126.89374,35.95512],[126.89034,35.95268]]]},"properties":{"code":"35030310","name":"오산면"}},{"type":"Feature","geometry":{"type":"Polygon","coordinates":[[[126.90919,35.98354],[126.92152,35.98469],[126.93252,35.98453],[126.94187,35.98858],[126.94966,35.9866],[126.95759,35.98638],[126.96505,35.98808],[126.96082,35.99579],[126.96396,36.00189],[126.96469,36.0131],[126.96213,36.01996],[126.95901,36.02098],[126.96205,36.02697],[126.95382,36.0302],[126.94335,36.03888],[126.94508,36.05182],[126.94873,36.05198],[126.95034,36.06387],[126.94704,36.06437],[126.94183,36.0593],[126.93354,36.05808],[126.92641,36.05611],[126.92101,36.04897],[126.91777,36.04033],[126.9139,36.03864],[126.92372,36.01946],[126.92055,36.01719],[126.92218,36.00975],[126.91796,36.00218],[126.91479,36.00435],[126.91522,35.99676],[126.91201,35.98922],[126.90777,35.98338],[126.90919,35.98354]]]},"properties":{"code":"35030320","name":"황등면"}},{"type":"Feature","geometry":{"type":"Polygon","coordinates":[[[126.91479,36.00435],[126.91796,36.00218],[126.92218,36.00975],[126.92055,36.01719],[126.92372,36.01946],[126.9139,36.03864],[126.91777,36.04033],[126.92101,36.04897],[126.92641,36.05611],[126.93354,36.05808],[126.92911,36.06161],[126.93089,36.06529],[126.92589,36.0719],[126.91862,36.07435],[126.91737,36.07928],[126.91373,36.07501],[126.9065,36.07269],[126.90408,36.06813],[126.89915,36.06528],[126.89424,36.05789],[126.89354,36.05363],[126.88605,36.04819],[126.87711,36.03962],[126.87292,36.03963],[126.8703,36.03283],[126.88401,36.02612],[126.89066,36.01744],[126.89657,36.0136],[126.90101,36.00786],[126.91479,36.00435]]]},"properties":{"code":"35030330","name":"함라면"}},{"type":"Feature","geometry":{"type":"Polygon","coordinates":[[[126.87012,36.06925],[126.86358,36.06057],[126.86862,36.04598],[126.87369,36.04253],[126.87292,36.03963],[126.87711,36.03962],[126.88605,36.04819],[126.89354,36.05363],[126.89424,36.05789],[126.89915,36.06528],[126.90408,36.06813],[126.9065,36.07269],[126.91373,36.07501],[126.91737,36.07928],[126.91929,36.08184],[126.91674,36.08818],[126.90992,36.0964],[126.91239,36.1083],[126.91139,36.11536],[126.91375,36.11929],[126.91421,36.12874],[126.91306,36.13473],[126.91452,36.14138],[126.90492,36.14355],[126.89035,36.13937],[126.88406,36.13249],[126.87328,36.11293],[126.87237,36.10406],[126.8749,36.0915],[126.87315,36.07828],[126.87012,36.06925]]]},"properties":{"code":"35030340","name":"웅포면"}},{"type":"Feature","geometry":{"type":"Polygon","coordinates":[[[126.91452,36.14138],[126.91306,36.13473],[126.91421,36.12874],[126.91375,36.11929],[126.91139,36.11536],[126.91239,36.1083],[126.90992,36.0964],[126.91674,36.08818],[126.91929,36.08184],[126.91737,36.07928],[126.91862,36.07435],[126.92589,36.0719],[126.93089,36.06529],[126.92911,36.06161],[126.93354,36.05808],[126.94183,36.0593],[126.94704,36.06437],[126.95034,36.06387],[126.94811,36.08026],[126.9511,36.08742],[126.93711,36.09345],[126.94252,36.10644],[126.94023,36.10983],[126.93853,36.12099],[126.93671,36.1234],[126.92355,36.13032],[126.91898,36.13917],[126.91452,36.14138]]]},"properties":{"code":"35030350","name":"성당면"}},{"type":"Feature","geometry":{"type":"Polygon","coordinates":[[[126.91898,36.13917],[126.92355,36.13032],[126.93671,36.1234],[126.93853,36.12099],[126.94023,36.10983],[126.94252,36.10644],[126.93711,36.09345],[126.9511,36.08742],[126.95158,36.09391],[126.95764,36.094],[126.96631,36.08821],[126.96738,36.08535],[126.97377,36.08394],[126.98263,36.08929],[126.98845,36.08714],[126.98613,36.09642],[126.97812,36.11192],[126.97536,36.12885],[126.97072,36.1306],[126.96647,36.13631],[126.96915,36.14452],[126.97469,36.14854],[126.96879,36.15072],[126.96414,36.15502],[126.95698,36.15642],[126.94338,36.15332],[126.93916,36.15132],[126.93194,36.14677],[126.92339,36.13933],[126.91898,36.13917]]]},"properties":{"code":"35030360","name":"용안면"}},{"type":"Feature","geometry":{"type":"Polygon","coordinates":[[[126.97389,36.03945],[126.98206,36.03828],[126.98996,36.04247],[127.00095,36.04138],[127.00606,36.04275],[127.01225,36.04106],[127.01436,36.03529],[127.02585,36.03776],[127.03309,36.03554],[127.03876,36.03179],[127.04078,36.03686],[127.04974,36.04169],[127.05418,36.03886],[127.06083,36.04135],[127.06321,36.04759],[127.06087,36.05394],[127.06571,36.06169],[127.05665,36.06756],[127.05485,36.07553],[127.04907,36.07612],[127.03889,36.07588],[127.03801,36.08614],[127.03285,36.09133],[127.01965,36.09379],[127.01711,36.08681],[127.00862,36.08348],[126.99616,36.0809],[126.98845,36.08714],[126.98902,36.08176],[126.98164,36.07936],[126.98524,36.06938],[126.98253,36.05751],[126.98291,36.0528],[126.97664,36.04704],[126.97389,36.03945]]]},"properties":{"code":"35030370","name":"낭산면"}},{"type":"Feature","geometry":{"type":"Polygon","coordinates":[[[127.00345,36.14914],[127.00026,36.14682],[126.99018,36.145],[126.97469,36.14854],[126.96915,36.14452],[126.96647,36.13631],[126.97378,36.13743],[126.97977,36.13602],[126.98382,36.13154],[126.991,36.12987],[126.98995,36.12539],[126.99395,36.11865],[126.99838,36.117],[127.00038,36.12182],[127.00486,36.11929],[127.01458,36.12077],[127.01876,36.11779],[127.02043,36.11129],[127.01926,36.1056],[127.01543,36.09873],[127.01965,36.09379],[127.03285,36.09133],[127.03801,36.08614],[127.03889,36.07588],[127.04907,36.07612],[127.04896,36.08143],[127.05518,36.08406],[127.06303,36.09211],[127.06086,36.09489],[127.06111,36.10499],[127.05824,36.10824],[127.05778,36.11716],[127.06058,36.11984],[127.05152,36.13518],[127.04976,36.14237],[127.0461,36.14378],[127.03959,36.14233],[127.03002,36.13671],[127.02055,36.13812],[127.01792,36.14529],[127.01028,36.14608],[127.00345,36.14914]]]},"properties":{"code":"35030380","name":"망성면"}},{"type":"Feature","geometry":{"type":"Polygon","coordinates":[[[127.06303,36.09211],[127.05518,36.08406],[127.04896,36.08143],[127.04907,36.07612],[127.05485,36.07553],[127.05665,36.06756],[127.06571,36.06169],[127.06087,36.05394],[127.06321,36.04759],[127.06083,36.04135],[127.06744,36.03781],[127.06512,36.02704],[127.06839,36.01992],[127.07351,36.0182],[127.08418,36.01805],[127.08354,36.01345],[127.08958,36.01175],[127.09178,36.01584],[127.09763,36.01851],[127.10093,36.02479],[127.10784,36.02578],[127.11614,36.03056],[127.11765,36.031],[127.1317,36.0455],[127.13532,36.05272],[127.1401,36.05711],[127.12991,36.06565],[127.1229,36.06319],[127.10178,36.0757],[127.09093,36.07197],[127.08773,36.07586],[127.0816,36.07792],[127.07881,36.08164],[127.0718,36.08436],[127.06303,36.09211]]]},"properties":{"code":"35030390","name":"여산면"}},{"type":"Feature","geometry":{"type":"Polygon","coordinates":[[[127.03876,36.03179],[127.03954,36.02532],[127.0248,36.02557],[127.01969,36.01613],[127.00917,36.01502],[126.99987,36.00565],[126.99789,35.99256],[127.0054,35.99078],[127.0169,35.99336],[127.02408,35.99086],[127.02916,35.98605],[127.04097,35.98455],[127.04856,35.98148],[127.04868,35.97724],[127.05352,35.97714],[127.06049,35.97729],[127.07272,35.99276],[127.07094,35.99879],[127.06726,36.00124],[127.06644,36.00775],[127.06839,36.01992],[127.06512,36.02704],[127.06744,36.03781],[127.06083,36.04135],[127.05418,36.03886],[127.04974,36.04169],[127.04078,36.03686],[127.03876,36.03179]]]},"properties":{"code":"35030400","name":"금마면"}},{"type":"Feature","geometry":{"type":"Polygon","coordinates":[[[127.06839,36.01992],[127.06644,36.00775],[127.06726,36.00124],[127.07094,35.99879],[127.07272,35.99276],[127.06049,35.97729],[127.05352,35.97714],[127.05282,35.96899],[127.05192,35.95949],[127.05322,35.95645],[127.05381,35.94482],[127.0528,35.9382],[127.0543,35.92836],[127.05708,35.92091],[127.06618,35.9158],[127.07522,35.92155],[127.0806,35.92149],[127.09233,35.93099],[127.09421,35.93554],[127.09458,35.94034],[127.10225,35.95149],[127.10641,35.96042],[127.10426,35.96451],[127.10852,35.98376],[127.10734,35.99553],[127.12516,36.00547],[127.12493,36.01243],[127.12148,36.02007],[127.11601,36.02414],[127.11614,36.03056],[127.10784,36.02578],[127.10093,36.02479],[127.09763,36.01851],[127.09178,36.01584],[127.08958,36.01175],[127.08354,36.01345],[127.08418,36.01805],[127.07351,36.0182],[127.06839,36.01992]]]},"properties":{"code":"35030410","name":"왕궁면"}},{"type":"Feature","geometry":{"type":"Polygon","coordinates":[[[127.03723,35.89346],[127.03617,35.90278],[127.03298,35.90453],[127.02972,35.91855],[127.03592,35.91846],[127.04306,35.92584],[127.05708,35.92091],[127.0543,35.92836],[127.0528,35.9382],[127.05381,35.94482],[127.05322,35.95645],[127.05192,35.95949],[127.05282,35.96899],[127.04757,35.97002],[127.03971,35.96026],[127.03214,35.96308],[127.02832,35.96211],[127.01631,35.95418],[127.01392,35.94807],[127.0171,35.93998],[127.01328,35.92984],[127.00883,35.9285],[126.99878,35.92892],[126.99749,35.92611],[126.99424,35.91868],[126.98816,35.91741],[126.9811,35.90986],[126.99549,35.90375],[126.99182,35.89777],[126.99416,35.89219],[126.99408,35.88408],[126.99787,35.8837],[127.00144,35.88905],[127.00032,35.89278],[127.0149,35.89573],[127.01905,35.89421],[127.02819,35.89783],[127.03404,35.89247],[127.03723,35.89346]]]},"properties":{"code":"35030420","name":"춘포면"}},{"type":"Feature","geometry":{"type":"Polygon","coordinates":[[[126.96205,36.02697],[126.95901,36.02098],[126.96213,36.01996],[126.96469,36.0131],[126.96396,36.00189],[126.97826,35.99361],[126.99164,35.99428],[126.99789,35.99256],[126.99987,36.00565],[127.00917,36.01502],[127.01969,36.01613],[127.0248,36.02557],[127.03954,36.02532],[127.03876,36.03179],[127.03309,36.03554],[127.02585,36.03776],[127.01436,36.03529],[127.01225,36.04106],[127.00606,36.04275],[127.00095,36.04138],[126.98996,36.04247],[126.98206,36.03828],[126.97389,36.03945],[126.97043,36.03471],[126.96205,36.02697]]]},"properties":{"code":"35030430","name":"삼기면"}},{"type":"Feature","geometry":{"type":"Polygon","coordinates":[[[126.98845,36.08714],[126.99616,36.0809],[127.00862,36.08348],[127.01711,36.08681],[127.01965,36.09379],[127.01543,36.09873],[127.01926,36.1056],[127.02043,36.11129],[127.01876,36.11779],[127.01458,36.12077],[127.00486,36.11929],[127.00038,36.12182],[126.99838,36.117],[126.99395,36.11865],[126.98995,36.12539],[126.991,36.12987],[126.98382,36.13154],[126.97977,36.13602],[126.97378,36.13743],[126.96647,36.13631],[126.97072,36.1306],[126.97536,36.12885],[126.97812,36.11192],[126.98613,36.09642],[126.98845,36.08714]]]},"properties":{"code":"35030440","name":"용동면"}},{"type":"Feature","geometry":{"type":"Polygon","coordinates":[[[126.94739,35.94488],[126.94303,35.94064],[126.94334,35.93642],[126.94934,35.93611],[126.95375,35.93393],[126.95525,35.9396],[126.95257,35.94314],[126.94739,35.94488]]]},"properties":{"code":"35030510","name":"중앙동"}},{"type":"Feature","geometry":{"type":"Polygon","coordinates":[[[126.93261,35.91157],[126.94136,35.91204],[126.94499,35.91863],[126.94282,35.92541],[126.94934,35.93611],[126.94334,35.93642],[126.93065,35.93542],[126.92188,35.93706],[126.91505,35.92798],[126.91144,35.91973],[126.92546,35.91278],[126.93261,35.91157]]]},"properties":{"code":"35030530","name":"평화동"}},{"type":"Feature","geometry":{"type":"Polygon","coordinates":[[[126.94934,35.93611],[126.94282,35.92541],[126.94499,35.91863],[126.94136,35.91204],[126.94634,35.91033],[126.95072,35.91807],[126.95813,35.92578],[126.95772,35.93171],[126.96127,35.93346],[126.95525,35.9396],[126.95375,35.93393],[126.94934,35.93611]]]},"properties":{"code":"35030550","name":"인화동"}},{"type":"Feature","geometry":{"type":"Polygon","coordinates":[[[126.99749,35.92611],[126.98125,35.92985],[126.98255,35.93278],[126.97592,35.93948],[126.97061,35.93975],[126.96127,35.93346],[126.95772,35.93171],[126.95813,35.92578],[126.95072,35.91807],[126.94634,35.91033],[126.95348,35.90903],[126.96013,35.90329],[126.97214,35.89788],[126.9813,35.8982],[126.98682,35.89665],[126.99416,35.89219],[126.99182,35.89777],[126.99549,35.90375],[126.9811,35.90986],[126.98816,35.91741],[126.99424,35.91868],[126.99749,35.92611]]]},"properties":{"code":"35030570","name":"동산동"}},{"type":"Feature","geometry":{"type":"Polygon","coordinates":[[[126.96127,35.93346],[126.97061,35.93975],[126.97018,35.94591],[126.96236,35.94808],[126.95525,35.9396],[126.96127,35.93346]]]},"properties":{"code":"35030580","name":"마동"}},{"type":"Feature","geometry":{"type":"Polygon","coordinates":[[[126.95525,35.9396],[126.96236,35.94808],[126.96611,35.95569],[126.96068,35.95719],[126.95408,35.95517],[126.94907,35.94999],[126.94739,35.94488],[126.95257,35.94314],[126.95525,35.9396]]]},"properties":{"code":"35030590","name":"남중동"}},{"type":"Feature","geometry":{"type":"Polygon","coordinates":[[[126.93224,35.94649],[126.94303,35.94064],[126.94739,35.94488],[126.94907,35.94999],[126.95408,35.95517],[126.95271,35.95952],[126.9469,35.96506],[126.9414,35.96028],[126.92884,35.9601],[126.93274,35.9575],[126.93368,35.95053],[126.93224,35.94649]]]},"properties":{"code":"35030610","name":"모현동"}},{"type":"Feature","geometry":{"type":"Polygon","coordinates":[[[126.92188,35.93706],[126.93065,35.93542],[126.94334,35.93642],[126.94303,35.94064],[126.93224,35.94649],[126.92188,35.93706]]]},"properties":{"code":"35030620","name":"송학동"}},{"type":"Feature","geometry":{"type":"Polygon","coordinates":[[[126.90947,35.98191],[126.91679,35.97226],[126.92184,35.9727],[126.9227,35.96469],[126.92884,35.9601],[126.9414,35.96028],[126.9469,35.96506],[126.95271,35.95952],[126.95408,35.95517],[126.96068,35.95719],[126.96611,35.95569],[126.96797,35.95929],[126.96741,35.96821],[126.96852,35.97467],[126.96358,35.97649],[126.96085,35.9839],[126.95759,35.98638],[126.94966,35.9866],[126.94187,35.98858],[126.93252,35.98453],[126.92152,35.98469],[126.90919,35.98354],[126.90947,35.98191]]]},"properties":{"code":"35030650","name":"신동"}},{"type":"Feature","geometry":{"type":"Polygon","coordinates":[[[126.97018,35.94591],[126.97853,35.947],[126.97852,35.95854],[126.96797,35.95929],[126.96611,35.95569],[126.96236,35.94808],[126.97018,35.94591]]]},"properties":{"code":"35030660","name":"영등1동"}},{"type":"Feature","geometry":{"type":"Polygon","coordinates":[[[127.0054,35.99078],[127.00646,35.98693],[127.00207,35.98048],[127.00443,35.97363],[127.01014,35.9701],[127.00845,35.96488],[127.00207,35.96298],[127.00046,35.95795],[126.99438,35.95276],[126.98646,35.94749],[126.97853,35.947],[126.97018,35.94591],[126.97061,35.93975],[126.97592,35.93948],[126.98255,35.93278],[126.98125,35.92985],[126.99749,35.92611],[126.99878,35.92892],[127.00883,35.9285],[127.01328,35.92984],[127.0171,35.93998],[127.01392,35.94807],[127.01631,35.95418],[127.02832,35.96211],[127.03214,35.96308],[127.03971,35.96026],[127.04757,35.97002],[127.05282,35.96899],[127.05352,35.97714],[127.04868,35.97724],[127.04856,35.98148],[127.04097,35.98455],[127.02916,35.98605],[127.02408,35.99086],[127.0169,35.99336],[127.0054,35.99078]]]},"properties":{"code":"35030690","name":"팔봉동"}},{"type":"Feature","geometry":{"type":"Polygon","coordinates":[[[126.95759,35.98638],[126.96085,35.9839],[126.96358,35.97649],[126.96852,35.97467],[126.97342,35.97051],[126.97821,35.97229],[126.98476,35.96984],[126.98528,35.95574],[126.98975,35.95627],[126.99438,35.95276],[127.00046,35.95795],[127.00207,35.96298],[127.00845,35.96488],[127.01014,35.9701],[127.00443,35.97363],[127.00207,35.98048],[127.00646,35.98693],[127.0054,35.99078],[126.99789,35.99256],[126.99164,35.99428],[126.97826,35.99361],[126.96396,36.00189],[126.96082,35.99579],[126.96505,35.98808],[126.95759,35.98638]]]},"properties":{"code":"35030700","name":"삼성동"}},{"type":"Feature","geometry":{"type":"Polygon","coordinates":[[[126.96797,35.95929],[126.97852,35.95854],[126.97765,35.96533],[126.97342,35.97051],[126.96852,35.97467],[126.96741,35.96821],[126.96797,35.95929]]]},"properties":{"code":"35030710","name":"영등2동"}},{"type":"Feature","geometry":{"type":"Polygon","coordinates":[[[126.97853,35.947],[126.98646,35.94749],[126.99438,35.95276],[126.98975,35.95627],[126.98528,35.95574],[126.98476,35.96984],[126.97821,35.97229],[126.97342,35.97051],[126.97765,35.96533],[126.97852,35.95854],[126.97853,35.947]]]},"properties":{"code":"35030720","name":"어양동"}}]}