{"type":"FeatureCollection","features":[{"type":"Feature","geometry":{"type":"Polygon","coordinates":[[[126.91743,35.69288],[126.92097,35.69752],[126.91598,35.70585],[126.90207,35.70808],[126.89812,35.70663],[126.88627,35.70837],[126.87746,35.72096],[126.87638,35.72746],[126.87184,35.72497],[126.86846,35.72866],[126.85486,35.72592],[126.84674,35.728],[126.82686,35.71809],[126.82527,35.71431],[126.82838,35.70939],[126.83952,35.69773],[126.85015,35.68769],[126.86146,35.68375],[126.86376,35.67933],[126.8615,35.67313],[126.87374,35.67331],[126.87364,35.68068],[126.88334,35.6764],[126.89169,35.67818],[126.90422,35.68472],[126.91305,35.68409],[126.91863,35.68777],[126.91743,35.69288]]]},"properties":{"code":"35040110","name":"신태인읍"}},{"type":"Feature","geometry":{"type":"Polygon","coordinates":[[[126.94009,35.60122],[126.94043,35.60671],[126.94423,35.60766],[126.94532,35.61312],[126.94299,35.61554],[126.9343,35.6126],[126.92385,35.61443],[126.91776,35.62257],[126.91746,35.62762],[126.92225,35.63146],[126.92275,35.63587],[126.9167,35.63953],[126.90672,35.62896],[126.89238,35.61751],[126.88374,35.62192],[126.87325,35.61446],[126.86213,35.61418],[126.85894,35.60818],[126.85814,35.60169],[126.86125,35.59975],[126.86725,35.60094],[126.87324,35.60455],[126.87738,35.59469],[126.87561,35.59155],[126.86786,35.58595],[126.8669,35.58011],[126.87306,35.57918],[126.88185,35.57989],[126.88713,35.58416],[126.89275,35.58188],[126.90109,35.56345],[126.90419,35.55862],[126.92171,35.56145],[126.93551,35.56968],[126.93832,35.57937],[126.93511,35.58931],[126.93732,35.59799],[126.94009,35.60122]]]},"properties":{"code":"35040310","name":"북면"}},{"type":"Feature","geometry":{"type":"Polygon","coordinates":[[[126.81357,35.46885],[126.81503,35.47364],[126.81293,35.47663],[126.81396,35.48294],[126.81858,35.48576],[126.82613,35.4863],[126.82391,35.49379],[126.83137,35.5008],[126.82794,35.5033],[126.83133,35.51007],[126.82597,35.51404],[126.83036,35.51665],[126.82799,35.52037],[126.82696,35.52994],[126.82308,35.5342],[126.82276,35.53964],[126.81272,35.53958],[126.80693,35.54434],[126.80319,35.544],[126.80032,35.54343],[126.79929,35.53452],[126.78535,35.53011],[126.78674,35.52607],[126.78306,35.52063],[126.78008,35.52062],[126.7703,35.51336],[126.76411,35.51858],[126.75956,35.51543],[126.76001,35.51108],[126.76956,35.50854],[126.76856,35.49579],[126.76421,35.49306],[126.7669,35.4856],[126.77002,35.48262],[126.77252,35.46838],[126.78216,35.47034],[126.78791,35.46761],[126.80408,35.46756],[126.81357,35.46885]]]},"properties":{"code":"35040320","name":"입암면"}},{"type":"Feature","geometry":{"type":"Polygon","coordinates":[[[126.80319,35.544],[126.80609,35.55449],[126.81073,35.56571],[126.81769,35.57109],[126.8194,35.58022],[126.81456,35.58679],[126.81179,35.58465],[126.80316,35.58348],[126.79974,35.57704],[126.79194,35.5771],[126.78347,35.58201],[126.78187,35.58523],[126.77553,35.58712],[126.77037,35.59153],[126.75928,35.58945],[126.75522,35.59002],[126.74164,35.58301],[126.74238,35.57765],[126.73904,35.56759],[126.7535,35.57338],[126.76405,35.57051],[126.76673,35.56381],[126.76093,35.55573],[126.76608,35.54937],[126.76207,35.54411],[126.7612,35.5329],[126.77371,35.52426],[126.76411,35.51858],[126.7703,35.51336],[126.78008,35.52062],[126.78306,35.52063],[126.78674,35.52607],[126.78535,35.53011],[126.79929,35.53452],[126.80032,35.54343],[126.80319,35.544]]]},"properties":{"code":"35040330","name":"소성면"}},{"type":"Feature","geometry":{"type":"Polygon","coordinates":[[[126.80316,35.58348],[126.80148,35.58638],[126.80477,35.59338],[126.79855,35.60663],[126.79409,35.60978],[126.79422,35.62351],[126.7965,35.62527],[126.79526,35.63152],[126.78209,35.63653],[126.77147,35.63227],[126.77245,35.62785],[126.76613,35.6233],[126.76156,35.62545],[126.75992,35.6305],[126.7527,35.63001],[126.74529,35.6342],[126.73928,35.63345],[126.72456,35.63804],[126.72366,35.63489],[126.72214,35.6232],[126.72323,35.61789],[126.72001,35.61059],[126.72212,35.60461],[126.7202,35.59856],[126.72542,35.59366],[126.71847,35.57956],[126.7217,35.57303],[126.72637,35.57073],[126.73065,35.57081],[126.73904,35.56759],[126.74238,35.57765],[126.74164,35.58301],[126.75522,35.59002],[126.75928,35.58945],[126.77037,35.59153],[126.77553,35.58712],[126.78187,35.58523],[126.78347,35.58201],[126.79194,35.5771],[126.79974,35.57704],[126.80316,35.58348]]]},"properties":{"code":"35040340","name":"고부면"}},{"type":"Feature","geometry":{"type":"Polygon","coordinates":[[[126.79526,35.63152],[126.80018,35.64225],[126.79973,35.6455],[126.80331,35.65078],[126.79772,35.66175],[126.79059,35.6708],[126.7893,35.67553],[126.78351,35.67584],[126.77586,35.68281],[126.77182,35.68485],[126.7654,35.6738],[126.76509,35.66472],[126.76088,35.66119],[126.75469,35.66949],[126.75122,35.67028],[126.74932,35.66467],[126.74395,35.66673],[126.73355,35.65073],[126.72962,35.64928],[126.72524,35.64396],[126.72456,35.63804],[126.73928,35.63345],[126.74529,35.6342],[126.7527,35.63001],[126.75992,35.6305],[126.76156,35.62545],[126.76613,35.6233],[126.77245,35.62785],[126.77147,35.63227],[126.78209,35.63653],[126.79526,35.63152]]]},"properties":{"code":"35040350","name":"영원면"}},{"type":"Feature","geometry":{"type":"Polygon","coordinates":[[[126.79855,35.60663],[126.80366,35.60955],[126.81325,35.61018],[126.82168,35.60942],[126.82405,35.61604],[126.83122,35.61907],[126.84157,35.61526],[126.84651,35.61179],[126.85086,35.61247],[126.85329,35.61806],[126.8562,35.63192],[126.86379,35.63703],[126.86455,35.64145],[126.8583,35.64956],[126.85564,35.65389],[126.84966,35.64907],[126.83988,35.64967],[126.83369,35.65261],[126.82936,35.65005],[126.82181,35.64237],[126.80944,35.64358],[126.80346,35.63972],[126.80018,35.64225],[126.79526,35.63152],[126.7965,35.62527],[126.79422,35.62351],[126.79409,35.60978],[126.79855,35.60663]]]},"properties":{"code":"35040360","name":"덕천면"}},{"type":"Feature","geometry":{"type":"Polygon","coordinates":[[[126.83952,35.69773],[126.83474,35.68726],[126.82908,35.68499],[126.82725,35.67999],[126.8197,35.68062],[126.81573,35.68308],[126.80862,35.68036],[126.80579,35.6758],[126.79804,35.68463],[126.7893,35.67553],[126.79059,35.6708],[126.79772,35.66175],[126.80331,35.65078],[126.79973,35.6455],[126.80018,35.64225],[126.80346,35.63972],[126.80944,35.64358],[126.82181,35.64237],[126.82936,35.65005],[126.83369,35.65261],[126.83988,35.64967],[126.84966,35.64907],[126.85564,35.65389],[126.8583,35.64956],[126.86332,35.65277],[126.86445,35.66668],[126.8615,35.67313],[126.86376,35.67933],[126.86146,35.68375],[126.85015,35.68769],[126.83952,35.69773]]]},"properties":{"code":"35040370","name":"이평면"}},{"type":"Feature","geometry":{"type":"Polygon","coordinates":[[[126.8615,35.67313],[126.86445,35.66668],[126.86332,35.65277],[126.8583,35.64956],[126.86455,35.64145],[126.86379,35.63703],[126.8562,35.63192],[126.85329,35.61806],[126.86213,35.61418],[126.87325,35.61446],[126.88374,35.62192],[126.89238,35.61751],[126.90672,35.62896],[126.9167,35.63953],[126.92227,35.64543],[126.91165,35.65909],[126.91454,35.666],[126.90944,35.67427],[126.90237,35.67435],[126.89334,35.67629],[126.89169,35.67818],[126.88334,35.6764],[126.87364,35.68068],[126.87374,35.67331],[126.8615,35.67313]]]},"properties":{"code":"35040380","name":"정우면"}},{"type":"Feature","geometry":{"type":"Polygon","coordinates":[[[126.89169,35.67818],[126.89334,35.67629],[126.90237,35.67435],[126.90944,35.67427],[126.91454,35.666],[126.91165,35.65909],[126.92227,35.64543],[126.9167,35.63953],[126.92275,35.63587],[126.92225,35.63146],[126.91746,35.62762],[126.91776,35.62257],[126.92385,35.61443],[126.9343,35.6126],[126.94299,35.61554],[126.94532,35.61312],[126.94423,35.60766],[126.94043,35.60671],[126.94009,35.60122],[126.94806,35.59979],[126.95124,35.608],[126.95013,35.61187],[126.95287,35.61971],[126.95155,35.62768],[126.94772,35.6338],[126.94762,35.64351],[126.95353,35.64763],[126.95675,35.6543],[126.96106,35.65784],[126.96016,35.6636],[126.96773,35.67035],[126.96782,35.67636],[126.97267,35.68015],[126.97324,35.68791],[126.96729,35.68531],[126.95917,35.69006],[126.95237,35.6903],[126.94411,35.6855],[126.93583,35.69095],[126.91743,35.69288],[126.91863,35.68777],[126.91305,35.68409],[126.90422,35.68472],[126.89169,35.67818]]]},"properties":{"code":"35040390","name":"태인면"}},{"type":"Feature","geometry":{"type":"Polygon","coordinates":[[[126.91743,35.69288],[126.93583,35.69095],[126.94411,35.6855],[126.95237,35.6903],[126.95917,35.69006],[126.96729,35.68531],[126.97324,35.68791],[126.98497,35.68668],[126.99115,35.68947],[126.99286,35.69948],[126.9896,35.70469],[126.97439,35.71766],[126.96168,35.72312],[126.95089,35.72479],[126.94509,35.72112],[126.93387,35.72032],[126.92867,35.73091],[126.92247,35.73901],[126.91378,35.74533],[126.90075,35.75021],[126.89511,35.75335],[126.8872,35.75421],[126.87305,35.75831],[126.87501,35.75212],[126.88199,35.74836],[126.88113,35.74009],[126.87326,35.73194],[126.86846,35.72866],[126.87184,35.72497],[126.87638,35.72746],[126.87746,35.72096],[126.88627,35.70837],[126.89812,35.70663],[126.90207,35.70808],[126.91598,35.70585],[126.92097,35.69752],[126.91743,35.69288]]]},"properties":{"code":"35040400","name":"감곡면"}},{"type":"Feature","geometry":{"type":"Polygon","coordinates":[[[126.95287,35.61971],[126.95983,35.61788],[126.97442,35.61635],[126.97595,35.61281],[126.9837,35.6159],[126.99546,35.61569],[127.00056,35.61386],[127.00484,35.61546],[127.0159,35.62285],[127.01452,35.6292],[127.00942,35.6359],[127.00926,35.64726],[127.01858,35.6525],[127.02334,35.65656],[127.02805,35.66474],[127.03074,35.66602],[127.02122,35.6692],[127.01487,35.67668],[127.0049,35.68062],[127.0024,35.68571],[126.99578,35.68638],[126.99115,35.68947],[126.98497,35.68668],[126.97324,35.68791],[126.97267,35.68015],[126.96782,35.67636],[126.96773,35.67035],[126.96016,35.6636],[126.96106,35.65784],[126.95675,35.6543],[126.95353,35.64763],[126.94762,35.64351],[126.94772,35.6338],[126.95155,35.62768],[126.95287,35.61971]]]},"properties":{"code":"35040410","name":"옹동면"}},{"type":"Feature","geometry":{"type":"Polygon","coordinates":[[[126.90419,35.55862],[126.90125,35.55651],[126.90288,35.55243],[126.90062,35.54545],[126.91076,35.54491],[126.91464,35.54701],[126.92007,35.54492],[126.92384,35.53756],[126.92617,35.53708],[126.93705,35.54151],[126.94298,35.53901],[126.95111,35.5385],[126.95674,35.54273],[126.96358,35.54398],[126.97038,35.54924],[126.97165,35.55367],[126.97907,35.55566],[126.98315,35.55976],[126.98817,35.56099],[126.98778,35.56494],[126.99108,35.57001],[126.98951,35.57358],[127.00399,35.58464],[127.01181,35.5797],[127.02382,35.58295],[127.02472,35.58685],[127.02964,35.5909],[127.02109,35.5961],[127.01297,35.59746],[127.00751,35.60115],[127.01125,35.61052],[127.00484,35.61546],[127.00056,35.61386],[126.99546,35.61569],[126.9837,35.6159],[126.97595,35.61281],[126.97442,35.61635],[126.95983,35.61788],[126.95287,35.61971],[126.95013,35.61187],[126.95124,35.608],[126.94806,35.59979],[126.94009,35.60122],[126.93732,35.59799],[126.93511,35.58931],[126.93832,35.57937],[126.93551,35.56968],[126.92171,35.56145],[126.90419,35.55862]]]},"properties":{"code":"35040420","name":"칠보면"}},{"type":"Feature","geometry":{"type":"Polygon","coordinates":[[[126.97907,35.55566],[126.98347,35.54778],[126.9869,35.54535],[126.99262,35.53692],[126.99623,35.53997],[127.01103,35.54264],[127.01534,35.54535],[127.02186,35.53673],[127.02868,35.53173],[127.0387,35.52854],[127.04248,35.52263],[127.04999,35.52106],[127.05168,35.51796],[127.05028,35.51229],[127.05505,35.5092],[127.06176,35.5112],[127.06706,35.5162],[127.0723,35.51388],[127.08295,35.50645],[127.08791,35.50805],[127.09006,35.51553],[127.08649,35.51958],[127.09293,35.52352],[127.09903,35.52971],[127.10643,35.53455],[127.11659,35.5316],[127.11547,35.53865],[127.10775,35.54264],[127.08744,35.54913],[127.08564,35.55477],[127.09271,35.56704],[127.08359,35.57912],[127.08293,35.58441],[127.06811,35.58147],[127.05387,35.58097],[127.0518,35.58596],[127.04608,35.58638],[127.04244,35.59328],[127.03757,35.5961],[127.03513,35.59236],[127.02964,35.5909],[127.02472,35.58685],[127.02382,35.58295],[127.01181,35.5797],[127.00399,35.58464],[126.98951,35.57358],[126.99108,35.57001],[126.98778,35.56494],[126.98817,35.56099],[126.98315,35.55976],[126.97907,35.55566]]]},"properties":{"code":"35040430","name":"산내면"}},{"type":"Feature","geometry":{"type":"Polygon","coordinates":[[[127.00484,35.61546],[127.01125,35.61052],[127.00751,35.60115],[127.01297,35.59746],[127.02109,35.5961],[127.02964,35.5909],[127.03513,35.59236],[127.03757,35.5961],[127.04244,35.59328],[127.04608,35.58638],[127.0518,35.58596],[127.05387,35.58097],[127.06811,35.58147],[127.08293,35.58441],[127.08855,35.5874],[127.09672,35.58725],[127.10423,35.59484],[127.10022,35.60398],[127.09221,35.61222],[127.09119,35.61572],[127.0936,35.62144],[127.08979,35.62699],[127.09388,35.63321],[127.08938,35.63782],[127.08745,35.64661],[127.08947,35.65305],[127.08029,35.65891],[127.07899,35.66255],[127.08247,35.66616],[127.07751,35.67174],[127.07404,35.67161],[127.06412,35.67772],[127.06072,35.67044],[127.05068,35.67029],[127.04182,35.66598],[127.03074,35.66602],[127.02805,35.66474],[127.02334,35.65656],[127.01858,35.6525],[127.00926,35.64726],[127.00942,35.6359],[127.01452,35.6292],[127.0159,35.62285],[127.00484,35.61546]]]},"properties":{"code":"35040440","name":"산외면"}},{"type":"Feature","geometry":{"type":"Polygon","coordinates":[[[126.86125,35.59975],[126.85072,35.59442],[126.85271,35.58293],[126.84962,35.57859],[126.85037,35.56768],[126.85665,35.56588],[126.86171,35.56987],[126.86224,35.57514],[126.8669,35.58011],[126.86786,35.58595],[126.87561,35.59155],[126.87738,35.59469],[126.87324,35.60455],[126.86725,35.60094],[126.86125,35.59975]]]},"properties":{"code":"35040510","name":"수성동"}},{"type":"Feature","geometry":{"type":"Polygon","coordinates":[[[126.8669,35.58011],[126.86224,35.57514],[126.86171,35.56987],[126.85665,35.56588],[126.86124,35.56395],[126.86485,35.56342],[126.86839,35.56787],[126.87686,35.56629],[126.87973,35.56315],[126.88925,35.55921],[126.90125,35.55651],[126.90419,35.55862],[126.90109,35.56345],[126.89275,35.58188],[126.88713,35.58416],[126.88185,35.57989],[126.87306,35.57918],[126.8669,35.58011]]]},"properties":{"code":"35040520","name":"장명동"}},{"type":"Feature","geometry":{"type":"Polygon","coordinates":[[[126.90125,35.55651],[126.88925,35.55921],[126.87973,35.56315],[126.87686,35.56629],[126.86839,35.56787],[126.86485,35.56342],[126.86124,35.56395],[126.85789,35.55937],[126.86742,35.55643],[126.86621,35.55187],[126.8687,35.53559],[126.87465,35.53355],[126.8772,35.52765],[126.8748,35.52028],[126.87618,35.51585],[126.8734,35.51176],[126.88107,35.50652],[126.87885,35.4925],[126.88103,35.48571],[126.88171,35.48332],[126.88869,35.47835],[126.89409,35.48067],[126.90243,35.47797],[126.91342,35.4765],[126.92263,35.4826],[126.92756,35.47913],[126.93564,35.48158],[126.93792,35.48935],[126.93547,35.49596],[126.93324,35.50681],[126.92986,35.50943],[126.92958,35.51981],[126.93133,35.52303],[126.937,35.52533],[126.94987,35.53362],[126.95111,35.5385],[126.94298,35.53901],[126.93705,35.54151],[126.92617,35.53708],[126.92384,35.53756],[126.92007,35.54492],[126.91464,35.54701],[126.91076,35.54491],[126.90062,35.54545],[126.90288,35.55243],[126.90125,35.55651]]]},"properties":{"code":"35040530","name":"내장상동"}},{"type":"Feature","geometry":{"type":"Polygon","coordinates":[[[126.85037,35.56768],[126.84929,35.56452],[126.85789,35.55937],[126.86124,35.56395],[126.85665,35.56588],[126.85037,35.56768]]]},"properties":{"code":"35040540","name":"시기동"}},{"type":"Feature","geometry":{"type":"Polygon","coordinates":[[[126.84962,35.57859],[126.8468,35.58144],[126.84076,35.57979],[126.83293,35.57515],[126.84086,35.56781],[126.84547,35.56196],[126.84929,35.56452],[126.85037,35.56768],[126.84962,35.57859]]]},"properties":{"code":"35040570","name":"연지동"}},{"type":"Feature","geometry":{"type":"Polygon","coordinates":[[[126.86213,35.61418],[126.85329,35.61806],[126.85086,35.61247],[126.84651,35.61179],[126.84157,35.61526],[126.83122,35.61907],[126.82405,35.61604],[126.82168,35.60942],[126.81325,35.61018],[126.80366,35.60955],[126.79855,35.60663],[126.80477,35.59338],[126.80148,35.58638],[126.80316,35.58348],[126.81179,35.58465],[126.81456,35.58679],[126.8194,35.58022],[126.81769,35.57109],[126.82157,35.57143],[126.82751,35.57628],[126.83293,35.57515],[126.84076,35.57979],[126.8468,35.58144],[126.84962,35.57859],[126.85271,35.58293],[126.85072,35.59442],[126.86125,35.59975],[126.85814,35.60169],[126.85894,35.60818],[126.86213,35.61418]]]},"properties":{"code":"35040580","name":"농소동"}},{"type":"Feature","geometry":{"type":"Polygon","coordinates":[[[126.86869,35.46139],[126.86435,35.46483],[126.86063,35.47369],[126.86191,35.48031],[126.87341,35.47965],[126.88103,35.48571],[126.87885,35.4925],[126.88107,35.50652],[126.8734,35.51176],[126.87618,35.51585],[126.8748,35.52028],[126.8772,35.52765],[126.87465,35.53355],[126.8687,35.53559],[126.86621,35.55187],[126.86504,35.54662],[126.85665,35.54837],[126.83937,35.55544],[126.83999,35.55955],[126.84547,35.56196],[126.84086,35.56781],[126.83293,35.57515],[126.82751,35.57628],[126.82157,35.57143],[126.81769,35.57109],[126.81073,35.56571],[126.80609,35.55449],[126.80319,35.544],[126.80693,35.54434],[126.81272,35.53958],[126.82276,35.53964],[126.82308,35.5342],[126.82696,35.52994],[126.82799,35.52037],[126.83036,35.51665],[126.82597,35.51404],[126.83133,35.51007],[126.82794,35.5033],[126.83137,35.5008],[126.82391,35.49379],[126.82613,35.4863],[126.8315,35.48004],[126.84027,35.4829],[126.84314,35.47599],[126.84045,35.46915],[126.84229,35.46389],[126.85062,35.46598],[126.86156,35.46165],[126.86869,35.46139]]]},"properties":{"code":"35040590","name":"상교동"}},{"type":"Feature","geometry":{"type":"Polygon","coordinates":[[[126.85789,35.55937],[126.84929,35.56452],[126.84547,35.56196],[126.83999,35.55955],[126.83937,35.55544],[126.85665,35.54837],[126.86504,35.54662],[126.86621,35.55187],[126.86742,35.55643],[126.85789,35.55937]]]},"properties":{"code":"35040600","name":"초산동"}}]}