{"type":"FeatureCollection","features":[{"type":"Feature","geometry":{"type":"Polygon","coordinates":[[[127.51401,35.4792],[127.50567,35.47768],[127.50367,35.47474],[127.49737,35.47378],[127.49751,35.4641],[127.4899,35.45912],[127.4891,35.45132],[127.49767,35.44858],[127.4987,35.44588],[127.4954,35.43447],[127.49947,35.43115],[127.49855,35.42316],[127.5015,35.41577],[127.49829,35.41356],[127.4959,35.40762],[127.50416,35.40118],[127.50736,35.38371],[127.51597,35.38357],[127.5212,35.37852],[127.52545,35.3701],[127.535,35.37684],[127.5407,35.37666],[127.55174,35.38125],[127.55397,35.38732],[127.55881,35.39212],[127.56421,35.4013],[127.56428,35.4113],[127.5681,35.41449],[127.5691,35.4193],[127.57612,35.42164],[127.58396,35.43251],[127.58133,35.43553],[127.58367,35.45305],[127.58015,35.45495],[127.57593,35.4625],[127.57317,35.46899],[127.56216,35.47482],[127.55838,35.47133],[127.55374,35.47126],[127.5465,35.46802],[127.54165,35.47155],[127.53587,35.47035],[127.52483,35.47323],[127.51914,35.47846],[127.51401,35.4792]]]},"properties":{"code":"35050110","name":"운봉읍"}},{"type":"Feature","geometry":{"type":"Polygon","coordinates":[[[127.51422,35.35134],[127.52082,35.36006],[127.52116,35.36355],[127.52545,35.3701],[127.5212,35.37852],[127.51597,35.38357],[127.50736,35.38371],[127.50416,35.40118],[127.4959,35.40762],[127.48992,35.4068],[127.48115,35.40173],[127.474,35.39484],[127.46808,35.39621],[127.45884,35.40393],[127.44577,35.40657],[127.44175,35.40903],[127.43416,35.409],[127.4261,35.40605],[127.41382,35.41244],[127.40931,35.4094],[127.4021,35.39337],[127.39633,35.39305],[127.39493,35.38708],[127.39586,35.37826],[127.39411,35.3754],[127.39095,35.36729],[127.3928,35.36567],[127.39773,35.35813],[127.40957,35.3575],[127.4142,35.35381],[127.42276,35.35084],[127.43132,35.35953],[127.44134,35.36443],[127.44289,35.36128],[127.45421,35.36073],[127.45861,35.36362],[127.47058,35.36594],[127.47759,35.36501],[127.4861,35.35837],[127.49562,35.36081],[127.50141,35.35883],[127.50823,35.35334],[127.51422,35.35134]]]},"properties":{"code":"35050310","name":"주천면"}},{"type":"Feature","geometry":{"type":"Polygon","coordinates":[[[127.38445,35.30328],[127.39404,35.31049],[127.39932,35.3129],[127.40155,35.3251],[127.40852,35.32945],[127.40987,35.33323],[127.4155,35.33728],[127.41598,35.34085],[127.42276,35.35084],[127.4142,35.35381],[127.40957,35.3575],[127.39773,35.35813],[127.3928,35.36567],[127.37916,35.35684],[127.3771,35.35235],[127.37153,35.35029],[127.37074,35.34603],[127.36492,35.34746],[127.35985,35.34606],[127.35263,35.34115],[127.33646,35.34542],[127.33304,35.33879],[127.32756,35.33616],[127.32313,35.32882],[127.32697,35.31879],[127.32617,35.31196],[127.32365,35.309],[127.33387,35.31536],[127.35619,35.32126],[127.36695,35.31459],[127.37168,35.31431],[127.37724,35.31075],[127.38029,35.30453],[127.38445,35.30328]]]},"properties":{"code":"35050320","name":"수지면"}},{"type":"Feature","geometry":{"type":"Polygon","coordinates":[[[127.32411,35.30646],[127.32365,35.309],[127.32617,35.31196],[127.32697,35.31879],[127.32313,35.32882],[127.32756,35.33616],[127.33304,35.33879],[127.33646,35.34542],[127.35263,35.34115],[127.35985,35.34606],[127.36492,35.34746],[127.37074,35.34603],[127.37153,35.35029],[127.3771,35.35235],[127.37916,35.35684],[127.3928,35.36567],[127.39095,35.36729],[127.39411,35.3754],[127.38148,35.3743],[127.37606,35.3759],[127.3766,35.38255],[127.37009,35.38481],[127.37096,35.39242],[127.36825,35.39471],[127.35675,35.38857],[127.32743,35.37385],[127.31542,35.36687],[127.31053,35.35894],[127.30429,35.34241],[127.30367,35.33811],[127.30739,35.3293],[127.31183,35.32443],[127.31126,35.31907],[127.31391,35.31394],[127.3214,35.30574],[127.32411,35.30646]]]},"properties":{"code":"35050330","name":"송동면"}},{"type":"Feature","geometry":{"type":"Polygon","coordinates":[[[127.35675,35.38857],[127.35737,35.39565],[127.35412,35.40465],[127.34672,35.40445],[127.33161,35.40053],[127.32509,35.4007],[127.31965,35.39568],[127.31273,35.39408],[127.30834,35.39561],[127.30285,35.3921],[127.29014,35.39762],[127.28101,35.39837],[127.27175,35.40431],[127.26709,35.39985],[127.26752,35.39707],[127.26113,35.39121],[127.25949,35.38523],[127.26041,35.38028],[127.25448,35.37381],[127.26152,35.36916],[127.27124,35.36945],[127.27857,35.36691],[127.28848,35.36522],[127.29345,35.36599],[127.30378,35.3745],[127.30872,35.3665],[127.30705,35.3628],[127.31053,35.35894],[127.31542,35.36687],[127.32743,35.37385],[127.35675,35.38857]]]},"properties":{"code":"35050340","name":"주생면"}},{"type":"Feature","geometry":{"type":"Polygon","coordinates":[[[127.3214,35.30574],[127.31391,35.31394],[127.31126,35.31907],[127.31183,35.32443],[127.30739,35.3293],[127.30367,35.33811],[127.30429,35.34241],[127.31053,35.35894],[127.30705,35.3628],[127.30872,35.3665],[127.30378,35.3745],[127.29345,35.36599],[127.28848,35.36522],[127.27857,35.36691],[127.27124,35.36945],[127.26152,35.36916],[127.25448,35.37381],[127.24761,35.36837],[127.24665,35.35613],[127.25382,35.34918],[127.25274,35.34343],[127.25511,35.33754],[127.26,35.33668],[127.2538,35.31909],[127.2512,35.31696],[127.26044,35.31163],[127.26452,35.31362],[127.27106,35.31302],[127.28854,35.31415],[127.3015,35.30846],[127.30494,35.3035],[127.30856,35.30313],[127.3214,35.30574]]]},"properties":{"code":"35050350","name":"금지면"}},{"type":"Feature","geometry":{"type":"Polygon","coordinates":[[[127.2512,35.31696],[127.2538,35.31909],[127.26,35.33668],[127.25511,35.33754],[127.25274,35.34343],[127.25382,35.34918],[127.24665,35.35613],[127.24761,35.36837],[127.25448,35.37381],[127.26041,35.38028],[127.25949,35.38523],[127.26113,35.39121],[127.26752,35.39707],[127.26709,35.39985],[127.27175,35.40431],[127.27009,35.41303],[127.27765,35.41685],[127.27569,35.42115],[127.2597,35.42677],[127.25457,35.41888],[127.25156,35.41631],[127.25055,35.40862],[127.24543,35.39856],[127.23946,35.39928],[127.22544,35.39833],[127.22261,35.39312],[127.22123,35.38831],[127.2134,35.37615],[127.21527,35.37052],[127.21035,35.36706],[127.20505,35.36062],[127.19733,35.36437],[127.18935,35.35085],[127.18719,35.34466],[127.19285,35.34179],[127.19493,35.33831],[127.1861,35.33619],[127.1834,35.32805],[127.18711,35.32236],[127.19625,35.31919],[127.20088,35.3158],[127.21485,35.31617],[127.21726,35.31892],[127.21602,35.32911],[127.21959,35.3354],[127.22265,35.3367],[127.23179,35.33527],[127.23741,35.32814],[127.25037,35.31856],[127.2512,35.31696]]]},"properties":{"code":"35050360","name":"대강면"}},{"type":"Feature","geometry":{"type":"Polygon","coordinates":[[[127.34672,35.40445],[127.3422,35.41141],[127.33525,35.41656],[127.34613,35.41774],[127.34879,35.42336],[127.35332,35.4256],[127.34939,35.43153],[127.34828,35.44636],[127.34923,35.4498],[127.34097,35.4581],[127.33759,35.4596],[127.33287,35.4568],[127.32619,35.45781],[127.32157,35.4614],[127.31368,35.46359],[127.30961,35.45998],[127.30637,35.45277],[127.29789,35.44492],[127.29669,35.43506],[127.29376,35.42983],[127.28532,35.42398],[127.27864,35.42487],[127.27569,35.42115],[127.27765,35.41685],[127.27009,35.41303],[127.27175,35.40431],[127.28101,35.39837],[127.29014,35.39762],[127.30285,35.3921],[127.30834,35.39561],[127.31273,35.39408],[127.31965,35.39568],[127.32509,35.4007],[127.33161,35.40053],[127.34672,35.40445]]]},"properties":{"code":"35050370","name":"대산면"}},{"type":"Feature","geometry":{"type":"Polygon","coordinates":[[[127.34923,35.4498],[127.35413,35.45324],[127.36107,35.45495],[127.36352,35.45887],[127.3746,35.46033],[127.37714,35.46516],[127.38407,35.46353],[127.38718,35.45966],[127.39679,35.46846],[127.39557,35.47701],[127.39055,35.48128],[127.39101,35.48715],[127.38556,35.49621],[127.38104,35.49726],[127.37145,35.50347],[127.36195,35.50647],[127.35534,35.50463],[127.35625,35.50026],[127.35024,35.49669],[127.34138,35.4964],[127.33221,35.49237],[127.326,35.49583],[127.31041,35.49389],[127.30722,35.4864],[127.30866,35.47766],[127.31368,35.46359],[127.32157,35.4614],[127.32619,35.45781],[127.33287,35.4568],[127.33759,35.4596],[127.34097,35.4581],[127.34923,35.4498]]]},"properties":{"code":"35050380","name":"사매면"}},{"type":"Feature","geometry":{"type":"Polygon","coordinates":[[[127.39101,35.48715],[127.39437,35.49639],[127.39988,35.49937],[127.40378,35.50587],[127.40421,35.51002],[127.398,35.5103],[127.39778,35.5181],[127.38771,35.52396],[127.37951,35.5265],[127.37746,35.53136],[127.38515,35.53963],[127.38455,35.54652],[127.37766,35.54828],[127.36347,35.55823],[127.35841,35.55889],[127.35215,35.55238],[127.3441,35.55091],[127.33976,35.55408],[127.33412,35.55052],[127.3407,35.54388],[127.34899,35.54041],[127.3498,35.53723],[127.34662,35.52959],[127.34231,35.52574],[127.34317,35.52032],[127.3547,35.51231],[127.35534,35.50463],[127.36195,35.50647],[127.37145,35.50347],[127.38104,35.49726],[127.38556,35.49621],[127.39101,35.48715]]]},"properties":{"code":"35050390","name":"덕과면"}},{"type":"Feature","geometry":{"type":"Polygon","coordinates":[[[127.39679,35.46846],[127.3995,35.46162],[127.40735,35.46628],[127.41941,35.46803],[127.42049,35.47366],[127.42551,35.47921],[127.4334,35.48254],[127.43295,35.48579],[127.43749,35.49449],[127.44805,35.49996],[127.44465,35.5057],[127.44575,35.51291],[127.44456,35.51752],[127.44943,35.52677],[127.44878,35.53124],[127.4523,35.54075],[127.44676,35.54529],[127.43981,35.54832],[127.43941,35.55282],[127.43223,35.5504],[127.42614,35.55019],[127.42033,35.55274],[127.41306,35.56019],[127.40772,35.55605],[127.40245,35.54844],[127.39203,35.54641],[127.38455,35.54652],[127.38515,35.53963],[127.37746,35.53136],[127.37951,35.5265],[127.38771,35.52396],[127.39778,35.5181],[127.398,35.5103],[127.40421,35.51002],[127.40378,35.50587],[127.39988,35.49937],[127.39437,35.49639],[127.39101,35.48715],[127.39055,35.48128],[127.39557,35.47701],[127.39679,35.46846]]]},"properties":{"code":"35050400","name":"보절면"}},{"type":"Feature","geometry":{"type":"Polygon","coordinates":[[[127.51401,35.4792],[127.52698,35.48635],[127.52719,35.49529],[127.51594,35.4988],[127.513,35.50733],[127.50138,35.5176],[127.50182,35.52135],[127.49566,35.52296],[127.49123,35.52695],[127.49254,35.53377],[127.48229,35.53855],[127.47647,35.53845],[127.46946,35.54186],[127.46692,35.54626],[127.45687,35.54629],[127.4523,35.54075],[127.44878,35.53124],[127.44943,35.52677],[127.44456,35.51752],[127.44575,35.51291],[127.44465,35.5057],[127.44805,35.49996],[127.43749,35.49449],[127.43295,35.48579],[127.4334,35.48254],[127.42551,35.47921],[127.42049,35.47366],[127.41941,35.46803],[127.42113,35.465],[127.4286,35.45967],[127.4358,35.45762],[127.43893,35.46118],[127.44839,35.46607],[127.45616,35.46764],[127.46635,35.46373],[127.48104,35.46108],[127.48483,35.45744],[127.4899,35.45912],[127.49751,35.4641],[127.49737,35.47378],[127.50367,35.47474],[127.50567,35.47768],[127.51401,35.4792]]]},"properties":{"code":"35050410","name":"산동면"}},{"type":"Feature","geometry":{"type":"Polygon","coordinates":[[[127.4899,35.45912],[127.48483,35.45744],[127.48104,35.46108],[127.46635,35.46373],[127.45616,35.46764],[127.44839,35.46607],[127.43893,35.46118],[127.4358,35.45762],[127.43252,35.44376],[127.42897,35.43914],[127.4182,35.43246],[127.41207,35.42162],[127.40522,35.41907],[127.40451,35.4154],[127.41382,35.41244],[127.4261,35.40605],[127.43416,35.409],[127.44175,35.40903],[127.44577,35.40657],[127.45884,35.40393],[127.46808,35.39621],[127.474,35.39484],[127.48115,35.40173],[127.48992,35.4068],[127.4959,35.40762],[127.49829,35.41356],[127.5015,35.41577],[127.49855,35.42316],[127.49947,35.43115],[127.4954,35.43447],[127.4987,35.44588],[127.49767,35.44858],[127.4891,35.45132],[127.4899,35.45912]]]},"properties":{"code":"35050420","name":"이백면"}},{"type":"Feature","geometry":{"type":"Polygon","coordinates":[[[127.65084,35.49763],[127.64582,35.49819],[127.64187,35.50506],[127.63709,35.50919],[127.62816,35.5061],[127.61837,35.50856],[127.61348,35.50638],[127.61106,35.49936],[127.60732,35.49531],[127.60218,35.48068],[127.59871,35.47514],[127.58902,35.47344],[127.58683,35.46439],[127.57593,35.4625],[127.58015,35.45495],[127.58367,35.45305],[127.58133,35.43553],[127.58396,35.43251],[127.57612,35.42164],[127.58393,35.41772],[127.59703,35.41781],[127.61209,35.43264],[127.60874,35.436],[127.60936,35.43981],[127.61784,35.44741],[127.62389,35.44761],[127.63745,35.44549],[127.64507,35.44951],[127.6357,35.46231],[127.63786,35.47083],[127.63722,35.47893],[127.65272,35.48567],[127.65014,35.49145],[127.65084,35.49763]]]},"properties":{"code":"35050430","name":"인월면"}},{"type":"Feature","geometry":{"type":"Polygon","coordinates":[[[127.58541,35.55459],[127.57863,35.54713],[127.57307,35.54565],[127.57105,35.53448],[127.56858,35.53257],[127.56839,35.525],[127.57051,35.51962],[127.5786,35.51612],[127.58069,35.51141],[127.57923,35.5038],[127.57431,35.49469],[127.5636,35.48847],[127.55952,35.48107],[127.56216,35.47482],[127.57317,35.46899],[127.57593,35.4625],[127.58683,35.46439],[127.58902,35.47344],[127.59871,35.47514],[127.60218,35.48068],[127.60732,35.49531],[127.61106,35.49936],[127.61348,35.50638],[127.61837,35.50856],[127.62816,35.5061],[127.63709,35.50919],[127.63124,35.52064],[127.6244,35.5279],[127.62576,35.53207],[127.61905,35.53697],[127.61193,35.53569],[127.60963,35.54037],[127.60496,35.54372],[127.594,35.54879],[127.59108,35.55417],[127.58541,35.55459]]]},"properties":{"code":"35050440","name":"아영면"}},{"type":"Feature","geometry":{"type":"Polygon","coordinates":[[[127.57745,35.30896],[127.58567,35.30914],[127.5923,35.31153],[127.60551,35.31896],[127.60813,35.32532],[127.61485,35.33056],[127.62042,35.33233],[127.62277,35.3384],[127.62286,35.34395],[127.61588,35.35016],[127.61212,35.35595],[127.61025,35.36579],[127.61327,35.36925],[127.6224,35.3732],[127.62462,35.37656],[127.62525,35.38475],[127.63134,35.39187],[127.63542,35.39982],[127.64645,35.40266],[127.65004,35.40773],[127.65936,35.41409],[127.66351,35.4255],[127.66534,35.42718],[127.66658,35.43786],[127.67283,35.44376],[127.6694,35.44734],[127.66302,35.44764],[127.65278,35.45073],[127.64507,35.44951],[127.63745,35.44549],[127.62389,35.44761],[127.61784,35.44741],[127.60936,35.43981],[127.60874,35.436],[127.61209,35.43264],[127.59703,35.41781],[127.58393,35.41772],[127.57612,35.42164],[127.5691,35.4193],[127.5681,35.41449],[127.56428,35.4113],[127.56421,35.4013],[127.55881,35.39212],[127.55397,35.38732],[127.55174,35.38125],[127.5407,35.37666],[127.535,35.37684],[127.52545,35.3701],[127.52116,35.36355],[127.52082,35.36006],[127.51422,35.35134],[127.51643,35.34772],[127.52474,35.3449],[127.53054,35.33728],[127.54066,35.33441],[127.54213,35.32913],[127.55207,35.32515],[127.55461,35.32234],[127.56815,35.31829],[127.57265,35.31205],[127.57745,35.30896]]]},"properties":{"code":"35050450","name":"산내면"}},{"type":"Feature","geometry":{"type":"Polygon","coordinates":[[[127.38859,35.41219],[127.38619,35.4139],[127.37684,35.41407],[127.37655,35.40932],[127.38707,35.40903],[127.39125,35.41182],[127.38859,35.41219]]]},"properties":{"code":"35050510","name":"동충동"}},{"type":"Feature","geometry":{"type":"Polygon","coordinates":[[[127.37655,35.40932],[127.37642,35.40649],[127.3808,35.40136],[127.38544,35.40384],[127.39366,35.4111],[127.39125,35.41182],[127.38707,35.40903],[127.37655,35.40932]]]},"properties":{"code":"35050520","name":"죽항동"}},{"type":"Feature","geometry":{"type":"Polygon","coordinates":[[[127.41382,35.41244],[127.40451,35.4154],[127.40522,35.41907],[127.39366,35.4111],[127.38544,35.40384],[127.3808,35.40136],[127.36825,35.39471],[127.37096,35.39242],[127.37009,35.38481],[127.3766,35.38255],[127.37606,35.3759],[127.38148,35.3743],[127.39411,35.3754],[127.39586,35.37826],[127.39493,35.38708],[127.39633,35.39305],[127.4021,35.39337],[127.40931,35.4094],[127.41382,35.41244]]]},"properties":{"code":"35050540","name":"노암동"}},{"type":"Feature","geometry":{"type":"Polygon","coordinates":[[[127.36825,35.39471],[127.3808,35.40136],[127.37642,35.40649],[127.37013,35.40683],[127.35737,35.39565],[127.35675,35.38857],[127.36825,35.39471]]]},"properties":{"code":"35050550","name":"금동"}},{"type":"Feature","geometry":{"type":"Polygon","coordinates":[[[127.35737,35.39565],[127.37013,35.40683],[127.37642,35.40649],[127.37655,35.40932],[127.37684,35.41407],[127.36535,35.41862],[127.36143,35.42284],[127.35332,35.4256],[127.34879,35.42336],[127.34613,35.41774],[127.33525,35.41656],[127.3422,35.41141],[127.34672,35.40445],[127.35412,35.40465],[127.35737,35.39565]]]},"properties":{"code":"35050560","name":"왕정동"}},{"type":"Feature","geometry":{"type":"Polygon","coordinates":[[[127.35332,35.4256],[127.36143,35.42284],[127.36535,35.41862],[127.37684,35.41407],[127.38619,35.4139],[127.38859,35.41219],[127.39006,35.42003],[127.39345,35.42296],[127.39159,35.43181],[127.3948,35.43739],[127.39203,35.44753],[127.39741,35.45346],[127.4019,35.4557],[127.3995,35.46162],[127.39679,35.46846],[127.38718,35.45966],[127.38407,35.46353],[127.37714,35.46516],[127.3746,35.46033],[127.36352,35.45887],[127.36107,35.45495],[127.35413,35.45324],[127.34923,35.4498],[127.34828,35.44636],[127.34939,35.43153],[127.35332,35.4256]]]},"properties":{"code":"35050570","name":"향교동"}},{"type":"Feature","geometry":{"type":"Polygon","coordinates":[[[127.3995,35.46162],[127.4019,35.4557],[127.39741,35.45346],[127.39203,35.44753],[127.3948,35.43739],[127.39159,35.43181],[127.39345,35.42296],[127.39006,35.42003],[127.38859,35.41219],[127.39125,35.41182],[127.39366,35.4111],[127.40522,35.41907],[127.41207,35.42162],[127.4182,35.43246],[127.42897,35.43914],[127.43252,35.44376],[127.4358,35.45762],[127.4286,35.45967],[127.42113,35.465],[127.41941,35.46803],[127.40735,35.46628],[127.3995,35.46162]]]},"properties":{"code":"35050590","name":"도통동"}}]}