{"type":"FeatureCollection","features":[{"type":"Feature","geometry":{"type":"Polygon","coordinates":[[[126.85606,35.86018],[126.84568,35.86406],[126.84178,35.86169],[126.83184,35.8637],[126.83317,35.86881],[126.83774,35.87047],[126.84011,35.87473],[126.82909,35.8821],[126.82764,35.88477],[126.8327,35.89016],[126.82839,35.89246],[126.82536,35.89851],[126.81965,35.89653],[126.8009,35.89375],[126.79672,35.88178],[126.79949,35.87795],[126.79863,35.87396],[126.80464,35.87069],[126.80118,35.86524],[126.8044,35.85961],[126.81333,35.85349],[126.81635,35.84348],[126.82016,35.84502],[126.82607,35.84129],[126.83193,35.83518],[126.84153,35.8381],[126.85139,35.84099],[126.85522,35.84015],[126.86251,35.84342],[126.86562,35.85061],[126.85795,35.85018],[126.85316,35.85322],[126.85606,35.86018]]]},"properties":{"code":"35060110","name":"만경읍"}},{"type":"Feature","geometry":{"type":"Polygon","coordinates":[[[126.8494,35.75865],[126.84007,35.75956],[126.84152,35.76511],[126.84544,35.76509],[126.84871,35.76967],[126.84709,35.77216],[126.85208,35.77677],[126.846,35.78296],[126.84124,35.78298],[126.84118,35.78759],[126.83068,35.79617],[126.82293,35.79699],[126.81956,35.80391],[126.79889,35.79934],[126.78847,35.80097],[126.77684,35.80149],[126.77343,35.79719],[126.76782,35.78534],[126.76989,35.77752],[126.77674,35.7664],[126.77723,35.75765],[126.77748,35.75318],[126.79274,35.75354],[126.79915,35.74733],[126.80049,35.74131],[126.80491,35.73537],[126.81037,35.73732],[126.81109,35.74173],[126.81703,35.74422],[126.81823,35.74898],[126.83295,35.74636],[126.8388,35.75371],[126.84849,35.75562],[126.8494,35.75865]]]},"properties":{"code":"35060310","name":"죽산면"}},{"type":"Feature","geometry":{"type":"Polygon","coordinates":[[[126.84153,35.8381],[126.84715,35.83206],[126.84666,35.8279],[126.85023,35.82379],[126.84933,35.81549],[126.85745,35.81949],[126.86405,35.82605],[126.8667,35.82246],[126.87362,35.81904],[126.88166,35.81961],[126.88064,35.82339],[126.89293,35.82853],[126.89387,35.83518],[126.89911,35.83511],[126.89993,35.83996],[126.90647,35.84009],[126.90753,35.83381],[126.914,35.8345],[126.92474,35.83286],[126.93536,35.83993],[126.93665,35.84981],[126.9412,35.85801],[126.92448,35.85669],[126.9123,35.85831],[126.90795,35.85593],[126.90112,35.85901],[126.90391,35.86455],[126.89834,35.8732],[126.89427,35.87093],[126.88688,35.87334],[126.8828,35.87661],[126.88097,35.86901],[126.86433,35.86615],[126.85606,35.86018],[126.85316,35.85322],[126.85795,35.85018],[126.86562,35.85061],[126.86251,35.84342],[126.85522,35.84015],[126.85139,35.84099],[126.84153,35.8381]]]},"properties":{"code":"35060320","name":"백산면"}},{"type":"Feature","geometry":{"type":"Polygon","coordinates":[[[127.00666,35.87045],[126.97716,35.8645],[126.97014,35.86725],[126.96908,35.87361],[126.9611,35.87942],[126.95347,35.87469],[126.95213,35.87049],[126.94531,35.86844],[126.9353,35.86733],[126.93961,35.8634],[126.9412,35.85801],[126.93665,35.84981],[126.93536,35.83993],[126.93575,35.82978],[126.94447,35.82219],[126.94483,35.81912],[126.94809,35.81964],[126.95822,35.81666],[126.98487,35.8148],[126.99142,35.81516],[126.99787,35.81828],[126.99465,35.82932],[126.99911,35.83155],[127.00156,35.83887],[127.00967,35.84663],[127.00845,35.85736],[127.00553,35.86204],[127.00666,35.87045]]]},"properties":{"code":"35060330","name":"용지면"}},{"type":"Feature","geometry":{"type":"Polygon","coordinates":[[[126.99787,35.8837],[126.99408,35.88408],[126.99416,35.89219],[126.98682,35.89665],[126.9813,35.8982],[126.97214,35.89788],[126.96013,35.90329],[126.95348,35.90903],[126.94634,35.91033],[126.94136,35.91204],[126.93261,35.91157],[126.92332,35.90834],[126.92824,35.90178],[126.93471,35.89768],[126.93235,35.8876],[126.93933,35.87493],[126.9353,35.86733],[126.94531,35.86844],[126.95213,35.87049],[126.95347,35.87469],[126.9611,35.87942],[126.96908,35.87361],[126.97014,35.86725],[126.97716,35.8645],[127.00666,35.87045],[127.00655,35.87671],[126.99787,35.8837]]]},"properties":{"code":"35060340","name":"백구면"}},{"type":"Feature","geometry":{"type":"Polygon","coordinates":[[[126.86846,35.72866],[126.87326,35.73194],[126.88113,35.74009],[126.88199,35.74836],[126.87501,35.75212],[126.87305,35.75831],[126.86141,35.76108],[126.8494,35.75865],[126.84849,35.75562],[126.8388,35.75371],[126.83295,35.74636],[126.81823,35.74898],[126.81703,35.74422],[126.81109,35.74173],[126.81037,35.73732],[126.80491,35.73537],[126.80821,35.73393],[126.81271,35.71583],[126.81749,35.71503],[126.82033,35.71812],[126.82527,35.71431],[126.82686,35.71809],[126.84674,35.728],[126.85486,35.72592],[126.86846,35.72866]]]},"properties":{"code":"35060350","name":"부량면"}},{"type":"Feature","geometry":{"type":"Polygon","coordinates":[[[126.86681,35.90773],[126.86971,35.90458],[126.86955,35.89533],[126.86628,35.88909],[126.87026,35.88527],[126.86692,35.88264],[126.87258,35.87824],[126.87606,35.87979],[126.8828,35.87661],[126.88688,35.87334],[126.89427,35.87093],[126.89834,35.8732],[126.90391,35.86455],[126.90112,35.85901],[126.90795,35.85593],[126.9123,35.85831],[126.92448,35.85669],[126.9412,35.85801],[126.93961,35.8634],[126.9353,35.86733],[126.93933,35.87493],[126.93235,35.8876],[126.93471,35.89768],[126.92824,35.90178],[126.92332,35.90834],[126.91782,35.90572],[126.90572,35.90532],[126.89948,35.91233],[126.89209,35.9151],[126.87818,35.90977],[126.87161,35.91087],[126.86681,35.90773]]]},"properties":{"code":"35060360","name":"공덕면"}},{"type":"Feature","geometry":{"type":"Polygon","coordinates":[[[126.83728,35.91156],[126.83249,35.90484],[126.82536,35.89851],[126.82839,35.89246],[126.8327,35.89016],[126.82764,35.88477],[126.82909,35.8821],[126.84011,35.87473],[126.83774,35.87047],[126.83317,35.86881],[126.83184,35.8637],[126.84178,35.86169],[126.84568,35.86406],[126.85606,35.86018],[126.86433,35.86615],[126.88097,35.86901],[126.8828,35.87661],[126.87606,35.87979],[126.87258,35.87824],[126.86692,35.88264],[126.87026,35.88527],[126.86628,35.88909],[126.86955,35.89533],[126.86971,35.90458],[126.86681,35.90773],[126.86031,35.90524],[126.85493,35.90897],[126.8536,35.91679],[126.84749,35.92021],[126.83728,35.91156]]]},"properties":{"code":"35060370","name":"청하면"}},{"type":"Feature","geometry":{"type":"Polygon","coordinates":[[[126.81635,35.84348],[126.81522,35.83939],[126.80399,35.82907],[126.79728,35.83179],[126.79266,35.82923],[126.78698,35.83023],[126.7808,35.82107],[126.78138,35.81496],[126.77382,35.80938],[126.76564,35.80741],[126.76584,35.80449],[126.77684,35.80149],[126.78847,35.80097],[126.79889,35.79934],[126.81956,35.80391],[126.82771,35.8052],[126.83717,35.81013],[126.84279,35.81439],[126.84933,35.81549],[126.85023,35.82379],[126.84666,35.8279],[126.84715,35.83206],[126.84153,35.8381],[126.83193,35.83518],[126.82607,35.84129],[126.82016,35.84502],[126.81635,35.84348]]]},"properties":{"code":"35060380","name":"성덕면"}},{"type":"Feature","geometry":{"type":"Polygon","coordinates":[[[126.79863,35.87396],[126.78798,35.86491],[126.76476,35.8661],[126.76621,35.86199],[126.75554,35.86568],[126.74529,35.86714],[126.73097,35.86665],[126.72916,35.86423],[126.71987,35.86],[126.71581,35.86054],[126.71086,35.85747],[126.69729,35.85476],[126.6853,35.84391],[126.69023,35.84166],[126.69705,35.84625],[126.70371,35.84668],[126.70739,35.84361],[126.71716,35.8395],[126.72389,35.84471],[126.73058,35.847],[126.7496,35.84594],[126.75462,35.84344],[126.75739,35.84707],[126.7684,35.8335],[126.7808,35.82107],[126.78698,35.83023],[126.79266,35.82923],[126.79728,35.83179],[126.80399,35.82907],[126.81522,35.83939],[126.81635,35.84348],[126.81333,35.85349],[126.8044,35.85961],[126.80118,35.86524],[126.80464,35.87069],[126.79863,35.87396]]]},"properties":{"code":"35060390","name":"진봉면"}},{"type":"Feature","geometry":{"type":"Polygon","coordinates":[[[127.06591,35.79076],[127.06159,35.79246],[127.05543,35.79135],[127.04245,35.79829],[127.03303,35.79842],[127.02906,35.80253],[127.01995,35.79992],[126.99969,35.81317],[126.99787,35.81828],[126.99142,35.81516],[126.98487,35.8148],[126.95822,35.81666],[126.96008,35.81014],[126.97181,35.80907],[126.97093,35.80484],[126.9841,35.80066],[126.98239,35.79139],[126.984,35.78769],[126.97891,35.78538],[126.97829,35.77804],[126.9801,35.77203],[126.97923,35.76862],[126.98408,35.76481],[126.98352,35.75987],[126.98876,35.7589],[126.99849,35.75914],[127.00361,35.7558],[127.0097,35.75637],[127.01812,35.75251],[127.01937,35.74827],[127.02816,35.74767],[127.03349,35.74582],[127.04203,35.75124],[127.05147,35.75966],[127.05369,35.76288],[127.06427,35.76675],[127.06672,35.77039],[127.07435,35.77519],[127.07117,35.78214],[127.06486,35.78616],[127.06591,35.79076]]]},"properties":{"code":"35060400","name":"금구면"}},{"type":"Feature","geometry":{"type":"Polygon","coordinates":[[[126.97439,35.71766],[126.97647,35.72242],[126.98342,35.73121],[126.9887,35.73126],[126.98534,35.74012],[126.98783,35.74726],[126.98469,35.75206],[126.98876,35.7589],[126.98352,35.75987],[126.98408,35.76481],[126.97923,35.76862],[126.9801,35.77203],[126.969,35.76099],[126.95842,35.76091],[126.95053,35.76672],[126.94677,35.76538],[126.94688,35.76041],[126.94008,35.76125],[126.94023,35.7545],[126.93343,35.75156],[126.9207,35.75135],[126.91378,35.74533],[126.92247,35.73901],[126.92867,35.73091],[126.93387,35.72032],[126.94509,35.72112],[126.95089,35.72479],[126.96168,35.72312],[126.97439,35.71766]]]},"properties":{"code":"35060410","name":"봉남면"}},{"type":"Feature","geometry":{"type":"Polygon","coordinates":[[[126.94483,35.81912],[126.94675,35.80698],[126.94058,35.80247],[126.94437,35.7987],[126.93848,35.79626],[126.94349,35.79139],[126.94208,35.78481],[126.93748,35.77938],[126.94826,35.7714],[126.95053,35.76672],[126.95842,35.76091],[126.969,35.76099],[126.9801,35.77203],[126.97829,35.77804],[126.97891,35.78538],[126.984,35.78769],[126.98239,35.79139],[126.9841,35.80066],[126.97093,35.80484],[126.97181,35.80907],[126.96008,35.81014],[126.95822,35.81666],[126.94809,35.81964],[126.94483,35.81912]]]},"properties":{"code":"35060420","name":"황산면"}},{"type":"Feature","geometry":{"type":"Polygon","coordinates":[[[127.05147,35.75966],[127.04203,35.75124],[127.03349,35.74582],[127.02816,35.74767],[127.01937,35.74827],[127.01812,35.75251],[127.0097,35.75637],[127.00361,35.7558],[126.99849,35.75914],[126.98876,35.7589],[126.98469,35.75206],[126.98783,35.74726],[126.98534,35.74012],[126.9887,35.73126],[126.98342,35.73121],[126.97647,35.72242],[126.97439,35.71766],[126.9896,35.70469],[126.99286,35.69948],[126.99115,35.68947],[126.99578,35.68638],[127.0024,35.68571],[127.0049,35.68062],[127.01487,35.67668],[127.02122,35.6692],[127.03074,35.66602],[127.04182,35.66598],[127.05068,35.67029],[127.06072,35.67044],[127.06412,35.67772],[127.06364,35.68024],[127.06887,35.68942],[127.06833,35.69463],[127.06042,35.70188],[127.06126,35.70468],[127.07006,35.71236],[127.07181,35.71786],[127.08598,35.72484],[127.08518,35.72843],[127.08172,35.72964],[127.07839,35.73663],[127.07051,35.74223],[127.07059,35.74678],[127.06621,35.74928],[127.05955,35.75842],[127.05147,35.75966]]]},"properties":{"code":"35060430","name":"금산면"}},{"type":"Feature","geometry":{"type":"Polygon","coordinates":[[[126.7808,35.82107],[126.7684,35.8335],[126.75739,35.84707],[126.75462,35.84344],[126.7496,35.84594],[126.73058,35.847],[126.72389,35.84471],[126.71716,35.8395],[126.70739,35.84361],[126.70371,35.84668],[126.69705,35.84625],[126.69023,35.84166],[126.6993,35.8399],[126.72258,35.82773],[126.73316,35.81861],[126.75108,35.81216],[126.75732,35.80875],[126.76564,35.80741],[126.77382,35.80938],[126.78138,35.81496],[126.7808,35.82107]]]},"properties":{"code":"35060440","name":"광활면"}},{"type":"Feature","geometry":{"type":"Polygon","coordinates":[[[126.85745,35.81949],[126.8642,35.81662],[126.86848,35.81149],[126.86639,35.80953],[126.88255,35.80135],[126.88401,35.79664],[126.88961,35.79613],[126.89475,35.79874],[126.89613,35.80402],[126.90027,35.81578],[126.92238,35.83185],[126.914,35.8345],[126.90753,35.83381],[126.90647,35.84009],[126.89993,35.83996],[126.89911,35.83511],[126.89387,35.83518],[126.89293,35.82853],[126.88064,35.82339],[126.88166,35.81961],[126.87362,35.81904],[126.8667,35.82246],[126.86405,35.82605],[126.85745,35.81949]]]},"properties":{"code":"35060510","name":"요촌동"}},{"type":"Feature","geometry":{"type":"Polygon","coordinates":[[[126.91378,35.74533],[126.9207,35.75135],[126.93343,35.75156],[126.94023,35.7545],[126.94008,35.76125],[126.94688,35.76041],[126.94677,35.76538],[126.95053,35.76672],[126.94826,35.7714],[126.93748,35.77938],[126.94208,35.78481],[126.94349,35.79139],[126.93848,35.79626],[126.92324,35.79689],[126.91243,35.79476],[126.90588,35.79615],[126.89996,35.80347],[126.89613,35.80402],[126.89475,35.79874],[126.88961,35.79613],[126.88482,35.78717],[126.89098,35.78222],[126.89952,35.77822],[126.89971,35.76784],[126.89716,35.76093],[126.8872,35.75421],[126.89511,35.75335],[126.90075,35.75021],[126.91378,35.74533]]]},"properties":{"code":"35060520","name":"신풍동"}},{"type":"Feature","geometry":{"type":"Polygon","coordinates":[[[126.914,35.8345],[126.92238,35.83185],[126.90027,35.81578],[126.89613,35.80402],[126.89996,35.80347],[126.90588,35.79615],[126.91243,35.79476],[126.92324,35.79689],[126.93848,35.79626],[126.94437,35.7987],[126.94058,35.80247],[126.94675,35.80698],[126.94483,35.81912],[126.94447,35.82219],[126.93575,35.82978],[126.93536,35.83993],[126.92474,35.83286],[126.914,35.8345]]]},"properties":{"code":"35060540","name":"검산동"}},{"type":"Feature","geometry":{"type":"Polygon","coordinates":[[[126.8872,35.75421],[126.89716,35.76093],[126.89971,35.76784],[126.89952,35.77822],[126.89098,35.78222],[126.88482,35.78717],[126.88961,35.79613],[126.88401,35.79664],[126.88255,35.80135],[126.86639,35.80953],[126.86848,35.81149],[126.8642,35.81662],[126.85745,35.81949],[126.84933,35.81549],[126.84279,35.81439],[126.83717,35.81013],[126.82771,35.8052],[126.81956,35.80391],[126.82293,35.79699],[126.83068,35.79617],[126.84118,35.78759],[126.84124,35.78298],[126.846,35.78296],[126.85208,35.77677],[126.84709,35.77216],[126.84871,35.76967],[126.84544,35.76509],[126.84152,35.76511],[126.84007,35.75956],[126.8494,35.75865],[126.86141,35.76108],[126.87305,35.75831],[126.8872,35.75421]]]},"properties":{"code":"35060580","name":"교월동"}}]}