{"type":"FeatureCollection","features":[{"type":"Feature","geometry":{"type":"Polygon","coordinates":[[[127.11174,35.89793],[127.11399,35.90074],[127.12314,35.90433],[127.13461,35.91024],[127.13086,35.91355],[127.12455,35.92735],[127.12381,35.9391],[127.11617,35.93687],[127.09421,35.93554],[127.09233,35.93099],[127.0806,35.92149],[127.07522,35.92155],[127.06618,35.9158],[127.05708,35.92091],[127.04306,35.92584],[127.03592,35.91846],[127.02972,35.91855],[127.03298,35.90453],[127.03617,35.90278],[127.03723,35.89346],[127.04198,35.89644],[127.04534,35.89337],[127.05262,35.89208],[127.06421,35.89898],[127.07668,35.89815],[127.08864,35.89331],[127.0979,35.89613],[127.10583,35.89612],[127.11174,35.89793]]]},"properties":{"code":"35510110","name":"삼례읍"}},{"type":"Feature","geometry":{"type":"Polygon","coordinates":[[[127.09421,35.93554],[127.11617,35.93687],[127.12381,35.9391],[127.12455,35.92735],[127.13086,35.91355],[127.13461,35.91024],[127.1413,35.90689],[127.1485,35.89735],[127.15382,35.89616],[127.15744,35.90226],[127.15639,35.9065],[127.16374,35.9143],[127.16959,35.92378],[127.17211,35.93012],[127.1698,35.93597],[127.17229,35.94342],[127.1812,35.94688],[127.18364,35.95334],[127.17884,35.95508],[127.17671,35.96084],[127.17118,35.96156],[127.16426,35.96598],[127.15396,35.97003],[127.14888,35.97492],[127.1431,35.97585],[127.14265,35.98183],[127.13213,35.98452],[127.13065,35.98809],[127.13294,35.99316],[127.12797,35.99936],[127.12516,36.00547],[127.10734,35.99553],[127.10852,35.98376],[127.10426,35.96451],[127.10641,35.96042],[127.10225,35.95149],[127.09458,35.94034],[127.09421,35.93554]]]},"properties":{"code":"35510120","name":"봉동읍"}},{"type":"Feature","geometry":{"type":"Polygon","coordinates":[[[127.1676,35.85699],[127.17405,35.8547],[127.1854,35.85578],[127.19457,35.85877],[127.1922,35.86287],[127.19829,35.87156],[127.19988,35.87692],[127.20624,35.87937],[127.20468,35.89135],[127.20654,35.89753],[127.21121,35.89938],[127.21718,35.8986],[127.22706,35.90092],[127.22552,35.90534],[127.22663,35.91086],[127.21868,35.91598],[127.20615,35.91563],[127.20202,35.91932],[127.1958,35.91908],[127.1895,35.92267],[127.19041,35.93457],[127.1925,35.93754],[127.19081,35.94308],[127.18406,35.94228],[127.1812,35.94688],[127.17229,35.94342],[127.1698,35.93597],[127.17211,35.93012],[127.16959,35.92378],[127.16374,35.9143],[127.15639,35.9065],[127.15744,35.90226],[127.15382,35.89616],[127.1485,35.89735],[127.1413,35.90689],[127.13461,35.91024],[127.12314,35.90433],[127.11399,35.90074],[127.11174,35.89793],[127.12763,35.90149],[127.13637,35.90046],[127.14101,35.89775],[127.1479,35.89014],[127.15197,35.88059],[127.16223,35.86796],[127.16659,35.85898],[127.1676,35.85699]]]},"properties":{"code":"35510130","name":"용진읍"}},{"type":"Feature","geometry":{"type":"Polygon","coordinates":[[[127.17885,35.77261],[127.18124,35.76715],[127.18103,35.76039],[127.18733,35.75713],[127.19318,35.74837],[127.1936,35.74442],[127.18631,35.73582],[127.18795,35.73088],[127.19427,35.72976],[127.20452,35.72441],[127.20669,35.72046],[127.20546,35.71575],[127.20953,35.7093],[127.22396,35.71172],[127.24122,35.69787],[127.23985,35.69063],[127.24218,35.68707],[127.2514,35.69157],[127.25949,35.69308],[127.25629,35.69942],[127.25642,35.70585],[127.25316,35.71095],[127.25162,35.71891],[127.25519,35.72507],[127.25627,35.73282],[127.25143,35.73526],[127.25362,35.74191],[127.24678,35.74838],[127.24445,35.75626],[127.25326,35.76649],[127.25895,35.76873],[127.26476,35.77762],[127.2708,35.77796],[127.27455,35.78239],[127.27414,35.78945],[127.26921,35.79641],[127.27046,35.80293],[127.26699,35.81294],[127.2606,35.81366],[127.25106,35.81809],[127.24686,35.82167],[127.23561,35.82149],[127.2311,35.81851],[127.22822,35.8088],[127.21728,35.80164],[127.21194,35.79397],[127.19969,35.78603],[127.1994,35.77607],[127.19541,35.77429],[127.18544,35.77915],[127.17885,35.77261]]]},"properties":{"code":"35510320","name":"상관면"}},{"type":"Feature","geometry":{"type":"Polygon","coordinates":[[[127.06746,35.80379],[127.06763,35.81424],[127.06553,35.81853],[127.05681,35.82304],[127.05624,35.82526],[127.05094,35.82864],[127.05177,35.83331],[127.05855,35.83296],[127.05862,35.83828],[127.05634,35.83915],[127.04985,35.85181],[127.04988,35.85387],[127.03408,35.85073],[127.02935,35.85381],[127.02846,35.8612],[127.02466,35.86471],[127.0162,35.85923],[127.00553,35.86204],[127.00845,35.85736],[127.00967,35.84663],[127.00156,35.83887],[126.99911,35.83155],[126.99465,35.82932],[126.99787,35.81828],[126.99969,35.81317],[127.01995,35.79992],[127.02906,35.80253],[127.03303,35.79842],[127.04245,35.79829],[127.05543,35.79135],[127.06159,35.79246],[127.06591,35.79076],[127.06524,35.80255],[127.06746,35.80379]]]},"properties":{"code":"35510330","name":"이서면"}},{"type":"Feature","geometry":{"type":"Polygon","coordinates":[[[127.23561,35.82149],[127.24686,35.82167],[127.25106,35.81809],[127.2606,35.81366],[127.26699,35.81294],[127.27046,35.80293],[127.26921,35.79641],[127.27414,35.78945],[127.28702,35.79344],[127.29157,35.79688],[127.3032,35.80084],[127.29552,35.80867],[127.29879,35.81326],[127.29754,35.81782],[127.3084,35.82272],[127.31051,35.82498],[127.30879,35.83076],[127.31286,35.84197],[127.32004,35.84684],[127.32485,35.85437],[127.32562,35.85996],[127.31985,35.86348],[127.31192,35.85725],[127.30922,35.86417],[127.30512,35.86725],[127.29863,35.86866],[127.29371,35.87673],[127.29533,35.88152],[127.29325,35.8851],[127.28373,35.88511],[127.27653,35.88768],[127.27151,35.89394],[127.26209,35.89789],[127.26295,35.90851],[127.25987,35.91626],[127.25252,35.91646],[127.24511,35.91461],[127.24107,35.92026],[127.23904,35.92766],[127.23028,35.92839],[127.22289,35.92661],[127.22266,35.9217],[127.21868,35.91598],[127.22663,35.91086],[127.22552,35.90534],[127.22706,35.90092],[127.21718,35.8986],[127.21121,35.89938],[127.20654,35.89753],[127.20468,35.89135],[127.20624,35.87937],[127.19988,35.87692],[127.19829,35.87156],[127.1922,35.86287],[127.19457,35.85877],[127.19812,35.85686],[127.20497,35.84511],[127.21022,35.84119],[127.20854,35.8292],[127.21418,35.82212],[127.2195,35.81987],[127.22753,35.82228],[127.23561,35.82149]]]},"properties":{"code":"35510340","name":"소양면"}},{"type":"Feature","geometry":{"type":"Polygon","coordinates":[[[127.16242,35.78394],[127.15342,35.77857],[127.14893,35.77318],[127.14969,35.76879],[127.14622,35.76371],[127.1463,35.7595],[127.13666,35.76097],[127.12401,35.75223],[127.11836,35.7531],[127.11587,35.74943],[127.10206,35.75187],[127.09621,35.74535],[127.09542,35.73732],[127.09147,35.73625],[127.08518,35.72843],[127.08598,35.72484],[127.07181,35.71786],[127.07006,35.71236],[127.06126,35.70468],[127.06042,35.70188],[127.06833,35.69463],[127.06887,35.68942],[127.06364,35.68024],[127.06412,35.67772],[127.07404,35.67161],[127.07751,35.67174],[127.08247,35.66616],[127.07899,35.66255],[127.08029,35.65891],[127.08947,35.65305],[127.08745,35.64661],[127.08938,35.63782],[127.09388,35.63321],[127.08979,35.62699],[127.0936,35.62144],[127.10628,35.61954],[127.11244,35.62463],[127.12007,35.63348],[127.12941,35.63733],[127.13247,35.64424],[127.13553,35.6468],[127.13076,35.6542],[127.12698,35.65722],[127.1309,35.66574],[127.13097,35.66955],[127.12635,35.67368],[127.12476,35.67946],[127.12509,35.68965],[127.13024,35.69174],[127.13907,35.69969],[127.13732,35.70606],[127.13961,35.71253],[127.13866,35.71801],[127.15248,35.725],[127.15978,35.72397],[127.16346,35.7278],[127.17707,35.73771],[127.18631,35.73582],[127.1936,35.74442],[127.19318,35.74837],[127.18733,35.75713],[127.18103,35.76039],[127.18124,35.76715],[127.17885,35.77261],[127.1729,35.77917],[127.16365,35.78188],[127.16242,35.78394]]]},"properties":{"code":"35510350","name":"구이면"}},{"type":"Feature","geometry":{"type":"Polygon","coordinates":[[[127.1812,35.94688],[127.18406,35.94228],[127.19081,35.94308],[127.1925,35.93754],[127.19041,35.93457],[127.1895,35.92267],[127.1958,35.91908],[127.20202,35.91932],[127.20615,35.91563],[127.21868,35.91598],[127.22266,35.9217],[127.22289,35.92661],[127.23028,35.92839],[127.23904,35.92766],[127.24638,35.9299],[127.24419,35.94287],[127.25134,35.95283],[127.25489,35.95467],[127.25477,35.95961],[127.26066,35.95998],[127.26523,35.96754],[127.26431,35.971],[127.25841,35.97551],[127.26005,35.98244],[127.26622,35.9841],[127.26758,35.99056],[127.27751,35.99111],[127.28078,35.98905],[127.28812,35.98879],[127.29716,35.99185],[127.30351,36.0014],[127.3094,35.99964],[127.32018,36.00328],[127.33162,36.01356],[127.32837,36.02041],[127.32521,36.02105],[127.31126,36.01862],[127.30491,36.01961],[127.3012,36.01691],[127.29093,36.01771],[127.27604,36.01282],[127.27383,36.00774],[127.25935,36.00172],[127.24694,36.00312],[127.23717,35.99539],[127.2333,35.99392],[127.22266,35.99887],[127.20987,35.99383],[127.20615,36.00016],[127.20089,35.99608],[127.19404,35.99671],[127.18931,35.99337],[127.17521,35.98947],[127.17608,35.98599],[127.17123,35.98144],[127.16399,35.98084],[127.17655,35.97179],[127.17534,35.96836],[127.17671,35.96084],[127.17884,35.95508],[127.18364,35.95334],[127.1812,35.94688]]]},"properties":{"code":"35510360","name":"고산면"}},{"type":"Feature","geometry":{"type":"Polygon","coordinates":[[[127.11614,36.03056],[127.11601,36.02414],[127.12148,36.02007],[127.12493,36.01243],[127.12516,36.00547],[127.12797,35.99936],[127.13294,35.99316],[127.13065,35.98809],[127.13213,35.98452],[127.14265,35.98183],[127.1431,35.97585],[127.14888,35.97492],[127.15396,35.97003],[127.16426,35.96598],[127.17118,35.96156],[127.17671,35.96084],[127.17534,35.96836],[127.17655,35.97179],[127.16399,35.98084],[127.17123,35.98144],[127.17608,35.98599],[127.17521,35.98947],[127.18931,35.99337],[127.19404,35.99671],[127.20089,35.99608],[127.20615,36.00016],[127.21168,36.00555],[127.20432,36.01272],[127.19768,36.01354],[127.19149,36.0208],[127.18174,36.02672],[127.17405,36.02762],[127.16814,36.03101],[127.1502,36.03025],[127.15084,36.03364],[127.15857,36.03869],[127.17083,36.03803],[127.17945,36.03634],[127.18419,36.0397],[127.17483,36.04168],[127.16501,36.04981],[127.15725,36.04899],[127.15301,36.05597],[127.14617,36.05403],[127.1401,36.05711],[127.13532,36.05272],[127.1317,36.0455],[127.11765,36.031],[127.11614,36.03056]]]},"properties":{"code":"35510370","name":"비봉면"}},{"type":"Feature","geometry":{"type":"Polygon","coordinates":[[[127.30237,36.12545],[127.29589,36.12008],[127.29447,36.11297],[127.28418,36.11201],[127.27348,36.10757],[127.26149,36.1105],[127.25685,36.11409],[127.25161,36.11226],[127.25019,36.10741],[127.24627,36.10475],[127.24626,36.09478],[127.25698,36.08752],[127.25405,36.08366],[127.24778,36.0833],[127.24175,36.0858],[127.23537,36.09385],[127.22549,36.09923],[127.21936,36.09696],[127.22598,36.09134],[127.22365,36.0808],[127.22841,36.07607],[127.22874,36.07282],[127.23714,36.06396],[127.24361,36.06155],[127.25297,36.06663],[127.25771,36.06614],[127.26053,36.07073],[127.2713,36.0759],[127.28,36.07452],[127.28499,36.07004],[127.29078,36.06766],[127.29082,36.06226],[127.29653,36.06021],[127.29847,36.05599],[127.31104,36.04638],[127.3125,36.03738],[127.31652,36.03543],[127.32429,36.02487],[127.32521,36.02105],[127.32837,36.02041],[127.33162,36.01356],[127.3384,36.01088],[127.34761,36.00188],[127.34828,35.99889],[127.34377,35.99481],[127.35325,35.98889],[127.36397,35.99178],[127.36469,35.99973],[127.36199,36.00534],[127.36221,36.01116],[127.36918,36.02087],[127.37376,36.02015],[127.37783,36.02282],[127.37935,36.03041],[127.37438,36.03427],[127.37308,36.04352],[127.36561,36.05113],[127.36114,36.05331],[127.3606,36.06107],[127.36455,36.06592],[127.35927,36.07057],[127.36173,36.07618],[127.35724,36.08316],[127.36,36.08951],[127.34966,36.09523],[127.34789,36.09839],[127.35497,36.10831],[127.35094,36.11642],[127.34444,36.11807],[127.33848,36.13049],[127.323,36.13009],[127.32291,36.12589],[127.31438,36.11863],[127.30906,36.12388],[127.30237,36.12545]]]},"properties":{"code":"35510380","name":"운주면"}},{"type":"Feature","geometry":{"type":"Polygon","coordinates":[[[127.12991,36.06565],[127.1401,36.05711],[127.14617,36.05403],[127.15301,36.05597],[127.15725,36.04899],[127.16501,36.04981],[127.17483,36.04168],[127.18419,36.0397],[127.17945,36.03634],[127.17083,36.03803],[127.15857,36.03869],[127.15084,36.03364],[127.1502,36.03025],[127.16814,36.03101],[127.17405,36.02762],[127.18174,36.02672],[127.19149,36.0208],[127.19768,36.01354],[127.20432,36.01272],[127.21168,36.00555],[127.20615,36.00016],[127.20987,35.99383],[127.22266,35.99887],[127.2333,35.99392],[127.23717,35.99539],[127.24694,36.00312],[127.24792,36.01314],[127.24086,36.01905],[127.24374,36.02357],[127.25124,36.02388],[127.25324,36.03855],[127.24978,36.04258],[127.2406,36.04712],[127.23504,36.05681],[127.23714,36.06396],[127.22874,36.07282],[127.22841,36.07607],[127.22365,36.0808],[127.22598,36.09134],[127.21936,36.09696],[127.21229,36.10057],[127.20547,36.10054],[127.20349,36.09394],[127.1961,36.08594],[127.18884,36.09245],[127.17939,36.09418],[127.17767,36.0909],[127.16868,36.08394],[127.16473,36.08523],[127.15777,36.08369],[127.15271,36.08575],[127.15125,36.08992],[127.14595,36.09044],[127.13716,36.08685],[127.13351,36.08134],[127.1337,36.06968],[127.12991,36.06565]]]},"properties":{"code":"35510390","name":"화산면"}},{"type":"Feature","geometry":{"type":"Polygon","coordinates":[[[127.31985,35.86348],[127.32469,35.87143],[127.33334,35.87491],[127.33261,35.90791],[127.34196,35.91035],[127.3481,35.91401],[127.35322,35.91357],[127.34937,35.91851],[127.34723,35.92666],[127.3498,35.93511],[127.34559,35.94287],[127.35061,35.94868],[127.3496,35.95258],[127.34418,35.95976],[127.34502,35.969],[127.34135,35.97422],[127.34377,35.98045],[127.35028,35.98357],[127.35325,35.98889],[127.34377,35.99481],[127.34828,35.99889],[127.34761,36.00188],[127.3384,36.01088],[127.33162,36.01356],[127.32018,36.00328],[127.3094,35.99964],[127.30351,36.0014],[127.29716,35.99185],[127.28812,35.98879],[127.28078,35.98905],[127.27751,35.99111],[127.26758,35.99056],[127.26622,35.9841],[127.26005,35.98244],[127.25841,35.97551],[127.26431,35.971],[127.26523,35.96754],[127.26066,35.95998],[127.25477,35.95961],[127.25489,35.95467],[127.25134,35.95283],[127.24419,35.94287],[127.24638,35.9299],[127.23904,35.92766],[127.24107,35.92026],[127.24511,35.91461],[127.25252,35.91646],[127.25987,35.91626],[127.26295,35.90851],[127.26209,35.89789],[127.27151,35.89394],[127.27653,35.88768],[127.28373,35.88511],[127.29325,35.8851],[127.29533,35.88152],[127.29371,35.87673],[127.29863,35.86866],[127.30512,35.86725],[127.30922,35.86417],[127.31192,35.85725],[127.31985,35.86348]]]},"properties":{"code":"35510400","name":"동상면"}},{"type":"Feature","geometry":{"type":"Polygon","coordinates":[[[127.32521,36.02105],[127.32429,36.02487],[127.31652,36.03543],[127.3125,36.03738],[127.31104,36.04638],[127.29847,36.05599],[127.29653,36.06021],[127.29082,36.06226],[127.29078,36.06766],[127.28499,36.07004],[127.28,36.07452],[127.2713,36.0759],[127.26053,36.07073],[127.25771,36.06614],[127.25297,36.06663],[127.24361,36.06155],[127.23714,36.06396],[127.23504,36.05681],[127.2406,36.04712],[127.24978,36.04258],[127.25324,36.03855],[127.25124,36.02388],[127.24374,36.02357],[127.24086,36.01905],[127.24792,36.01314],[127.24694,36.00312],[127.25935,36.00172],[127.27383,36.00774],[127.27604,36.01282],[127.29093,36.01771],[127.3012,36.01691],[127.30491,36.01961],[127.31126,36.01862],[127.32521,36.02105]]]},"properties":{"code":"35510410","name":"경천면"}}]}