{"type":"FeatureCollection","features":[{"type":"Feature","geometry":{"type":"Polygon","coordinates":[[[127.45349,35.83335],[127.43603,35.83125],[127.43202,35.8329],[127.42526,35.82466],[127.41723,35.82459],[127.41044,35.8187],[127.40462,35.8116],[127.3961,35.80944],[127.38364,35.80838],[127.37874,35.81009],[127.37655,35.80513],[127.36963,35.80156],[127.36277,35.80476],[127.35869,35.79926],[127.3643,35.79346],[127.3671,35.78181],[127.36522,35.77565],[127.3595,35.77546],[127.36101,35.76274],[127.36733,35.75754],[127.3765,35.75855],[127.38836,35.75649],[127.38756,35.76183],[127.40542,35.76398],[127.4064,35.7594],[127.41294,35.75775],[127.4054,35.75043],[127.40093,35.7514],[127.39824,35.74682],[127.40497,35.74458],[127.40801,35.73985],[127.40895,35.73348],[127.41939,35.72439],[127.42841,35.73016],[127.43383,35.72846],[127.44186,35.72875],[127.45039,35.72599],[127.46347,35.72696],[127.46802,35.7298],[127.47448,35.72746],[127.47852,35.72129],[127.4833,35.72221],[127.489,35.73097],[127.49513,35.73688],[127.50554,35.74325],[127.51907,35.75031],[127.52255,35.75386],[127.51952,35.76133],[127.51321,35.77033],[127.51143,35.77663],[127.51376,35.78432],[127.51124,35.79077],[127.51341,35.7991],[127.52022,35.80455],[127.52337,35.81261],[127.51866,35.81792],[127.52493,35.8275],[127.51505,35.82945],[127.51452,35.82556],[127.50715,35.82114],[127.50495,35.81647],[127.49878,35.81629],[127.49682,35.80551],[127.50111,35.79625],[127.50032,35.7925],[127.49302,35.78771],[127.48716,35.78707],[127.48534,35.79131],[127.47767,35.79619],[127.47353,35.80198],[127.46254,35.80883],[127.46776,35.8211],[127.45547,35.83025],[127.45349,35.83335]]]},"properties":{"code":"35520110","name":"진안읍"}},{"type":"Feature","geometry":{"type":"Polygon","coordinates":[[[127.46822,35.98774],[127.46343,35.98441],[127.45598,35.98378],[127.45209,35.97778],[127.4504,35.96954],[127.45438,35.96575],[127.45294,35.96031],[127.4476,35.95635],[127.44206,35.95514],[127.44589,35.94692],[127.45075,35.94037],[127.4483,35.93014],[127.44013,35.92561],[127.44255,35.91986],[127.44798,35.91587],[127.45329,35.90719],[127.45957,35.90799],[127.46358,35.91442],[127.4672,35.91428],[127.47075,35.919],[127.48218,35.9229],[127.49228,35.92411],[127.49812,35.9278],[127.51001,35.91842],[127.51264,35.91184],[127.51843,35.91043],[127.51996,35.91462],[127.51613,35.92113],[127.51107,35.92553],[127.51305,35.92921],[127.52115,35.92693],[127.52145,35.93137],[127.52494,35.93848],[127.52583,35.95287],[127.53461,35.95169],[127.5413,35.94569],[127.55331,35.94356],[127.5498,35.95315],[127.546,35.95819],[127.54518,35.9634],[127.54099,35.9637],[127.53471,35.97257],[127.53655,35.97811],[127.52831,35.97729],[127.52473,35.98557],[127.51411,35.98344],[127.50582,35.98036],[127.49912,35.98748],[127.49449,35.98609],[127.48761,35.97802],[127.47585,35.98052],[127.46822,35.98774]]]},"properties":{"code":"35520310","name":"용담면"}},{"type":"Feature","geometry":{"type":"Polygon","coordinates":[[[127.51996,35.91462],[127.5232,35.91326],[127.52496,35.90659],[127.52303,35.8993],[127.52805,35.90016],[127.53056,35.89598],[127.53081,35.88881],[127.52623,35.87868],[127.52883,35.87362],[127.52794,35.86875],[127.53532,35.86388],[127.54039,35.85516],[127.55079,35.85539],[127.55505,35.85849],[127.55634,35.86746],[127.56333,35.86802],[127.57002,35.87656],[127.57488,35.87938],[127.57798,35.88728],[127.58385,35.89622],[127.58286,35.90294],[127.57563,35.90954],[127.57056,35.9124],[127.56332,35.92285],[127.5549,35.92286],[127.54835,35.93278],[127.5525,35.93744],[127.55331,35.94356],[127.5413,35.94569],[127.53461,35.95169],[127.52583,35.95287],[127.52494,35.93848],[127.52145,35.93137],[127.52115,35.92693],[127.51305,35.92921],[127.51107,35.92553],[127.51613,35.92113],[127.51996,35.91462]]]},"properties":{"code":"35520320","name":"안천면"}},{"type":"Feature","geometry":{"type":"Polygon","coordinates":[[[127.52337,35.81261],[127.53578,35.81331],[127.54362,35.80641],[127.55651,35.80463],[127.56022,35.79973],[127.56868,35.79711],[127.5722,35.79394],[127.57679,35.79509],[127.57934,35.7938],[127.59278,35.80179],[127.60263,35.81185],[127.60229,35.8166],[127.60711,35.8302],[127.61007,35.83362],[127.6198,35.8397],[127.62206,35.84281],[127.62838,35.84513],[127.6217,35.84901],[127.6164,35.85975],[127.60911,35.86081],[127.60799,35.86516],[127.5991,35.87233],[127.5976,35.88081],[127.59259,35.8816],[127.58902,35.87756],[127.58264,35.87569],[127.57488,35.87938],[127.57002,35.87656],[127.56333,35.86802],[127.55634,35.86746],[127.55505,35.85849],[127.55079,35.85539],[127.54039,35.85516],[127.536,35.85283],[127.53778,35.84565],[127.5369,35.84145],[127.53087,35.83622],[127.52816,35.82891],[127.52493,35.8275],[127.51866,35.81792],[127.52337,35.81261]]]},"properties":{"code":"35520330","name":"동향면"}},{"type":"Feature","geometry":{"type":"Polygon","coordinates":[[[127.52493,35.8275],[127.52816,35.82891],[127.53087,35.83622],[127.5369,35.84145],[127.53778,35.84565],[127.536,35.85283],[127.54039,35.85516],[127.53532,35.86388],[127.52794,35.86875],[127.52883,35.87362],[127.52623,35.87868],[127.53081,35.88881],[127.53056,35.89598],[127.52805,35.90016],[127.52303,35.8993],[127.51489,35.89364],[127.51094,35.89338],[127.50869,35.90033],[127.50241,35.90025],[127.49297,35.89362],[127.48189,35.88203],[127.48822,35.87681],[127.47667,35.8728],[127.46576,35.86426],[127.46386,35.85871],[127.45781,35.85678],[127.4574,35.85385],[127.46313,35.85141],[127.46472,35.83698],[127.45349,35.83335],[127.45547,35.83025],[127.46776,35.8211],[127.46254,35.80883],[127.47353,35.80198],[127.47767,35.79619],[127.48534,35.79131],[127.48716,35.78707],[127.49302,35.78771],[127.50032,35.7925],[127.50111,35.79625],[127.49682,35.80551],[127.49878,35.81629],[127.50495,35.81647],[127.50715,35.82114],[127.51452,35.82556],[127.51505,35.82945],[127.52493,35.8275]]]},"properties":{"code":"35520340","name":"상전면"}},{"type":"Feature","geometry":{"type":"Polygon","coordinates":[[[127.40895,35.73348],[127.39572,35.72877],[127.38938,35.72525],[127.3914,35.71964],[127.39148,35.71116],[127.38323,35.71007],[127.37673,35.70404],[127.3724,35.69632],[127.36919,35.69452],[127.36823,35.68765],[127.36467,35.67911],[127.37552,35.67469],[127.37502,35.66868],[127.37713,35.66424],[127.37874,35.65396],[127.38759,35.65557],[127.39268,35.65183],[127.39908,35.65172],[127.40364,35.648],[127.41445,35.64422],[127.42072,35.64066],[127.42858,35.64095],[127.43222,35.63642],[127.43152,35.62845],[127.43599,35.62186],[127.44212,35.61953],[127.45374,35.61883],[127.46856,35.6215],[127.47,35.62667],[127.46663,35.63791],[127.47008,35.64419],[127.47409,35.64766],[127.47462,35.65454],[127.47697,35.661],[127.46451,35.66819],[127.45994,35.67327],[127.46421,35.67869],[127.46657,35.68937],[127.46489,35.69337],[127.47324,35.69744],[127.47781,35.70327],[127.47565,35.71491],[127.47852,35.72129],[127.47448,35.72746],[127.46802,35.7298],[127.46347,35.72696],[127.45039,35.72599],[127.44186,35.72875],[127.43383,35.72846],[127.42841,35.73016],[127.41939,35.72439],[127.40895,35.73348]]]},"properties":{"code":"35520350","name":"백운면"}},{"type":"Feature","geometry":{"type":"Polygon","coordinates":[[[127.2708,35.77796],[127.27299,35.77561],[127.26613,35.76966],[127.26557,35.76246],[127.26876,35.75831],[127.2761,35.75301],[127.27628,35.74914],[127.28084,35.74212],[127.28097,35.73766],[127.28577,35.73484],[127.28691,35.72988],[127.29359,35.71732],[127.2898,35.71232],[127.28971,35.708],[127.29276,35.70102],[127.29074,35.69587],[127.29222,35.6918],[127.29079,35.68617],[127.29627,35.68243],[127.30633,35.68484],[127.31571,35.67877],[127.32202,35.67018],[127.32336,35.66347],[127.32742,35.66082],[127.33858,35.66552],[127.34642,35.66542],[127.35714,35.66913],[127.36195,35.66691],[127.3647,35.66039],[127.36762,35.66269],[127.37713,35.66424],[127.37502,35.66868],[127.37552,35.67469],[127.36467,35.67911],[127.36823,35.68765],[127.36919,35.69452],[127.36582,35.69872],[127.36488,35.70663],[127.3658,35.71308],[127.36042,35.71517],[127.35259,35.71566],[127.34795,35.72218],[127.34408,35.73209],[127.33587,35.73853],[127.34138,35.74872],[127.34482,35.75085],[127.34269,35.75581],[127.33769,35.75856],[127.32942,35.75707],[127.31733,35.76183],[127.31493,35.76576],[127.30206,35.77135],[127.29904,35.77806],[127.30415,35.78414],[127.29721,35.78874],[127.28702,35.79344],[127.27414,35.78945],[127.27455,35.78239],[127.2708,35.77796]]]},"properties":{"code":"35520360","name":"성수면"}},{"type":"Feature","geometry":{"type":"Polygon","coordinates":[[[127.3595,35.77546],[127.35513,35.77598],[127.34834,35.78029],[127.34376,35.78072],[127.33403,35.78491],[127.32053,35.78013],[127.30938,35.78533],[127.30415,35.78414],[127.29904,35.77806],[127.30206,35.77135],[127.31493,35.76576],[127.31733,35.76183],[127.32942,35.75707],[127.33769,35.75856],[127.34269,35.75581],[127.34482,35.75085],[127.34138,35.74872],[127.33587,35.73853],[127.34408,35.73209],[127.34795,35.72218],[127.35259,35.71566],[127.36042,35.71517],[127.3658,35.71308],[127.36488,35.70663],[127.36582,35.69872],[127.36919,35.69452],[127.3724,35.69632],[127.37673,35.70404],[127.38323,35.71007],[127.39148,35.71116],[127.3914,35.71964],[127.38938,35.72525],[127.39572,35.72877],[127.40895,35.73348],[127.40801,35.73985],[127.40497,35.74458],[127.39824,35.74682],[127.40093,35.7514],[127.4054,35.75043],[127.41294,35.75775],[127.4064,35.7594],[127.40542,35.76398],[127.38756,35.76183],[127.38836,35.75649],[127.3765,35.75855],[127.36733,35.75754],[127.36101,35.76274],[127.3595,35.77546]]]},"properties":{"code":"35520370","name":"마령면"}},{"type":"Feature","geometry":{"type":"Polygon","coordinates":[[[127.28702,35.79344],[127.29721,35.78874],[127.30415,35.78414],[127.30938,35.78533],[127.32053,35.78013],[127.33403,35.78491],[127.34376,35.78072],[127.34834,35.78029],[127.35513,35.77598],[127.3595,35.77546],[127.36522,35.77565],[127.3671,35.78181],[127.3643,35.79346],[127.35869,35.79926],[127.36277,35.80476],[127.36963,35.80156],[127.37655,35.80513],[127.37874,35.81009],[127.38364,35.80838],[127.3961,35.80944],[127.40462,35.8116],[127.41044,35.8187],[127.41723,35.82459],[127.42526,35.82466],[127.43202,35.8329],[127.42964,35.84119],[127.43615,35.84895],[127.4284,35.85691],[127.42165,35.86677],[127.41934,35.86813],[127.40691,35.86857],[127.40099,35.87406],[127.39434,35.87684],[127.39388,35.87948],[127.38305,35.88268],[127.36347,35.89312],[127.35743,35.91158],[127.35322,35.91357],[127.3481,35.91401],[127.34196,35.91035],[127.33261,35.90791],[127.33334,35.87491],[127.32469,35.87143],[127.31985,35.86348],[127.32562,35.85996],[127.32485,35.85437],[127.32004,35.84684],[127.31286,35.84197],[127.30879,35.83076],[127.31051,35.82498],[127.3084,35.82272],[127.29754,35.81782],[127.29879,35.81326],[127.29552,35.80867],[127.3032,35.80084],[127.29157,35.79688],[127.28702,35.79344]]]},"properties":{"code":"35520380","name":"부귀면"}},{"type":"Feature","geometry":{"type":"Polygon","coordinates":[[[127.45349,35.83335],[127.46472,35.83698],[127.46313,35.85141],[127.4574,35.85385],[127.45781,35.85678],[127.46386,35.85871],[127.46576,35.86426],[127.47667,35.8728],[127.48822,35.87681],[127.48189,35.88203],[127.49297,35.89362],[127.50241,35.90025],[127.50869,35.90033],[127.51094,35.89338],[127.51489,35.89364],[127.52303,35.8993],[127.52496,35.90659],[127.5232,35.91326],[127.51996,35.91462],[127.51843,35.91043],[127.51264,35.91184],[127.51001,35.91842],[127.49812,35.9278],[127.49228,35.92411],[127.48218,35.9229],[127.47075,35.919],[127.4672,35.91428],[127.46358,35.91442],[127.45957,35.90799],[127.45329,35.90719],[127.44798,35.91587],[127.44415,35.91402],[127.42332,35.91239],[127.41417,35.92426],[127.40577,35.92211],[127.39638,35.93139],[127.39126,35.93228],[127.38644,35.92557],[127.38118,35.92269],[127.38037,35.91829],[127.3712,35.92041],[127.35743,35.91158],[127.36347,35.89312],[127.38305,35.88268],[127.39388,35.87948],[127.39434,35.87684],[127.40099,35.87406],[127.40691,35.86857],[127.41934,35.86813],[127.42165,35.86677],[127.4284,35.85691],[127.43615,35.84895],[127.42964,35.84119],[127.43202,35.8329],[127.43603,35.83125],[127.45349,35.83335]]]},"properties":{"code":"35520390","name":"정천면"}},{"type":"Feature","geometry":{"type":"Polygon","coordinates":[[[127.37783,36.02282],[127.37376,36.02015],[127.36918,36.02087],[127.36221,36.01116],[127.36199,36.00534],[127.36469,35.99973],[127.36397,35.99178],[127.35325,35.98889],[127.35028,35.98357],[127.34377,35.98045],[127.34135,35.97422],[127.34502,35.969],[127.34418,35.95976],[127.3496,35.95258],[127.35061,35.94868],[127.34559,35.94287],[127.3498,35.93511],[127.34723,35.92666],[127.34937,35.91851],[127.35322,35.91357],[127.35743,35.91158],[127.3712,35.92041],[127.38037,35.91829],[127.38118,35.92269],[127.38644,35.92557],[127.39126,35.93228],[127.39638,35.93139],[127.40577,35.92211],[127.41417,35.92426],[127.42332,35.91239],[127.44415,35.91402],[127.44798,35.91587],[127.44255,35.91986],[127.44013,35.92561],[127.4483,35.93014],[127.45075,35.94037],[127.44589,35.94692],[127.44206,35.95514],[127.4476,35.95635],[127.45294,35.96031],[127.45438,35.96575],[127.4504,35.96954],[127.45209,35.97778],[127.45598,35.98378],[127.45488,35.98698],[127.44817,35.99345],[127.44791,35.99922],[127.44358,36.00808],[127.43741,36.00912],[127.43527,36.01421],[127.4373,36.02051],[127.43368,36.02794],[127.42627,36.02647],[127.41814,36.02115],[127.41173,36.01445],[127.40496,36.01176],[127.40115,36.0079],[127.39676,36.01007],[127.39186,36.01715],[127.38359,36.0218],[127.37783,36.02282]]]},"properties":{"code":"35520400","name":"주천면"}}]}