{"type":"FeatureCollection","features":[{"type":"Feature","geometry":{"type":"Polygon","coordinates":[[[127.69523,36.05867],[127.68922,36.06255],[127.67081,36.05192],[127.67262,36.04131],[127.66543,36.03677],[127.6604,36.03807],[127.65991,36.04216],[127.65503,36.05489],[127.64913,36.05801],[127.64861,36.06268],[127.64471,36.06657],[127.63776,36.06836],[127.62585,36.06699],[127.61998,36.06129],[127.6186,36.05154],[127.61874,36.04251],[127.62183,36.04046],[127.63074,36.04077],[127.63145,36.03658],[127.63559,36.03112],[127.62756,36.03144],[127.62701,36.0262],[127.62372,36.02454],[127.61263,36.02632],[127.61026,36.02345],[127.61626,36.01941],[127.61827,36.00861],[127.61511,36.00184],[127.61087,36.00219],[127.60495,36.0116],[127.60149,36.0026],[127.60006,35.99105],[127.59198,35.9837],[127.59575,35.97711],[127.59475,35.97286],[127.60052,35.97458],[127.60357,35.97795],[127.61598,35.97177],[127.61988,35.96854],[127.62861,35.97193],[127.63429,35.96848],[127.6365,35.96094],[127.64663,35.95519],[127.65166,35.9559],[127.6569,35.96352],[127.66413,35.96846],[127.66737,35.97539],[127.68174,35.96799],[127.68283,35.97539],[127.6776,35.98471],[127.68412,35.99124],[127.69903,35.99247],[127.70402,35.99015],[127.71282,35.9901],[127.7166,35.99725],[127.71414,36.00301],[127.70742,36.00611],[127.7083,36.02448],[127.71827,36.02458],[127.71984,36.03044],[127.71366,36.03536],[127.70499,36.03365],[127.69647,36.0412],[127.69505,36.04638],[127.69672,36.05622],[127.69523,36.05867]]]},"properties":{"code":"35530110","name":"무주읍"}},{"type":"Feature","geometry":{"type":"Polygon","coordinates":[[[127.87581,35.99672],[127.87241,35.99181],[127.868,35.98995],[127.85514,35.99039],[127.84802,35.99235],[127.84175,35.99123],[127.8402,35.98852],[127.82467,35.98076],[127.82266,35.97372],[127.81257,35.97346],[127.80812,35.9721],[127.80844,35.96504],[127.81488,35.95454],[127.81874,35.94476],[127.81826,35.93607],[127.81123,35.92547],[127.80645,35.92503],[127.80663,35.91677],[127.80139,35.90929],[127.80409,35.90536],[127.79912,35.90109],[127.80043,35.89459],[127.79337,35.88471],[127.79549,35.87926],[127.80192,35.8745],[127.80138,35.8691],[127.80439,35.86194],[127.80387,35.85718],[127.81273,35.85283],[127.82117,35.8654],[127.83088,35.86974],[127.84094,35.86687],[127.84436,35.87006],[127.84467,35.87575],[127.85299,35.88122],[127.85075,35.89005],[127.85709,35.89499],[127.85954,35.90649],[127.8672,35.90411],[127.87723,35.9075],[127.8824,35.91308],[127.88761,35.91458],[127.88223,35.92015],[127.88222,35.92774],[127.88539,35.93086],[127.89617,35.9343],[127.90646,35.94057],[127.91147,35.94945],[127.90402,35.95452],[127.90039,35.96689],[127.89651,35.97204],[127.89624,35.97791],[127.8896,35.97953],[127.89374,35.98447],[127.8867,35.99211],[127.87581,35.99672]]]},"properties":{"code":"35530310","name":"무풍면"}},{"type":"Feature","geometry":{"type":"Polygon","coordinates":[[[127.84937,36.03966],[127.84248,36.03649],[127.83259,36.03514],[127.82581,36.03274],[127.81874,36.02802],[127.79762,36.02497],[127.78785,36.01425],[127.77796,36.01563],[127.76915,36.01228],[127.76471,36.01208],[127.75876,36.01499],[127.76305,36.0213],[127.76239,36.0248],[127.75262,36.02469],[127.7479,36.02935],[127.73948,36.02548],[127.7367,36.03086],[127.73107,36.03225],[127.7251,36.02751],[127.71984,36.03044],[127.71827,36.02458],[127.7083,36.02448],[127.70742,36.00611],[127.71414,36.00301],[127.7166,35.99725],[127.71282,35.9901],[127.71712,35.98915],[127.72701,35.98348],[127.73777,35.98513],[127.74597,35.98436],[127.75169,35.97797],[127.74973,35.96547],[127.74321,35.96038],[127.73859,35.95325],[127.7383,35.94734],[127.74179,35.94109],[127.73927,35.9334],[127.74327,35.92478],[127.74748,35.91259],[127.74237,35.90619],[127.74078,35.89963],[127.73129,35.89647],[127.72732,35.89073],[127.71717,35.88493],[127.71797,35.88086],[127.72229,35.87718],[127.73562,35.87616],[127.73988,35.87219],[127.74629,35.85799],[127.74734,35.851],[127.74417,35.84778],[127.74492,35.84392],[127.75074,35.84212],[127.75753,35.83672],[127.7645,35.83866],[127.77215,35.83893],[127.77924,35.84717],[127.78787,35.85163],[127.7993,35.85382],[127.80387,35.85718],[127.80439,35.86194],[127.80138,35.8691],[127.80192,35.8745],[127.79549,35.87926],[127.79337,35.88471],[127.80043,35.89459],[127.79912,35.90109],[127.80409,35.90536],[127.80139,35.90929],[127.80663,35.91677],[127.80645,35.92503],[127.81123,35.92547],[127.81826,35.93607],[127.81874,35.94476],[127.81488,35.95454],[127.80844,35.96504],[127.80812,35.9721],[127.81257,35.97346],[127.82266,35.97372],[127.82467,35.98076],[127.8402,35.98852],[127.84175,35.99123],[127.84802,35.99235],[127.85514,35.99039],[127.868,35.98995],[127.87241,35.99181],[127.87581,35.99672],[127.87882,36.00131],[127.87599,36.00985],[127.87538,36.01643],[127.87693,36.02244],[127.86532,36.02507],[127.86065,36.03128],[127.85622,36.03296],[127.85342,36.03905],[127.84937,36.03966]]]},"properties":{"code":"35530320","name":"설천면"}},{"type":"Feature","geometry":{"type":"Polygon","coordinates":[[[127.59475,35.97286],[127.58689,35.96438],[127.5845,35.9574],[127.59185,35.94891],[127.5888,35.93675],[127.59248,35.92515],[127.59715,35.9231],[127.60481,35.91185],[127.60552,35.9069],[127.60318,35.90097],[127.60221,35.88818],[127.60686,35.88474],[127.61687,35.88412],[127.62682,35.88764],[127.6362,35.88794],[127.64286,35.89221],[127.65115,35.88157],[127.65954,35.87834],[127.66931,35.88304],[127.67399,35.88731],[127.6782,35.88421],[127.68595,35.88791],[127.70277,35.89205],[127.70555,35.88922],[127.71717,35.88493],[127.72732,35.89073],[127.73129,35.89647],[127.74078,35.89963],[127.74237,35.90619],[127.74748,35.91259],[127.74327,35.92478],[127.73927,35.9334],[127.74179,35.94109],[127.7383,35.94734],[127.73859,35.95325],[127.74321,35.96038],[127.74973,35.96547],[127.75169,35.97797],[127.74597,35.98436],[127.73777,35.98513],[127.72701,35.98348],[127.71712,35.98915],[127.71282,35.9901],[127.70402,35.99015],[127.69903,35.99247],[127.68412,35.99124],[127.6776,35.98471],[127.68283,35.97539],[127.68174,35.96799],[127.66737,35.97539],[127.66413,35.96846],[127.6569,35.96352],[127.65166,35.9559],[127.64663,35.95519],[127.6365,35.96094],[127.63429,35.96848],[127.62861,35.97193],[127.61988,35.96854],[127.61598,35.97177],[127.60357,35.97795],[127.60052,35.97458],[127.59475,35.97286]]]},"properties":{"code":"35530330","name":"적상면"}},{"type":"Feature","geometry":{"type":"Polygon","coordinates":[[[127.74492,35.84392],[127.74417,35.84778],[127.74734,35.851],[127.74629,35.85799],[127.73988,35.87219],[127.73562,35.87616],[127.72229,35.87718],[127.71797,35.88086],[127.71717,35.88493],[127.70555,35.88922],[127.70277,35.89205],[127.68595,35.88791],[127.6782,35.88421],[127.67399,35.88731],[127.66931,35.88304],[127.65954,35.87834],[127.65115,35.88157],[127.64286,35.89221],[127.6362,35.88794],[127.62682,35.88764],[127.61687,35.88412],[127.60686,35.88474],[127.60372,35.88077],[127.5976,35.88081],[127.5991,35.87233],[127.60799,35.86516],[127.60911,35.86081],[127.6164,35.85975],[127.6217,35.84901],[127.62838,35.84513],[127.62206,35.84281],[127.6198,35.8397],[127.62268,35.83141],[127.62082,35.82545],[127.62421,35.81961],[127.62985,35.81473],[127.63694,35.81616],[127.64576,35.81168],[127.65479,35.81159],[127.66332,35.81817],[127.66897,35.81415],[127.67124,35.80987],[127.67723,35.81033],[127.68212,35.80567],[127.68688,35.80388],[127.68829,35.79541],[127.69965,35.78822],[127.70652,35.79186],[127.70936,35.79125],[127.71955,35.79741],[127.72432,35.80672],[127.72509,35.81293],[127.7298,35.81308],[127.7326,35.82084],[127.73865,35.82697],[127.73794,35.8347],[127.74492,35.84392]]]},"properties":{"code":"35530340","name":"안성면"}},{"type":"Feature","geometry":{"type":"Polygon","coordinates":[[[127.53165,36.04114],[127.5316,36.03486],[127.53792,36.03297],[127.5393,36.02601],[127.53629,36.02139],[127.54018,36.01173],[127.53242,36.0072],[127.53633,36.0007],[127.53367,35.99211],[127.52847,35.98995],[127.52473,35.98557],[127.52831,35.97729],[127.53655,35.97811],[127.53471,35.97257],[127.54099,35.9637],[127.54518,35.9634],[127.546,35.95819],[127.5498,35.95315],[127.55331,35.94356],[127.5525,35.93744],[127.54835,35.93278],[127.5549,35.92286],[127.56332,35.92285],[127.57056,35.9124],[127.57563,35.90954],[127.58286,35.90294],[127.58385,35.89622],[127.57798,35.88728],[127.57488,35.87938],[127.58264,35.87569],[127.58902,35.87756],[127.59259,35.8816],[127.5976,35.88081],[127.60372,35.88077],[127.60686,35.88474],[127.60221,35.88818],[127.60318,35.90097],[127.60552,35.9069],[127.60481,35.91185],[127.59715,35.9231],[127.59248,35.92515],[127.5888,35.93675],[127.59185,35.94891],[127.5845,35.9574],[127.58689,35.96438],[127.59475,35.97286],[127.59575,35.97711],[127.59198,35.9837],[127.60006,35.99105],[127.60149,36.0026],[127.60495,36.0116],[127.60082,36.01247],[127.59362,36.02007],[127.59151,36.02449],[127.58314,36.0267],[127.57557,36.02266],[127.56819,36.02975],[127.55733,36.03274],[127.55238,36.03281],[127.54714,36.03807],[127.53165,36.04114]]]},"properties":{"code":"35530350","name":"부남면"}}]}