{"type":"FeatureCollection","features":[{"type":"Feature","geometry":{"type":"Polygon","coordinates":[[[127.44212,35.61953],[127.44192,35.61045],[127.44582,35.60021],[127.4427,35.58994],[127.44654,35.58757],[127.45031,35.57825],[127.45546,35.57435],[127.45035,35.56542],[127.45695,35.56198],[127.46686,35.5626],[127.47642,35.55871],[127.48304,35.55943],[127.4818,35.56672],[127.48719,35.57238],[127.48394,35.57583],[127.48558,35.5831],[127.48857,35.58576],[127.50215,35.58088],[127.51161,35.58521],[127.51387,35.59525],[127.51874,35.6012],[127.52294,35.60896],[127.53502,35.60905],[127.53642,35.59986],[127.5427,35.59218],[127.54796,35.60058],[127.55753,35.60259],[127.56122,35.60468],[127.56773,35.60386],[127.57659,35.60493],[127.57984,35.60735],[127.58098,35.6147],[127.5902,35.61924],[127.59507,35.62903],[127.58858,35.63232],[127.58249,35.63788],[127.57909,35.64734],[127.57582,35.65047],[127.56873,35.6534],[127.56356,35.66649],[127.56118,35.66811],[127.5498,35.669],[127.54475,35.67727],[127.5437,35.6821],[127.5383,35.68122],[127.53668,35.67282],[127.53299,35.67048],[127.5217,35.67415],[127.51876,35.67759],[127.51405,35.6733],[127.5086,35.67531],[127.50312,35.67381],[127.50018,35.66985],[127.4945,35.66714],[127.48017,35.66649],[127.47697,35.661],[127.47462,35.65454],[127.47409,35.64766],[127.47008,35.64419],[127.46663,35.63791],[127.47,35.62667],[127.46856,35.6215],[127.45374,35.61883],[127.44212,35.61953]]]},"properties":{"code":"35540110","name":"장수읍"}},{"type":"Feature","geometry":{"type":"Polygon","coordinates":[[[127.38455,35.54652],[127.39203,35.54641],[127.40245,35.54844],[127.40772,35.55605],[127.41306,35.56019],[127.42033,35.55274],[127.42614,35.55019],[127.43223,35.5504],[127.43941,35.55282],[127.44419,35.56159],[127.45035,35.56542],[127.45546,35.57435],[127.45031,35.57825],[127.44654,35.58757],[127.4427,35.58994],[127.44582,35.60021],[127.44192,35.61045],[127.44212,35.61953],[127.43599,35.62186],[127.42569,35.61465],[127.41107,35.61486],[127.39996,35.61279],[127.38681,35.61493],[127.3815,35.61329],[127.37436,35.60758],[127.37572,35.59918],[127.37219,35.59277],[127.37208,35.58669],[127.37665,35.58473],[127.37911,35.57745],[127.37195,35.57167],[127.36471,35.56859],[127.36157,35.56409],[127.36347,35.55823],[127.37766,35.54828],[127.38455,35.54652]]]},"properties":{"code":"35540310","name":"산서면"}},{"type":"Feature","geometry":{"type":"Polygon","coordinates":[[[127.62008,35.64272],[127.61345,35.64375],[127.6045,35.63779],[127.59984,35.63115],[127.59507,35.62903],[127.5902,35.61924],[127.58098,35.6147],[127.57984,35.60735],[127.57659,35.60493],[127.56773,35.60386],[127.56122,35.60468],[127.55753,35.60259],[127.54796,35.60058],[127.5427,35.59218],[127.53642,35.59986],[127.53502,35.60905],[127.52294,35.60896],[127.51874,35.6012],[127.51387,35.59525],[127.51161,35.58521],[127.50215,35.58088],[127.48857,35.58576],[127.48558,35.5831],[127.48394,35.57583],[127.48719,35.57238],[127.4818,35.56672],[127.48304,35.55943],[127.47642,35.55871],[127.46686,35.5626],[127.45695,35.56198],[127.45035,35.56542],[127.44419,35.56159],[127.43941,35.55282],[127.43981,35.54832],[127.44676,35.54529],[127.4523,35.54075],[127.45687,35.54629],[127.46692,35.54626],[127.46946,35.54186],[127.47647,35.53845],[127.48229,35.53855],[127.49254,35.53377],[127.49123,35.52695],[127.49566,35.52296],[127.50182,35.52135],[127.50138,35.5176],[127.513,35.50733],[127.51594,35.4988],[127.52719,35.49529],[127.52698,35.48635],[127.51401,35.4792],[127.51914,35.47846],[127.52483,35.47323],[127.53587,35.47035],[127.54165,35.47155],[127.5465,35.46802],[127.55374,35.47126],[127.55838,35.47133],[127.56216,35.47482],[127.55952,35.48107],[127.5636,35.48847],[127.57431,35.49469],[127.57923,35.5038],[127.58069,35.51141],[127.5786,35.51612],[127.57051,35.51962],[127.56839,35.525],[127.56858,35.53257],[127.57105,35.53448],[127.57307,35.54565],[127.57863,35.54713],[127.58541,35.55459],[127.58663,35.56278],[127.59459,35.57336],[127.60428,35.57864],[127.61059,35.58486],[127.60757,35.59477],[127.61268,35.5997],[127.6124,35.60695],[127.61731,35.60976],[127.62113,35.61501],[127.63547,35.61847],[127.62812,35.62576],[127.62422,35.63219],[127.62449,35.63808],[127.62008,35.64272]]]},"properties":{"code":"35540320","name":"번암면"}},{"type":"Feature","geometry":{"type":"Polygon","coordinates":[[[127.66906,35.77147],[127.66201,35.77663],[127.65543,35.77188],[127.64708,35.77072],[127.64149,35.76502],[127.6328,35.76164],[127.62695,35.75228],[127.62047,35.74905],[127.61677,35.75189],[127.60421,35.75599],[127.59611,35.7633],[127.5851,35.76644],[127.57988,35.76493],[127.58037,35.7714],[127.5749,35.77788],[127.56962,35.77615],[127.55988,35.76856],[127.55838,35.7622],[127.55266,35.75613],[127.55349,35.74606],[127.56163,35.75017],[127.56991,35.74208],[127.57901,35.72887],[127.58732,35.72759],[127.5947,35.7207],[127.59848,35.71123],[127.60486,35.70497],[127.60564,35.70012],[127.60926,35.69677],[127.60655,35.6898],[127.61307,35.68197],[127.61102,35.67417],[127.61216,35.67037],[127.61048,35.66387],[127.61277,35.65967],[127.6122,35.64936],[127.61345,35.64375],[127.62008,35.64272],[127.62238,35.65084],[127.6296,35.65663],[127.62915,35.66427],[127.63893,35.66989],[127.63928,35.67893],[127.64209,35.69277],[127.64955,35.70162],[127.64927,35.70408],[127.65764,35.70657],[127.66077,35.70975],[127.65971,35.71583],[127.66344,35.72476],[127.6603,35.7384],[127.6636,35.74502],[127.66182,35.74972],[127.66226,35.76099],[127.66414,35.76701],[127.66906,35.77147]]]},"properties":{"code":"35540330","name":"장계면"}},{"type":"Feature","geometry":{"type":"Polygon","coordinates":[[[127.47852,35.72129],[127.47565,35.71491],[127.47781,35.70327],[127.47324,35.69744],[127.46489,35.69337],[127.46657,35.68937],[127.46421,35.67869],[127.45994,35.67327],[127.46451,35.66819],[127.47697,35.661],[127.48017,35.66649],[127.4945,35.66714],[127.50018,35.66985],[127.50312,35.67381],[127.5086,35.67531],[127.51405,35.6733],[127.51876,35.67759],[127.5217,35.67415],[127.53299,35.67048],[127.53668,35.67282],[127.5383,35.68122],[127.5437,35.6821],[127.5444,35.68603],[127.5503,35.6972],[127.54555,35.70702],[127.54897,35.71424],[127.55605,35.71697],[127.55445,35.72659],[127.55668,35.73532],[127.55876,35.73773],[127.55349,35.74606],[127.55266,35.75613],[127.55838,35.7622],[127.55988,35.76856],[127.56962,35.77615],[127.5749,35.77788],[127.58036,35.78964],[127.57679,35.79509],[127.5722,35.79394],[127.56868,35.79711],[127.56022,35.79973],[127.55651,35.80463],[127.54362,35.80641],[127.53578,35.81331],[127.52337,35.81261],[127.52022,35.80455],[127.51341,35.7991],[127.51124,35.79077],[127.51376,35.78432],[127.51143,35.77663],[127.51321,35.77033],[127.51952,35.76133],[127.52255,35.75386],[127.51907,35.75031],[127.50554,35.74325],[127.49513,35.73688],[127.489,35.73097],[127.4833,35.72221],[127.47852,35.72129]]]},"properties":{"code":"35540340","name":"천천면"}},{"type":"Feature","geometry":{"type":"Polygon","coordinates":[[[127.59507,35.62903],[127.59984,35.63115],[127.6045,35.63779],[127.61345,35.64375],[127.6122,35.64936],[127.61277,35.65967],[127.61048,35.66387],[127.61216,35.67037],[127.61102,35.67417],[127.61307,35.68197],[127.60655,35.6898],[127.60926,35.69677],[127.60564,35.70012],[127.60486,35.70497],[127.59848,35.71123],[127.5947,35.7207],[127.58732,35.72759],[127.57901,35.72887],[127.56991,35.74208],[127.56163,35.75017],[127.55349,35.74606],[127.55876,35.73773],[127.55668,35.73532],[127.55445,35.72659],[127.55605,35.71697],[127.54897,35.71424],[127.54555,35.70702],[127.5503,35.6972],[127.5444,35.68603],[127.5437,35.6821],[127.54475,35.67727],[127.5498,35.669],[127.56118,35.66811],[127.56356,35.66649],[127.56873,35.6534],[127.57582,35.65047],[127.57909,35.64734],[127.58249,35.63788],[127.58858,35.63232],[127.59507,35.62903]]]},"properties":{"code":"35540350","name":"계남면"}},{"type":"Feature","geometry":{"type":"Polygon","coordinates":[[[127.67903,35.76927],[127.68499,35.77785],[127.69965,35.78822],[127.68829,35.79541],[127.68688,35.80388],[127.68212,35.80567],[127.67723,35.81033],[127.67124,35.80987],[127.66897,35.81415],[127.66332,35.81817],[127.65479,35.81159],[127.64576,35.81168],[127.63694,35.81616],[127.62985,35.81473],[127.62421,35.81961],[127.62082,35.82545],[127.62268,35.83141],[127.6198,35.8397],[127.61007,35.83362],[127.60711,35.8302],[127.60229,35.8166],[127.60263,35.81185],[127.59278,35.80179],[127.57934,35.7938],[127.57679,35.79509],[127.58036,35.78964],[127.5749,35.77788],[127.58037,35.7714],[127.57988,35.76493],[127.5851,35.76644],[127.59611,35.7633],[127.60421,35.75599],[127.61677,35.75189],[127.62047,35.74905],[127.62695,35.75228],[127.6328,35.76164],[127.64149,35.76502],[127.64708,35.77072],[127.65543,35.77188],[127.66201,35.77663],[127.66906,35.77147],[127.67903,35.76927]]]},"properties":{"code":"35540360","name":"계북면"}}]}