{"type":"FeatureCollection","features":[{"type":"Feature","geometry":{"type":"Polygon","coordinates":[[[127.32023,35.65092],[127.31519,35.65429],[127.30322,35.6463],[127.29653,35.65008],[127.28779,35.64595],[127.28518,35.63843],[127.27958,35.63837],[127.27818,35.64455],[127.27438,35.64192],[127.2716,35.63589],[127.26748,35.63302],[127.2634,35.63448],[127.25386,35.63242],[127.25049,35.63443],[127.23987,35.63012],[127.22456,35.61983],[127.22436,35.6174],[127.22922,35.61062],[127.22383,35.60133],[127.22379,35.59784],[127.2287,35.59118],[127.23733,35.58415],[127.23693,35.57656],[127.24021,35.57053],[127.24398,35.56835],[127.24026,35.55986],[127.24076,35.55608],[127.23358,35.54623],[127.22954,35.54526],[127.22665,35.53664],[127.24432,35.53576],[127.25223,35.53172],[127.25495,35.52585],[127.25926,35.5247],[127.26306,35.53136],[127.27017,35.53485],[127.27834,35.55016],[127.27723,35.55548],[127.28796,35.56836],[127.28951,35.57547],[127.29333,35.58156],[127.29919,35.58254],[127.30586,35.59175],[127.31194,35.60884],[127.30492,35.61491],[127.30555,35.62686],[127.29399,35.6308],[127.29706,35.6333],[127.30838,35.635],[127.31891,35.64528],[127.32023,35.65092]]]},"properties":{"code":"35550110","name":"임실읍"}},{"type":"Feature","geometry":{"type":"Polygon","coordinates":[[[127.22383,35.60133],[127.21867,35.60016],[127.2163,35.59662],[127.2117,35.59668],[127.19874,35.59122],[127.19408,35.59598],[127.18886,35.59471],[127.18426,35.58782],[127.17835,35.58753],[127.16666,35.59164],[127.15721,35.58903],[127.15566,35.58464],[127.1615,35.58009],[127.16789,35.56769],[127.1719,35.57005],[127.19091,35.57425],[127.19954,35.56602],[127.19696,35.56008],[127.1977,35.55023],[127.18439,35.54546],[127.17974,35.54254],[127.18986,35.53622],[127.20352,35.53443],[127.20842,35.5305],[127.21304,35.5195],[127.21745,35.51922],[127.22442,35.52194],[127.22665,35.53664],[127.22954,35.54526],[127.23358,35.54623],[127.24076,35.55608],[127.24026,35.55986],[127.24398,35.56835],[127.24021,35.57053],[127.23693,35.57656],[127.23733,35.58415],[127.2287,35.59118],[127.22379,35.59784],[127.22383,35.60133]]]},"properties":{"code":"35550310","name":"청웅면"}},{"type":"Feature","geometry":{"type":"Polygon","coordinates":[[[127.09271,35.56704],[127.09804,35.56313],[127.10854,35.56253],[127.11211,35.55891],[127.11688,35.56042],[127.11731,35.56469],[127.12379,35.56594],[127.12932,35.565],[127.1315,35.5716],[127.13094,35.57794],[127.13365,35.58049],[127.14269,35.5839],[127.15063,35.58269],[127.15566,35.58464],[127.15721,35.58903],[127.16666,35.59164],[127.17835,35.58753],[127.18426,35.58782],[127.18886,35.59471],[127.19408,35.59598],[127.19874,35.59122],[127.2117,35.59668],[127.2163,35.59662],[127.21867,35.60016],[127.22383,35.60133],[127.22922,35.61062],[127.22436,35.6174],[127.22456,35.61983],[127.2116,35.61986],[127.20614,35.61733],[127.20258,35.61908],[127.2012,35.6282],[127.19398,35.62855],[127.19225,35.63591],[127.18614,35.64073],[127.19163,35.65243],[127.18949,35.65709],[127.17738,35.66427],[127.16541,35.66772],[127.1494,35.66912],[127.15303,35.65845],[127.14967,35.64945],[127.14573,35.64566],[127.14191,35.64754],[127.13553,35.6468],[127.13247,35.64424],[127.12941,35.63733],[127.12007,35.63348],[127.11244,35.62463],[127.10628,35.61954],[127.0936,35.62144],[127.09119,35.61572],[127.09221,35.61222],[127.10022,35.60398],[127.10423,35.59484],[127.09672,35.58725],[127.08855,35.5874],[127.08293,35.58441],[127.08359,35.57912],[127.09271,35.56704]]]},"properties":{"code":"35550320","name":"운암면"}},{"type":"Feature","geometry":{"type":"Polygon","coordinates":[[[127.27818,35.64455],[127.27409,35.64995],[127.27602,35.65891],[127.27382,35.66265],[127.267,35.66763],[127.2587,35.66809],[127.25444,35.67163],[127.25048,35.67161],[127.24348,35.67751],[127.23642,35.6725],[127.22826,35.67649],[127.22254,35.67469],[127.22117,35.67033],[127.21312,35.66934],[127.2172,35.66119],[127.21096,35.66024],[127.20651,35.65356],[127.20036,35.65537],[127.19163,35.65243],[127.18614,35.64073],[127.19225,35.63591],[127.19398,35.62855],[127.2012,35.6282],[127.20258,35.61908],[127.20614,35.61733],[127.2116,35.61986],[127.22456,35.61983],[127.23987,35.63012],[127.25049,35.63443],[127.25386,35.63242],[127.2634,35.63448],[127.26748,35.63302],[127.2716,35.63589],[127.27438,35.64192],[127.27818,35.64455]]]},"properties":{"code":"35550330","name":"신평면"}},{"type":"Feature","geometry":{"type":"Polygon","coordinates":[[[127.37713,35.66424],[127.36762,35.66269],[127.3647,35.66039],[127.35963,35.65826],[127.35073,35.66232],[127.34281,35.65899],[127.33795,35.64958],[127.33141,35.64764],[127.3235,35.65215],[127.32023,35.65092],[127.31891,35.64528],[127.30838,35.635],[127.29706,35.6333],[127.29399,35.6308],[127.30555,35.62686],[127.30492,35.61491],[127.31194,35.60884],[127.30586,35.59175],[127.30807,35.58997],[127.31951,35.58806],[127.32699,35.58343],[127.33547,35.58374],[127.33864,35.59183],[127.34493,35.60193],[127.34903,35.60498],[127.36502,35.60421],[127.37436,35.60758],[127.3815,35.61329],[127.38681,35.61493],[127.39996,35.61279],[127.41107,35.61486],[127.42569,35.61465],[127.43599,35.62186],[127.43152,35.62845],[127.43222,35.63642],[127.42858,35.64095],[127.42072,35.64066],[127.41445,35.64422],[127.40364,35.648],[127.39908,35.65172],[127.39268,35.65183],[127.38759,35.65557],[127.37874,35.65396],[127.37713,35.66424]]]},"properties":{"code":"35550340","name":"성수면"}},{"type":"Feature","geometry":{"type":"Polygon","coordinates":[[[127.35534,35.50463],[127.3547,35.51231],[127.34317,35.52032],[127.34231,35.52574],[127.34662,35.52959],[127.3498,35.53723],[127.34899,35.54041],[127.3407,35.54388],[127.33412,35.55052],[127.32877,35.55266],[127.33297,35.5616],[127.33279,35.56802],[127.33709,35.57644],[127.33547,35.58374],[127.32699,35.58343],[127.31951,35.58806],[127.30807,35.58997],[127.30586,35.59175],[127.29919,35.58254],[127.29333,35.58156],[127.28951,35.57547],[127.28796,35.56836],[127.27723,35.55548],[127.27834,35.55016],[127.28726,35.545],[127.29117,35.53956],[127.30405,35.54207],[127.31898,35.52855],[127.31845,35.52067],[127.31587,35.51748],[127.31012,35.50319],[127.30187,35.49648],[127.29915,35.49127],[127.30722,35.4864],[127.31041,35.49389],[127.326,35.49583],[127.33221,35.49237],[127.34138,35.4964],[127.35024,35.49669],[127.35625,35.50026],[127.35534,35.50463]]]},"properties":{"code":"35550350","name":"오수면"}},{"type":"Feature","geometry":{"type":"Polygon","coordinates":[[[127.18631,35.73582],[127.17707,35.73771],[127.16346,35.7278],[127.15978,35.72397],[127.15248,35.725],[127.13866,35.71801],[127.13961,35.71253],[127.13732,35.70606],[127.13907,35.69969],[127.13024,35.69174],[127.12509,35.68965],[127.12476,35.67946],[127.12635,35.67368],[127.13097,35.66955],[127.1309,35.66574],[127.12698,35.65722],[127.13076,35.6542],[127.13553,35.6468],[127.14191,35.64754],[127.14573,35.64566],[127.14967,35.64945],[127.15303,35.65845],[127.1494,35.66912],[127.16541,35.66772],[127.17738,35.66427],[127.18949,35.65709],[127.19163,35.65243],[127.20036,35.65537],[127.20651,35.65356],[127.21096,35.66024],[127.2172,35.66119],[127.21312,35.66934],[127.22117,35.67033],[127.22254,35.67469],[127.22826,35.67649],[127.23642,35.6725],[127.24348,35.67751],[127.24218,35.68707],[127.23985,35.69063],[127.24122,35.69787],[127.22396,35.71172],[127.20953,35.7093],[127.20546,35.71575],[127.20669,35.72046],[127.20452,35.72441],[127.19427,35.72976],[127.18795,35.73088],[127.18631,35.73582]]]},"properties":{"code":"35550360","name":"신덕면"}},{"type":"Feature","geometry":{"type":"Polygon","coordinates":[[[127.30722,35.4864],[127.29915,35.49127],[127.30187,35.49648],[127.31012,35.50319],[127.31587,35.51748],[127.31845,35.52067],[127.31898,35.52855],[127.30405,35.54207],[127.29117,35.53956],[127.28726,35.545],[127.27834,35.55016],[127.27017,35.53485],[127.26306,35.53136],[127.25926,35.5247],[127.25495,35.52585],[127.25223,35.53172],[127.24432,35.53576],[127.22665,35.53664],[127.22442,35.52194],[127.21745,35.51922],[127.21304,35.5195],[127.20879,35.51224],[127.20878,35.50664],[127.21497,35.50067],[127.21412,35.49356],[127.21659,35.48991],[127.22001,35.48525],[127.22805,35.47881],[127.23074,35.47414],[127.23718,35.47734],[127.24444,35.48445],[127.25421,35.48022],[127.25879,35.48],[127.26378,35.47488],[127.27453,35.47343],[127.28419,35.47913],[127.2952,35.47509],[127.29795,35.47772],[127.30866,35.47766],[127.30722,35.4864]]]},"properties":{"code":"35550370","name":"삼계면"}},{"type":"Feature","geometry":{"type":"Polygon","coordinates":[[[127.24218,35.68707],[127.24348,35.67751],[127.25048,35.67161],[127.25444,35.67163],[127.2587,35.66809],[127.267,35.66763],[127.27382,35.66265],[127.27602,35.65891],[127.27409,35.64995],[127.27818,35.64455],[127.27958,35.63837],[127.28518,35.63843],[127.28779,35.64595],[127.29653,35.65008],[127.30322,35.6463],[127.31519,35.65429],[127.32023,35.65092],[127.3235,35.65215],[127.33141,35.64764],[127.33795,35.64958],[127.34281,35.65899],[127.35073,35.66232],[127.35963,35.65826],[127.3647,35.66039],[127.36195,35.66691],[127.35714,35.66913],[127.34642,35.66542],[127.33858,35.66552],[127.32742,35.66082],[127.32336,35.66347],[127.32202,35.67018],[127.31571,35.67877],[127.30633,35.68484],[127.29627,35.68243],[127.29079,35.68617],[127.29222,35.6918],[127.29074,35.69587],[127.29276,35.70102],[127.28971,35.708],[127.2898,35.71232],[127.29359,35.71732],[127.28691,35.72988],[127.28577,35.73484],[127.28097,35.73766],[127.28084,35.74212],[127.27628,35.74914],[127.2761,35.75301],[127.26876,35.75831],[127.26557,35.76246],[127.26613,35.76966],[127.27299,35.77561],[127.2708,35.77796],[127.26476,35.77762],[127.25895,35.76873],[127.25326,35.76649],[127.24445,35.75626],[127.24678,35.74838],[127.25362,35.74191],[127.25143,35.73526],[127.25627,35.73282],[127.25519,35.72507],[127.25162,35.71891],[127.25316,35.71095],[127.25642,35.70585],[127.25629,35.69942],[127.25949,35.69308],[127.2514,35.69157],[127.24218,35.68707]]]},"properties":{"code":"35550380","name":"관촌면"}},{"type":"Feature","geometry":{"type":"Polygon","coordinates":[[[127.08791,35.50805],[127.09223,35.50583],[127.11086,35.509],[127.11663,35.50363],[127.12772,35.50325],[127.13166,35.50402],[127.13333,35.51129],[127.13151,35.5208],[127.13407,35.52203],[127.15617,35.52187],[127.1702,35.52626],[127.17784,35.52411],[127.18402,35.52637],[127.18388,35.52912],[127.18986,35.53622],[127.17974,35.54254],[127.18439,35.54546],[127.1977,35.55023],[127.19696,35.56008],[127.19954,35.56602],[127.19091,35.57425],[127.1719,35.57005],[127.16789,35.56769],[127.1615,35.58009],[127.15566,35.58464],[127.15063,35.58269],[127.14269,35.5839],[127.13365,35.58049],[127.13094,35.57794],[127.1315,35.5716],[127.12932,35.565],[127.12379,35.56594],[127.11731,35.56469],[127.11688,35.56042],[127.11211,35.55891],[127.10854,35.56253],[127.09804,35.56313],[127.09271,35.56704],[127.08564,35.55477],[127.08744,35.54913],[127.10775,35.54264],[127.11547,35.53865],[127.11659,35.5316],[127.10643,35.53455],[127.09903,35.52971],[127.09293,35.52352],[127.08649,35.51958],[127.09006,35.51553],[127.08791,35.50805]]]},"properties":{"code":"35550390","name":"강진면"}},{"type":"Feature","geometry":{"type":"Polygon","coordinates":[[[127.18986,35.53622],[127.18388,35.52912],[127.18402,35.52637],[127.17784,35.52411],[127.1702,35.52626],[127.15617,35.52187],[127.13407,35.52203],[127.13151,35.5208],[127.13333,35.51129],[127.13166,35.50402],[127.12772,35.50325],[127.12997,35.49713],[127.13423,35.49266],[127.13637,35.48272],[127.1421,35.47641],[127.14014,35.47032],[127.14319,35.46778],[127.14433,35.46178],[127.15546,35.46086],[127.16605,35.46224],[127.1733,35.45888],[127.17739,35.46422],[127.17744,35.47081],[127.17894,35.47633],[127.18966,35.48242],[127.19458,35.48638],[127.20413,35.48999],[127.21659,35.48991],[127.21412,35.49356],[127.21497,35.50067],[127.20878,35.50664],[127.20879,35.51224],[127.21304,35.5195],[127.20842,35.5305],[127.20352,35.53443],[127.18986,35.53622]]]},"properties":{"code":"35550400","name":"덕치면"}},{"type":"Feature","geometry":{"type":"Polygon","coordinates":[[[127.36347,35.55823],[127.36157,35.56409],[127.36471,35.56859],[127.37195,35.57167],[127.37911,35.57745],[127.37665,35.58473],[127.37208,35.58669],[127.37219,35.59277],[127.37572,35.59918],[127.37436,35.60758],[127.36502,35.60421],[127.34903,35.60498],[127.34493,35.60193],[127.33864,35.59183],[127.33547,35.58374],[127.33709,35.57644],[127.33279,35.56802],[127.33297,35.5616],[127.32877,35.55266],[127.33412,35.55052],[127.33976,35.55408],[127.3441,35.55091],[127.35215,35.55238],[127.35841,35.55889],[127.36347,35.55823]]]},"properties":{"code":"35550410","name":"지사면"}}]}