{"type":"FeatureCollection","features":[{"type":"Feature","geometry":{"type":"Polygon","coordinates":[[[127.1615,35.37948],[127.15885,35.37881],[127.15252,35.38466],[127.15469,35.38786],[127.1482,35.39565],[127.14255,35.39913],[127.13996,35.4057],[127.13627,35.40364],[127.13469,35.39429],[127.12742,35.39071],[127.12049,35.39465],[127.11727,35.39316],[127.11773,35.38647],[127.11425,35.37598],[127.1016,35.36855],[127.09976,35.36599],[127.10443,35.35548],[127.10662,35.35223],[127.11216,35.35151],[127.11349,35.35474],[127.12024,35.35919],[127.12917,35.35202],[127.13414,35.34206],[127.13995,35.33867],[127.15612,35.34887],[127.15273,35.35557],[127.1568,35.35775],[127.15274,35.36011],[127.14915,35.36612],[127.15332,35.36849],[127.1615,35.37948]]]},"properties":{"code":"35560110","name":"순창읍"}},{"type":"Feature","geometry":{"type":"Polygon","coordinates":[[[127.14433,35.46178],[127.13531,35.45013],[127.13562,35.43953],[127.12937,35.43109],[127.12926,35.4227],[127.1234,35.42205],[127.12179,35.4193],[127.12367,35.41436],[127.13627,35.40364],[127.13996,35.4057],[127.14255,35.39913],[127.1482,35.39565],[127.15469,35.38786],[127.15252,35.38466],[127.15885,35.37881],[127.1615,35.37948],[127.1718,35.38234],[127.17987,35.3878],[127.18689,35.38732],[127.19019,35.39059],[127.18317,35.40284],[127.18227,35.40907],[127.17692,35.41337],[127.17537,35.42128],[127.17818,35.42248],[127.1851,35.4183],[127.19199,35.43099],[127.18985,35.43823],[127.18404,35.438],[127.17279,35.45649],[127.1733,35.45888],[127.16605,35.46224],[127.15546,35.46086],[127.14433,35.46178]]]},"properties":{"code":"35560310","name":"인계면"}},{"type":"Feature","geometry":{"type":"Polygon","coordinates":[[[127.27569,35.42115],[127.27864,35.42487],[127.28532,35.42398],[127.29376,35.42983],[127.29669,35.43506],[127.29789,35.44492],[127.30637,35.45277],[127.30961,35.45998],[127.31368,35.46359],[127.30866,35.47766],[127.29795,35.47772],[127.2952,35.47509],[127.28419,35.47913],[127.27453,35.47343],[127.26378,35.47488],[127.25879,35.48],[127.25421,35.48022],[127.24444,35.48445],[127.23718,35.47734],[127.23074,35.47414],[127.22805,35.47881],[127.22001,35.48525],[127.21659,35.48991],[127.20413,35.48999],[127.19458,35.48638],[127.18966,35.48242],[127.17894,35.47633],[127.17744,35.47081],[127.19337,35.46845],[127.20295,35.45985],[127.20395,35.45238],[127.20087,35.44594],[127.20315,35.44188],[127.20512,35.43199],[127.2092,35.43433],[127.21866,35.43401],[127.22921,35.43938],[127.23073,35.431],[127.23393,35.43085],[127.23909,35.42572],[127.25457,35.41888],[127.2597,35.42677],[127.27569,35.42115]]]},"properties":{"code":"35560320","name":"동계면"}},{"type":"Feature","geometry":{"type":"Polygon","coordinates":[[[127.25457,35.41888],[127.23909,35.42572],[127.23393,35.43085],[127.23073,35.431],[127.22921,35.43938],[127.21866,35.43401],[127.2092,35.43433],[127.20512,35.43199],[127.20315,35.44188],[127.20087,35.44594],[127.20395,35.45238],[127.20295,35.45985],[127.19337,35.46845],[127.17744,35.47081],[127.17739,35.46422],[127.1733,35.45888],[127.17279,35.45649],[127.18404,35.438],[127.18985,35.43823],[127.19199,35.43099],[127.1851,35.4183],[127.17818,35.42248],[127.17537,35.42128],[127.17692,35.41337],[127.18227,35.40907],[127.18317,35.40284],[127.19019,35.39059],[127.19687,35.39267],[127.20999,35.39293],[127.21437,35.39655],[127.22261,35.39312],[127.22544,35.39833],[127.23946,35.39928],[127.24543,35.39856],[127.25055,35.40862],[127.25156,35.41631],[127.25457,35.41888]]]},"properties":{"code":"35560330","name":"적성면"}},{"type":"Feature","geometry":{"type":"Polygon","coordinates":[[[127.22261,35.39312],[127.21437,35.39655],[127.20999,35.39293],[127.19687,35.39267],[127.19019,35.39059],[127.18689,35.38732],[127.17987,35.3878],[127.1718,35.38234],[127.1615,35.37948],[127.15332,35.36849],[127.14915,35.36612],[127.15274,35.36011],[127.1568,35.35775],[127.16231,35.35513],[127.16808,35.35565],[127.1733,35.3607],[127.17912,35.36263],[127.18368,35.36176],[127.18935,35.35085],[127.19733,35.36437],[127.20505,35.36062],[127.21035,35.36706],[127.21527,35.37052],[127.2134,35.37615],[127.22123,35.38831],[127.22261,35.39312]]]},"properties":{"code":"35560340","name":"유등면"}},{"type":"Feature","geometry":{"type":"Polygon","coordinates":[[[127.1861,35.33619],[127.19493,35.33831],[127.19285,35.34179],[127.18719,35.34466],[127.18935,35.35085],[127.18368,35.36176],[127.17912,35.36263],[127.1733,35.3607],[127.16808,35.35565],[127.16231,35.35513],[127.1568,35.35775],[127.15273,35.35557],[127.15612,35.34887],[127.13995,35.33867],[127.13414,35.34206],[127.12917,35.35202],[127.12024,35.35919],[127.11349,35.35474],[127.11216,35.35151],[127.10662,35.35223],[127.10582,35.34722],[127.11137,35.34382],[127.11799,35.32942],[127.11012,35.32491],[127.10378,35.31602],[127.10533,35.30487],[127.1023,35.30113],[127.1055,35.2992],[127.11568,35.29955],[127.12622,35.30365],[127.12986,35.30925],[127.14558,35.30925],[127.14657,35.31541],[127.15139,35.31798],[127.15948,35.32663],[127.1679,35.3317],[127.1729,35.33033],[127.17963,35.33239],[127.18163,35.33802],[127.1861,35.33619]]]},"properties":{"code":"35560350","name":"풍산면"}},{"type":"Feature","geometry":{"type":"Polygon","coordinates":[[[127.09667,35.30174],[127.1023,35.30113],[127.10533,35.30487],[127.10378,35.31602],[127.11012,35.32491],[127.11799,35.32942],[127.11137,35.34382],[127.10582,35.34722],[127.10662,35.35223],[127.10443,35.35548],[127.10098,35.35612],[127.09179,35.36537],[127.08395,35.36582],[127.07613,35.36459],[127.07028,35.36612],[127.06547,35.35778],[127.06968,35.35158],[127.06727,35.3455],[127.07029,35.33973],[127.06495,35.33649],[127.05212,35.33991],[127.04941,35.32729],[127.04291,35.32339],[127.04671,35.31819],[127.06132,35.31722],[127.06558,35.31056],[127.07222,35.3126],[127.08926,35.30678],[127.09667,35.30174]]]},"properties":{"code":"35560360","name":"금과면"}},{"type":"Feature","geometry":{"type":"Polygon","coordinates":[[[127.07028,35.36612],[127.07613,35.36459],[127.08395,35.36582],[127.09179,35.36537],[127.10098,35.35612],[127.10443,35.35548],[127.09976,35.36599],[127.1016,35.36855],[127.11425,35.37598],[127.11773,35.38647],[127.11727,35.39316],[127.12049,35.39465],[127.12742,35.39071],[127.13469,35.39429],[127.13627,35.40364],[127.12367,35.41436],[127.12179,35.4193],[127.10685,35.41922],[127.10535,35.42414],[127.10013,35.42511],[127.09533,35.41995],[127.0893,35.4209],[127.07842,35.4197],[127.07467,35.42184],[127.06787,35.4186],[127.06563,35.41457],[127.04786,35.4056],[127.04222,35.39891],[127.03173,35.40117],[127.02727,35.39994],[127.02728,35.39493],[127.03021,35.39046],[127.04034,35.38259],[127.03913,35.37996],[127.04643,35.37694],[127.05165,35.37924],[127.05664,35.38437],[127.06488,35.37573],[127.06389,35.36973],[127.07028,35.36612]]]},"properties":{"code":"35560370","name":"팔덕면"}},{"type":"Feature","geometry":{"type":"Polygon","coordinates":[[[127.0024,35.46312],[126.99517,35.46831],[126.98471,35.47257],[126.97844,35.46523],[126.97882,35.46203],[126.9707,35.4625],[126.95872,35.46745],[126.95891,35.4721],[126.95523,35.47966],[126.94713,35.48363],[126.94645,35.48877],[126.93547,35.49596],[126.93792,35.48935],[126.93564,35.48158],[126.92756,35.47913],[126.92263,35.4826],[126.91342,35.4765],[126.90243,35.47797],[126.89409,35.48067],[126.88869,35.47835],[126.88171,35.48332],[126.88103,35.48571],[126.87341,35.47965],[126.86191,35.48031],[126.86063,35.47369],[126.86435,35.46483],[126.86869,35.46139],[126.87626,35.45624],[126.8805,35.45547],[126.884,35.45099],[126.89484,35.44848],[126.89972,35.44263],[126.90451,35.44043],[126.89758,35.43587],[126.89793,35.43268],[126.90372,35.42995],[126.90196,35.42277],[126.90737,35.42028],[126.90863,35.4166],[126.91628,35.41549],[126.92067,35.41089],[126.91696,35.40519],[126.9196,35.40197],[126.92972,35.40582],[126.93007,35.40028],[126.93276,35.39515],[126.94134,35.39439],[126.95441,35.39665],[126.96148,35.39491],[126.96859,35.39638],[126.97705,35.40339],[126.97624,35.40746],[126.97177,35.41358],[126.96978,35.42451],[126.97039,35.42743],[126.97677,35.42807],[126.98164,35.4265],[126.98403,35.43497],[126.98973,35.43918],[126.99431,35.43999],[126.99792,35.44611],[126.99962,35.46109],[127.0024,35.46312]]]},"properties":{"code":"35560380","name":"복흥면"}},{"type":"Feature","geometry":{"type":"Polygon","coordinates":[[[127.03463,35.4658],[127.03474,35.47292],[127.03931,35.47833],[127.03892,35.48168],[127.04803,35.48805],[127.05268,35.48909],[127.04941,35.49785],[127.04609,35.50119],[127.05505,35.5092],[127.05028,35.51229],[127.05168,35.51796],[127.04999,35.52106],[127.04248,35.52263],[127.0387,35.52854],[127.02868,35.53173],[127.02186,35.53673],[127.01534,35.54535],[127.01103,35.54264],[126.99623,35.53997],[126.99262,35.53692],[126.9869,35.54535],[126.98347,35.54778],[126.97907,35.55566],[126.97165,35.55367],[126.97038,35.54924],[126.96358,35.54398],[126.95674,35.54273],[126.95111,35.5385],[126.94987,35.53362],[126.937,35.52533],[126.93133,35.52303],[126.92958,35.51981],[126.92986,35.50943],[126.93324,35.50681],[126.93547,35.49596],[126.94645,35.48877],[126.94713,35.48363],[126.95523,35.47966],[126.95891,35.4721],[126.95872,35.46745],[126.9707,35.4625],[126.97882,35.46203],[126.97844,35.46523],[126.98471,35.47257],[126.99517,35.46831],[127.0024,35.46312],[127.01443,35.45745],[127.0237,35.46347],[127.03463,35.4658]]]},"properties":{"code":"35560390","name":"쌍치면"}},{"type":"Feature","geometry":{"type":"Polygon","coordinates":[[[127.04786,35.4056],[127.06563,35.41457],[127.06787,35.4186],[127.07467,35.42184],[127.07842,35.4197],[127.0893,35.4209],[127.09533,35.41995],[127.10013,35.42511],[127.10535,35.42414],[127.10685,35.41922],[127.12179,35.4193],[127.1234,35.42205],[127.12926,35.4227],[127.12937,35.43109],[127.13562,35.43953],[127.13531,35.45013],[127.14433,35.46178],[127.14319,35.46778],[127.14014,35.47032],[127.1421,35.47641],[127.13637,35.48272],[127.13423,35.49266],[127.12997,35.49713],[127.12772,35.50325],[127.11663,35.50363],[127.11086,35.509],[127.09223,35.50583],[127.08791,35.50805],[127.08295,35.50645],[127.0723,35.51388],[127.06706,35.5162],[127.06176,35.5112],[127.05505,35.5092],[127.04609,35.50119],[127.04941,35.49785],[127.05268,35.48909],[127.04803,35.48805],[127.03892,35.48168],[127.03931,35.47833],[127.03474,35.47292],[127.03463,35.4658],[127.03591,35.45877],[127.03462,35.44753],[127.03633,35.44529],[127.03732,35.43341],[127.04396,35.43379],[127.04907,35.43126],[127.0523,35.42686],[127.04911,35.42189],[127.04559,35.40806],[127.04786,35.4056]]]},"properties":{"code":"35560400","name":"구림면"}}]}