{"type":"FeatureCollection","features":[{"type":"Feature","geometry":{"type":"Polygon","coordinates":[[[126.75396,35.41624],[126.75183,35.42298],[126.75118,35.43708],[126.74438,35.44075],[126.73812,35.44903],[126.72908,35.45127],[126.7228,35.44818],[126.71961,35.44887],[126.71149,35.45502],[126.70831,35.45573],[126.68765,35.45516],[126.68699,35.46319],[126.67717,35.46169],[126.66376,35.4647],[126.65935,35.45736],[126.65364,35.45339],[126.64547,35.45072],[126.64601,35.44678],[126.65041,35.44415],[126.64942,35.43787],[126.65492,35.43287],[126.6551,35.42848],[126.6613,35.43376],[126.68413,35.42378],[126.6903,35.41246],[126.6902,35.40572],[126.70273,35.404],[126.70545,35.39823],[126.71614,35.39544],[126.72204,35.39835],[126.73608,35.40325],[126.74443,35.40929],[126.74841,35.41516],[126.75396,35.41624]]]},"properties":{"code":"35570110","name":"고창읍"}},{"type":"Feature","geometry":{"type":"Polygon","coordinates":[[[126.68548,35.34459],[126.69067,35.35086],[126.69924,35.34968],[126.70458,35.36511],[126.71026,35.36402],[126.71943,35.36492],[126.7312,35.37678],[126.73071,35.38019],[126.73204,35.38317],[126.72961,35.39449],[126.72204,35.39835],[126.71614,35.39544],[126.70545,35.39823],[126.70273,35.404],[126.6902,35.40572],[126.6903,35.41246],[126.68413,35.42378],[126.6613,35.43376],[126.6551,35.42848],[126.65178,35.42472],[126.64165,35.42421],[126.63008,35.41056],[126.63598,35.40268],[126.637,35.39842],[126.64138,35.39585],[126.65079,35.39406],[126.65496,35.39134],[126.65466,35.38734],[126.65887,35.38478],[126.66461,35.37449],[126.66471,35.36712],[126.66824,35.35855],[126.66673,35.35155],[126.68198,35.34715],[126.68548,35.34459]]]},"properties":{"code":"35570310","name":"고수면"}},{"type":"Feature","geometry":{"type":"Polygon","coordinates":[[[126.66376,35.4647],[126.66813,35.46757],[126.66965,35.47334],[126.66353,35.48601],[126.65817,35.48842],[126.65263,35.49744],[126.64754,35.49925],[126.63586,35.49355],[126.62119,35.50241],[126.61924,35.50687],[126.61222,35.50616],[126.59847,35.50944],[126.59629,35.5153],[126.58839,35.51802],[126.57683,35.51773],[126.57338,35.51301],[126.56829,35.49764],[126.56332,35.49723],[126.55622,35.48994],[126.55985,35.48504],[126.5597,35.4768],[126.55523,35.47117],[126.55588,35.46586],[126.55992,35.46385],[126.5648,35.46709],[126.57108,35.46076],[126.56992,35.45187],[126.57968,35.44662],[126.58282,35.43802],[126.58066,35.4315],[126.58252,35.42904],[126.59255,35.42834],[126.59911,35.42213],[126.61208,35.42232],[126.61799,35.42691],[126.6214,35.41816],[126.63008,35.41056],[126.64165,35.42421],[126.65178,35.42472],[126.6551,35.42848],[126.65492,35.43287],[126.64942,35.43787],[126.65041,35.44415],[126.64601,35.44678],[126.64547,35.45072],[126.65364,35.45339],[126.65935,35.45736],[126.66376,35.4647]]]},"properties":{"code":"35570320","name":"아산면"}},{"type":"Feature","geometry":{"type":"Polygon","coordinates":[[[126.56992,35.45187],[126.56871,35.44577],[126.56082,35.43893],[126.54922,35.44348],[126.54204,35.44421],[126.53685,35.44226],[126.52971,35.44407],[126.52582,35.43484],[126.53096,35.42954],[126.52756,35.41052],[126.53098,35.40617],[126.53872,35.40541],[126.54437,35.4015],[126.54124,35.39236],[126.55192,35.39212],[126.55796,35.39018],[126.56348,35.39213],[126.56724,35.39673],[126.57789,35.39455],[126.57751,35.38712],[126.57925,35.38437],[126.58619,35.38493],[126.59618,35.3821],[126.60061,35.37242],[126.60717,35.3713],[126.61704,35.37438],[126.62216,35.38598],[126.62075,35.39204],[126.6136,35.39716],[126.61279,35.40075],[126.62078,35.41499],[126.6214,35.41816],[126.61799,35.42691],[126.61208,35.42232],[126.59911,35.42213],[126.59255,35.42834],[126.58252,35.42904],[126.58066,35.4315],[126.58282,35.43802],[126.57968,35.44662],[126.56992,35.45187]]]},"properties":{"code":"35570330","name":"무장면"}},{"type":"Feature","geometry":{"type":"Polygon","coordinates":[[[126.51573,35.33167],[126.51797,35.33065],[126.5268,35.33417],[126.53578,35.34515],[126.55752,35.35153],[126.56203,35.35651],[126.55631,35.36462],[126.56385,35.36937],[126.56938,35.36889],[126.57812,35.37419],[126.58125,35.38091],[126.57925,35.38437],[126.57751,35.38712],[126.57789,35.39455],[126.56724,35.39673],[126.56348,35.39213],[126.55796,35.39018],[126.55192,35.39212],[126.54124,35.39236],[126.54437,35.4015],[126.53872,35.40541],[126.53098,35.40617],[126.52756,35.41052],[126.53096,35.42954],[126.52582,35.43484],[126.51407,35.4354],[126.50697,35.43707],[126.50684,35.42923],[126.50193,35.41438],[126.49281,35.40914],[126.49088,35.40439],[126.49051,35.39521],[126.47758,35.3861],[126.48158,35.38563],[126.4862,35.37759],[126.4975,35.37235],[126.49529,35.36263],[126.49921,35.35405],[126.50776,35.3614],[126.51282,35.36202],[126.5141,35.3563],[126.52024,35.34979],[126.51969,35.34327],[126.51573,35.33167]]]},"properties":{"code":"35570340","name":"공음면"}},{"type":"Feature","geometry":{"type":"Polygon","coordinates":[[[126.49281,35.40914],[126.50193,35.41438],[126.50684,35.42923],[126.50697,35.43707],[126.51407,35.4354],[126.52582,35.43484],[126.52971,35.44407],[126.5221,35.4503],[126.5212,35.45353],[126.51402,35.45579],[126.51481,35.46293],[126.51046,35.46442],[126.50218,35.45865],[126.49001,35.4602],[126.4828,35.45699],[126.47722,35.46088],[126.46764,35.46362],[126.47149,35.47062],[126.47171,35.47644],[126.46953,35.48229],[126.46217,35.4824],[126.45795,35.47856],[126.44208,35.45366],[126.43592,35.44925],[126.42904,35.43806],[126.42793,35.43435],[126.43184,35.43226],[126.44184,35.43564],[126.44632,35.43523],[126.44757,35.42981],[126.45203,35.42691],[126.46947,35.42524],[126.47247,35.42648],[126.47871,35.42423],[126.48755,35.41304],[126.49281,35.40914]]]},"properties":{"code":"35570350","name":"상하면"}},{"type":"Feature","geometry":{"type":"Polygon","coordinates":[[[126.55523,35.47117],[126.54267,35.47331],[126.53836,35.47898],[126.5192,35.48528],[126.51706,35.49514],[126.50875,35.49931],[126.50694,35.50801],[126.50061,35.51157],[126.49656,35.51005],[126.4912,35.51191],[126.4878,35.51719],[126.48341,35.51928],[126.47814,35.50919],[126.47368,35.5063],[126.46217,35.4824],[126.46953,35.48229],[126.47171,35.47644],[126.47149,35.47062],[126.46764,35.46362],[126.47722,35.46088],[126.4828,35.45699],[126.49001,35.4602],[126.50218,35.45865],[126.51046,35.46442],[126.51481,35.46293],[126.51402,35.45579],[126.5212,35.45353],[126.5221,35.4503],[126.52971,35.44407],[126.53685,35.44226],[126.54204,35.44421],[126.54922,35.44348],[126.56082,35.43893],[126.56871,35.44577],[126.56992,35.45187],[126.57108,35.46076],[126.5648,35.46709],[126.55992,35.46385],[126.55588,35.46586],[126.55523,35.47117]]]},"properties":{"code":"35570360","name":"해리면"}},{"type":"Feature","geometry":{"type":"Polygon","coordinates":[[[126.66673,35.35155],[126.66824,35.35855],[126.66471,35.36712],[126.66461,35.37449],[126.65887,35.38478],[126.65466,35.38734],[126.65496,35.39134],[126.65079,35.39406],[126.64138,35.39585],[126.637,35.39842],[126.63598,35.40268],[126.63008,35.41056],[126.6214,35.41816],[126.62078,35.41499],[126.61279,35.40075],[126.6136,35.39716],[126.62075,35.39204],[126.62216,35.38598],[126.61704,35.37438],[126.60717,35.3713],[126.60061,35.37242],[126.60432,35.368],[126.60763,35.35952],[126.60822,35.35322],[126.60404,35.34672],[126.61029,35.34094],[126.60861,35.33706],[126.61259,35.33296],[126.61597,35.3334],[126.63453,35.33042],[126.64422,35.32727],[126.65261,35.32769],[126.65953,35.33456],[126.66019,35.34389],[126.66673,35.35155]]]},"properties":{"code":"35570370","name":"성송면"}},{"type":"Feature","geometry":{"type":"Polygon","coordinates":[[[126.55794,35.31178],[126.56436,35.30975],[126.57322,35.30964],[126.5783,35.30339],[126.58494,35.3008],[126.58838,35.30621],[126.58965,35.31198],[126.58337,35.31802],[126.58134,35.32289],[126.58395,35.32951],[126.58686,35.33071],[126.59541,35.32923],[126.604,35.33558],[126.60916,35.33117],[126.61555,35.3285],[126.62507,35.32134],[126.62955,35.32038],[126.64175,35.32086],[126.64473,35.31987],[126.64696,35.32458],[126.64422,35.32727],[126.63453,35.33042],[126.61597,35.3334],[126.61259,35.33296],[126.60861,35.33706],[126.61029,35.34094],[126.60404,35.34672],[126.60822,35.35322],[126.60763,35.35952],[126.60432,35.368],[126.60061,35.37242],[126.59618,35.3821],[126.58619,35.38493],[126.57925,35.38437],[126.58125,35.38091],[126.57812,35.37419],[126.56938,35.36889],[126.56385,35.36937],[126.55631,35.36462],[126.56203,35.35651],[126.55752,35.35153],[126.53578,35.34515],[126.5268,35.33417],[126.51797,35.33065],[126.51573,35.33167],[126.51407,35.32707],[126.52075,35.32504],[126.52326,35.31544],[126.53119,35.30747],[126.54479,35.31045],[126.55095,35.3136],[126.55794,35.31178]]]},"properties":{"code":"35570380","name":"대산면"}},{"type":"Feature","geometry":{"type":"MultiPolygon","coordinates":[[[[126.59629,35.5153],[126.59927,35.52035],[126.59922,35.52501],[126.59419,35.53211],[126.59399,35.53512],[126.59358,35.54091],[126.58976,35.54207],[126.57512,35.54153],[126.56513,35.54266],[126.55037,35.53303],[126.5459,35.53255],[126.54185,35.5274],[126.53643,35.53138],[126.52946,35.53142],[126.51932,35.53354],[126.51002,35.53034],[126.5006,35.52435],[126.49576,35.51154],[126.49656,35.51005],[126.50061,35.51157],[126.50694,35.50801],[126.50875,35.49931],[126.51706,35.49514],[126.5192,35.48528],[126.53836,35.47898],[126.54267,35.47331],[126.55523,35.47117],[126.5597,35.4768],[126.55985,35.48504],[126.55622,35.48994],[126.56332,35.49723],[126.56829,35.49764],[126.57338,35.51301],[126.57683,35.51773],[126.58839,35.51802],[126.59629,35.5153]]],[[[126.48107,35.54666],[126.47676,35.5442],[126.48193,35.5404],[126.48515,35.54413],[126.48107,35.54666]]]]},"properties":{"code":"35570390","name":"심원면"}},{"type":"Feature","geometry":{"type":"Polygon","coordinates":[[[126.7217,35.57303],[126.70243,35.57451],[126.69222,35.56945],[126.68473,35.56995],[126.68046,35.57248],[126.67225,35.5714],[126.67421,35.56817],[126.66853,35.56595],[126.66583,35.55984],[126.66713,35.55432],[126.6686,35.55377],[126.67397,35.5416],[126.67368,35.539],[126.67932,35.53056],[126.68002,35.52524],[126.67791,35.52084],[126.6811,35.51681],[126.6782,35.5006],[126.6843,35.49576],[126.68793,35.49945],[126.69926,35.50431],[126.71098,35.50225],[126.7121,35.50377],[126.72414,35.50274],[126.73147,35.49999],[126.73504,35.50425],[126.72798,35.51968],[126.72271,35.51854],[126.71344,35.52143],[126.71858,35.52774],[126.72004,35.54981],[126.72637,35.57073],[126.7217,35.57303]]]},"properties":{"code":"35570400","name":"흥덕면"}},{"type":"Feature","geometry":{"type":"Polygon","coordinates":[[[126.76411,35.51858],[126.77371,35.52426],[126.7612,35.5329],[126.76207,35.54411],[126.76608,35.54937],[126.76093,35.55573],[126.76673,35.56381],[126.76405,35.57051],[126.7535,35.57338],[126.73904,35.56759],[126.73065,35.57081],[126.72637,35.57073],[126.72004,35.54981],[126.71858,35.52774],[126.71344,35.52143],[126.72271,35.51854],[126.72798,35.51968],[126.73504,35.50425],[126.74671,35.50732],[126.75044,35.50315],[126.74494,35.49641],[126.75198,35.49275],[126.75597,35.4946],[126.76421,35.49306],[126.76856,35.49579],[126.76956,35.50854],[126.76001,35.51108],[126.75956,35.51543],[126.76411,35.51858]]]},"properties":{"code":"35570410","name":"성내면"}},{"type":"Feature","geometry":{"type":"Polygon","coordinates":[[[126.77252,35.46838],[126.77002,35.48262],[126.7669,35.4856],[126.76421,35.49306],[126.75597,35.4946],[126.75198,35.49275],[126.74494,35.49641],[126.75044,35.50315],[126.74671,35.50732],[126.73504,35.50425],[126.73147,35.49999],[126.72414,35.50274],[126.7121,35.50377],[126.71098,35.50225],[126.69926,35.50431],[126.68793,35.49945],[126.6843,35.49576],[126.68692,35.48858],[126.68072,35.48127],[126.68075,35.47547],[126.66965,35.47334],[126.66813,35.46757],[126.66376,35.4647],[126.67717,35.46169],[126.68699,35.46319],[126.68765,35.45516],[126.70831,35.45573],[126.71149,35.45502],[126.71961,35.44887],[126.7228,35.44818],[126.72908,35.45127],[126.73812,35.44903],[126.74091,35.45232],[126.74787,35.45033],[126.75427,35.45527],[126.75676,35.46078],[126.76405,35.46604],[126.77252,35.46838]]]},"properties":{"code":"35570420","name":"신림면"}},{"type":"Feature","geometry":{"type":"Polygon","coordinates":[[[126.66965,35.47334],[126.68075,35.47547],[126.68072,35.48127],[126.68692,35.48858],[126.6843,35.49576],[126.6782,35.5006],[126.6811,35.51681],[126.67791,35.52084],[126.68002,35.52524],[126.67932,35.53056],[126.67368,35.539],[126.67397,35.5416],[126.6686,35.55377],[126.66713,35.55432],[126.66461,35.55491],[126.65244,35.56468],[126.6479,35.56967],[126.63194,35.5727],[126.62408,35.56849],[126.61704,35.56953],[126.61641,35.55689],[126.61046,35.55496],[126.60228,35.54613],[126.6026,35.54252],[126.59399,35.53512],[126.59419,35.53211],[126.59922,35.52501],[126.59927,35.52035],[126.59629,35.5153],[126.59847,35.50944],[126.61222,35.50616],[126.61924,35.50687],[126.62119,35.50241],[126.63586,35.49355],[126.64754,35.49925],[126.65263,35.49744],[126.65817,35.48842],[126.66353,35.48601],[126.66965,35.47334]]]},"properties":{"code":"35570430","name":"부안면"}}]}