{"type":"FeatureCollection","features":[{"type":"Feature","geometry":{"type":"Polygon","coordinates":[[[126.77567,35.72066],[126.77022,35.71856],[126.76106,35.73158],[126.7603,35.73658],[126.75155,35.73647],[126.74886,35.73427],[126.74242,35.74069],[126.73519,35.74257],[126.73026,35.74026],[126.73019,35.73336],[126.72403,35.72807],[126.72443,35.72316],[126.72876,35.71179],[126.72322,35.70982],[126.72734,35.69952],[126.72662,35.69658],[126.72015,35.69042],[126.70907,35.69255],[126.71405,35.6871],[126.71361,35.68275],[126.72818,35.67548],[126.73438,35.67992],[126.74172,35.68394],[126.74371,35.67976],[126.74813,35.67871],[126.75049,35.685],[126.75705,35.68351],[126.76169,35.69324],[126.76399,35.69242],[126.76994,35.69833],[126.77901,35.71633],[126.77567,35.72066]]]},"properties":{"code":"35580110","name":"부안읍"}},{"type":"Feature","geometry":{"type":"Polygon","coordinates":[[[126.72456,35.63804],[126.72524,35.64396],[126.72962,35.64928],[126.73355,35.65073],[126.74395,35.66673],[126.74019,35.67464],[126.73438,35.67992],[126.72818,35.67548],[126.71361,35.68275],[126.71405,35.6871],[126.70907,35.69255],[126.72015,35.69042],[126.72662,35.69658],[126.70918,35.69578],[126.70088,35.69634],[126.69764,35.70033],[126.6914,35.6799],[126.68897,35.66977],[126.67165,35.65997],[126.66923,35.64915],[126.67261,35.64479],[126.67891,35.64935],[126.68752,35.65161],[126.69612,35.64803],[126.69905,35.64446],[126.70721,35.6422],[126.71143,35.6433],[126.71925,35.63606],[126.72366,35.63489],[126.72456,35.63804]]]},"properties":{"code":"35580310","name":"주산면"}},{"type":"Feature","geometry":{"type":"Polygon","coordinates":[[[126.77723,35.75765],[126.7722,35.76309],[126.77115,35.77113],[126.7523,35.78519],[126.74127,35.78819],[126.72829,35.7941],[126.72789,35.7787],[126.72028,35.77429],[126.71409,35.76834],[126.70918,35.75938],[126.69421,35.74872],[126.69309,35.74486],[126.69712,35.74171],[126.70331,35.7377],[126.70917,35.74093],[126.713,35.74552],[126.71218,35.75088],[126.71828,35.7552],[126.71921,35.7499],[126.72657,35.74492],[126.73026,35.74026],[126.73519,35.74257],[126.74242,35.74069],[126.74886,35.73427],[126.75155,35.73647],[126.7603,35.73658],[126.76106,35.73158],[126.77022,35.71856],[126.77567,35.72066],[126.77837,35.72042],[126.78673,35.72581],[126.78909,35.73038],[126.78744,35.73482],[126.78302,35.73704],[126.77979,35.74382],[126.78401,35.74914],[126.77748,35.75318],[126.77723,35.75765]]]},"properties":{"code":"35580320","name":"동진면"}},{"type":"Feature","geometry":{"type":"Polygon","coordinates":[[[126.73026,35.74026],[126.72657,35.74492],[126.71921,35.7499],[126.71828,35.7552],[126.71218,35.75088],[126.713,35.74552],[126.70917,35.74093],[126.70331,35.7377],[126.69712,35.74171],[126.67621,35.74213],[126.66735,35.74069],[126.67859,35.72524],[126.69045,35.72488],[126.69006,35.71688],[126.6863,35.71241],[126.69027,35.70574],[126.69764,35.70033],[126.70088,35.69634],[126.70918,35.69578],[126.72662,35.69658],[126.72734,35.69952],[126.72322,35.70982],[126.72876,35.71179],[126.72443,35.72316],[126.72403,35.72807],[126.73019,35.73336],[126.73026,35.74026]]]},"properties":{"code":"35580330","name":"행안면"}},{"type":"Feature","geometry":{"type":"Polygon","coordinates":[[[126.72829,35.7941],[126.71727,35.79396],[126.69926,35.79944],[126.68729,35.79949],[126.64299,35.79769],[126.63235,35.80041],[126.62623,35.79513],[126.62263,35.7887],[126.62597,35.78217],[126.62421,35.77869],[126.62688,35.74864],[126.62604,35.74758],[126.63112,35.74596],[126.63699,35.73989],[126.65261,35.74948],[126.66167,35.75076],[126.66735,35.74069],[126.67621,35.74213],[126.69712,35.74171],[126.69309,35.74486],[126.69421,35.74872],[126.70918,35.75938],[126.71409,35.76834],[126.72028,35.77429],[126.72789,35.7787],[126.72829,35.7941]]]},"properties":{"code":"35580340","name":"계화면"}},{"type":"Feature","geometry":{"type":"Polygon","coordinates":[[[126.72366,35.63489],[126.71925,35.63606],[126.71143,35.6433],[126.70721,35.6422],[126.69905,35.64446],[126.69612,35.64803],[126.68752,35.65161],[126.67891,35.64935],[126.67261,35.64479],[126.66586,35.64037],[126.66096,35.64452],[126.6573,35.65101],[126.65058,35.6493],[126.64498,35.63412],[126.63375,35.63774],[126.62191,35.63454],[126.62287,35.62857],[126.61696,35.62541],[126.62452,35.61767],[126.62319,35.61333],[126.63016,35.6094],[126.62659,35.60162],[126.62512,35.59297],[126.62695,35.59072],[126.63604,35.59342],[126.63579,35.59926],[126.64164,35.59651],[126.64236,35.59201],[126.64731,35.59139],[126.65146,35.5951],[126.6574,35.5906],[126.66306,35.59927],[126.67259,35.60131],[126.67669,35.60664],[126.69173,35.61175],[126.70217,35.61233],[126.7023,35.61872],[126.71403,35.61722],[126.72214,35.6232],[126.72366,35.63489]]]},"properties":{"code":"35580350","name":"보안면"}},{"type":"Feature","geometry":{"type":"Polygon","coordinates":[[[126.56816,35.69458],[126.56089,35.69872],[126.55004,35.69601],[126.53896,35.68998],[126.53261,35.69053],[126.53105,35.68143],[126.52741,35.67665],[126.52065,35.67636],[126.51469,35.66745],[126.50039,35.65736],[126.49729,35.65791],[126.48428,35.65561],[126.48279,35.64924],[126.4766,35.64334],[126.46594,35.64422],[126.4613,35.6381],[126.46862,35.62832],[126.46819,35.61859],[126.46376,35.61831],[126.46065,35.6137],[126.46394,35.607],[126.46562,35.5986],[126.47052,35.60282],[126.47723,35.60223],[126.48418,35.59802],[126.48573,35.59152],[126.49171,35.58597],[126.50672,35.58123],[126.51325,35.58634],[126.51647,35.58072],[126.52783,35.5793],[126.52709,35.58446],[126.52201,35.59438],[126.51786,35.59511],[126.51756,35.60201],[126.50911,35.60848],[126.5092,35.61336],[126.51517,35.61438],[126.5229,35.61875],[126.53163,35.61775],[126.53309,35.62193],[126.53984,35.62351],[126.54752,35.61748],[126.55087,35.62087],[126.56181,35.62163],[126.56944,35.62026],[126.57351,35.62374],[126.58096,35.6218],[126.58643,35.6264],[126.58985,35.62671],[126.58682,35.63382],[126.59021,35.64085],[126.59506,35.64416],[126.59703,35.64904],[126.60135,35.6526],[126.60053,35.65603],[126.60475,35.66624],[126.61118,35.66884],[126.61074,35.67291],[126.61904,35.67736],[126.61108,35.67798],[126.60659,35.68208],[126.602,35.68265],[126.59823,35.67793],[126.59105,35.67841],[126.58764,35.68188],[126.58061,35.68223],[126.5784,35.68598],[126.56914,35.6916],[126.56816,35.69458]]]},"properties":{"code":"35580360","name":"변산면"}},{"type":"Feature","geometry":{"type":"Polygon","coordinates":[[[126.61696,35.62541],[126.61329,35.62726],[126.60409,35.62211],[126.58985,35.62671],[126.58643,35.6264],[126.58096,35.6218],[126.57351,35.62374],[126.56944,35.62026],[126.56181,35.62163],[126.55087,35.62087],[126.54752,35.61748],[126.53984,35.62351],[126.53309,35.62193],[126.53163,35.61775],[126.5229,35.61875],[126.51517,35.61438],[126.5092,35.61336],[126.50911,35.60848],[126.51756,35.60201],[126.51786,35.59511],[126.52201,35.59438],[126.52709,35.58446],[126.52783,35.5793],[126.53174,35.58379],[126.5411,35.58801],[126.54916,35.58557],[126.5601,35.58543],[126.56332,35.58752],[126.57525,35.59014],[126.58537,35.58764],[126.59296,35.58817],[126.59862,35.59425],[126.60328,35.59085],[126.60453,35.58585],[126.61214,35.58722],[126.61716,35.58495],[126.62512,35.59297],[126.62659,35.60162],[126.63016,35.6094],[126.62319,35.61333],[126.62452,35.61767],[126.61696,35.62541]]]},"properties":{"code":"35580370","name":"진서면"}},{"type":"Feature","geometry":{"type":"Polygon","coordinates":[[[126.82527,35.71431],[126.82033,35.71812],[126.81749,35.71503],[126.81271,35.71583],[126.80821,35.73393],[126.80491,35.73537],[126.80049,35.74131],[126.79915,35.74733],[126.79274,35.75354],[126.77748,35.75318],[126.78401,35.74914],[126.77979,35.74382],[126.78302,35.73704],[126.78744,35.73482],[126.78909,35.73038],[126.78673,35.72581],[126.77837,35.72042],[126.77567,35.72066],[126.77901,35.71633],[126.76994,35.69833],[126.76399,35.69242],[126.76169,35.69324],[126.75705,35.68351],[126.75049,35.685],[126.74813,35.67871],[126.74371,35.67976],[126.74172,35.68394],[126.73438,35.67992],[126.74019,35.67464],[126.74395,35.66673],[126.74932,35.66467],[126.75122,35.67028],[126.75469,35.66949],[126.76088,35.66119],[126.76509,35.66472],[126.7654,35.6738],[126.77182,35.68485],[126.77586,35.68281],[126.78351,35.67584],[126.7893,35.67553],[126.79804,35.68463],[126.80579,35.6758],[126.80862,35.68036],[126.81573,35.68308],[126.8197,35.68062],[126.82725,35.67999],[126.82908,35.68499],[126.83474,35.68726],[126.83952,35.69773],[126.82838,35.70939],[126.82527,35.71431]]]},"properties":{"code":"35580380","name":"백산면"}},{"type":"Feature","geometry":{"type":"Polygon","coordinates":[[[126.69764,35.70033],[126.69027,35.70574],[126.6863,35.71241],[126.68543,35.717],[126.67921,35.71779],[126.66212,35.7149],[126.6593,35.71006],[126.64548,35.69812],[126.64108,35.69249],[126.63974,35.6867],[126.62614,35.68771],[126.62167,35.68533],[126.61904,35.67736],[126.61074,35.67291],[126.61118,35.66884],[126.60475,35.66624],[126.60053,35.65603],[126.60135,35.6526],[126.59703,35.64904],[126.59506,35.64416],[126.59021,35.64085],[126.58682,35.63382],[126.58985,35.62671],[126.60409,35.62211],[126.61329,35.62726],[126.61696,35.62541],[126.62287,35.62857],[126.62191,35.63454],[126.63375,35.63774],[126.64498,35.63412],[126.65058,35.6493],[126.6573,35.65101],[126.66096,35.64452],[126.66586,35.64037],[126.67261,35.64479],[126.66923,35.64915],[126.67165,35.65997],[126.68897,35.66977],[126.6914,35.6799],[126.69764,35.70033]]]},"properties":{"code":"35580390","name":"상서면"}},{"type":"Feature","geometry":{"type":"Polygon","coordinates":[[[126.66735,35.74069],[126.66167,35.75076],[126.65261,35.74948],[126.63699,35.73989],[126.63112,35.74596],[126.62604,35.74758],[126.61155,35.73683],[126.61129,35.73415],[126.60582,35.72758],[126.60122,35.71956],[126.58892,35.70842],[126.58489,35.70834],[126.57057,35.69513],[126.56816,35.69458],[126.56914,35.6916],[126.5784,35.68598],[126.58061,35.68223],[126.58764,35.68188],[126.59105,35.67841],[126.59823,35.67793],[126.602,35.68265],[126.60659,35.68208],[126.61108,35.67798],[126.61904,35.67736],[126.62167,35.68533],[126.62614,35.68771],[126.63974,35.6867],[126.64108,35.69249],[126.64548,35.69812],[126.6593,35.71006],[126.66212,35.7149],[126.67921,35.71779],[126.68543,35.717],[126.6863,35.71241],[126.69006,35.71688],[126.69045,35.72488],[126.67859,35.72524],[126.66735,35.74069]]]},"properties":{"code":"35580400","name":"하서면"}},{"type":"Feature","geometry":{"type":"Polygon","coordinates":[[[126.72214,35.6232],[126.71403,35.61722],[126.7023,35.61872],[126.70217,35.61233],[126.69173,35.61175],[126.67669,35.60664],[126.67259,35.60131],[126.66306,35.59927],[126.6574,35.5906],[126.66585,35.57551],[126.67225,35.5714],[126.68046,35.57248],[126.68473,35.56995],[126.69222,35.56945],[126.70243,35.57451],[126.7217,35.57303],[126.71847,35.57956],[126.72542,35.59366],[126.7202,35.59856],[126.72212,35.60461],[126.72001,35.61059],[126.72323,35.61789],[126.72214,35.6232]]]},"properties":{"code":"35580410","name":"줄포면"}},{"type":"Feature","geometry":{"type":"MultiPolygon","coordinates":[[[[126.30426,35.6217],[126.30333,35.61266],[126.29767,35.61168],[126.29529,35.60518],[126.29068,35.60605],[126.29188,35.60976],[126.29231,35.61852],[126.28779,35.61464],[126.29177,35.60977],[126.28719,35.60855],[126.28411,35.61414],[126.27553,35.6173],[126.27596,35.61277],[126.28501,35.60675],[126.28331,35.60401],[126.27071,35.60851],[126.26786,35.60461],[126.27289,35.5989],[126.26934,35.5935],[126.27031,35.58956],[126.26493,35.58852],[126.25409,35.5899],[126.2496,35.58865],[126.24897,35.58466],[126.25401,35.58275],[126.25676,35.57459],[126.26263,35.57112],[126.26634,35.5762],[126.27534,35.57784],[126.28893,35.58951],[126.28896,35.59184],[126.29827,35.59535],[126.3028,35.59509],[126.30482,35.60039],[126.31117,35.60462],[126.31549,35.611],[126.3076,35.62043],[126.30426,35.6217]]],[[[126.28841,35.63412],[126.2764,35.63486],[126.27367,35.63246],[126.27589,35.62844],[126.29446,35.62802],[126.28841,35.63412]]],[[[126.12644,35.64005],[126.12231,35.6445],[126.11572,35.64509],[126.11136,35.64269],[126.111,35.63907],[126.11617,35.63707],[126.12061,35.63948],[126.12347,35.63337],[126.12962,35.63575],[126.12644,35.64005]]],[[[126.1098,35.66348],[126.10667,35.66764],[126.09895,35.66173],[126.10778,35.65971],[126.1098,35.66348]]]]},"properties":{"code":"35580420","name":"위도면"}}]}