{"type":"FeatureCollection","features":[{"type":"Feature","geometry":{"type":"MultiPolygon","coordinates":[[[[126.36767,34.81124],[126.36461,34.80335],[126.35743,34.79421],[126.3793,34.78036],[126.40264,34.78558],[126.41207,34.79103],[126.42571,34.79308],[126.43667,34.79717],[126.44146,34.79942],[126.44466,34.79244],[126.44918,34.78321],[126.3792,34.76698],[126.38041,34.75282],[126.36621,34.73834],[126.38846,34.73099],[126.36824,34.69886],[126.34494,34.69123],[126.37388,34.64369],[126.39379,34.62655],[126.40598,34.62786],[126.42847,34.61366],[126.43608,34.59809],[126.46513,34.59458],[126.44649,34.58663],[126.41002,34.60091],[126.38048,34.61774],[126.37007,34.60469],[126.37351,34.62576],[126.36066,34.63855],[126.3605,34.64958],[126.34172,34.67509],[126.34019,34.69499],[126.35066,34.70326],[126.33976,34.71904],[126.33524,34.73834],[126.29999,34.76216],[126.28877,34.76017],[126.27433,34.72875],[126.27476,34.71405],[126.2579,34.69413],[126.26217,34.6866],[126.25503,34.66412],[126.26701,34.64337],[126.28744,34.60566],[126.27901,34.5964],[126.3132,34.58577],[126.31374,34.56674],[126.33408,34.57308],[126.34539,34.56919],[126.36249,34.56078],[126.37984,34.56274],[126.38765,34.54716],[126.40252,34.5378],[126.41993,34.55423],[126.44465,34.52861],[126.46365,34.51822],[126.47139,34.50697],[126.45548,34.47665],[126.46736,34.46207],[126.45804,34.44964],[126.47648,34.42663],[126.51072,34.43793],[126.51193,34.42225],[126.5051,34.40543],[126.48849,34.4091],[126.48572,34.38762],[126.47408,34.37747],[126.48389,34.36666],[126.51971,34.36092],[126.5269,34.33414],[126.51232,34.31882],[126.51884,34.29578],[126.54462,34.30301],[126.5576,34.32129],[126.58624,34.31971],[126.59946,34.3125],[126.60339,34.34667],[126.62143,34.35931],[126.62276,34.40697],[126.66563,34.42613],[126.67838,34.42218],[126.69784,34.43985],[126.72511,34.44224],[126.73485,34.45462],[126.74819,34.47189],[126.74072,34.48812],[126.75806,34.49376],[126.76055,34.51177],[126.75905,34.52604],[126.76848,34.55488],[126.76993,34.59191],[126.77004,34.61603],[126.78251,34.63307],[126.78064,34.62165],[126.78038,34.59018],[126.79284,34.56995],[126.79016,34.5379],[126.78657,34.51285],[126.79182,34.48886],[126.78502,34.4692],[126.79675,34.46769],[126.81952,34.44866],[126.84512,34.45134],[126.87494,34.43556],[126.87667,34.45672],[126.89962,34.45527],[126.93791,34.44768],[126.97661,34.48731],[126.96731,34.50483],[126.97714,34.50975],[126.96235,34.53472],[126.98186,34.53962],[126.98989,34.55375],[126.98547,34.56888],[126.99319,34.58321],[126.99988,34.60419],[126.995,34.62276],[126.96382,34.62613],[127.012,34.62462],[127.04663,34.63471],[127.07229,34.66109],[127.10723,34.67683],[127.11472,34.69344],[127.12797,34.70244],[127.14392,34.69263],[127.17591,34.69135],[127.18762,34.69629],[127.20581,34.71816],[127.20939,34.73756],[127.22878,34.76354],[127.24398,34.77497],[127.24326,34.76075],[127.25241,34.74176],[127.272,34.74159],[127.29471,34.73258],[127.30357,34.74959],[127.32653,34.75154],[127.33255,34.7148],[127.34398,34.7095],[127.33464,34.70881],[127.31753,34.68208],[127.31796,34.6695],[127.31465,34.66521],[127.27948,34.67299],[127.28643,34.69109],[127.27482,34.71726],[127.25288,34.71129],[127.23955,34.69672],[127.23264,34.67855],[127.22557,34.63904],[127.20755,34.62873],[127.20221,34.60048],[127.19955,34.59534],[127.20294,34.6383],[127.1896,34.64366],[127.17244,34.62706],[127.17156,34.59558],[127.15758,34.59224],[127.11322,34.55933],[127.11214,34.54617],[127.12113,34.53013],[127.13582,34.52351],[127.16907,34.52211],[127.18375,34.53133],[127.20714,34.52104],[127.21742,34.53095],[127.24819,34.52206],[127.26717,34.51104],[127.28292,34.49752],[127.27372,34.4789],[127.30076,34.47019],[127.30174,34.45905],[127.31887,34.44212],[127.33938,34.4543],[127.31911,34.46773],[127.33401,34.47896],[127.37303,34.48],[127.39139,34.48817],[127.38792,34.50658],[127.40569,34.5181],[127.42509,34.51394],[127.43067,34.54154],[127.40622,34.56074],[127.39406,34.5813],[127.39878,34.58864],[127.40866,34.58976],[127.41882,34.58232],[127.44585,34.57701],[127.45785,34.5855],[127.47692,34.57402],[127.50617,34.59189],[127.50625,34.6038],[127.49155,34.63261],[127.47211,34.63806],[127.47831,34.64653],[127.4776,34.6719],[127.44524,34.66266],[127.44358,34.68226],[127.45323,34.69127],[127.41475,34.70695],[127.39643,34.70713],[127.38301,34.723],[127.37329,34.74152],[127.39729,34.75676],[127.39298,34.77669],[127.36884,34.777],[127.38667,34.77905],[127.39108,34.78999],[127.42,34.81134],[127.39064,34.81789],[127.41694,34.83249],[127.49244,34.84684],[127.4909,34.87674],[127.5148,34.88114],[127.51478,34.86967],[127.52601,34.84475],[127.5422,34.84329],[127.52737,34.82442],[127.52286,34.80982],[127.55586,34.80775],[127.57918,34.76086],[127.60386,34.74336],[127.58495,34.74641],[127.57851,34.73295],[127.55487,34.71868],[127.55936,34.70042],[127.55067,34.68921],[127.55317,34.66996],[127.57013,34.64359],[127.58925,34.65185],[127.61555,34.64285],[127.64439,34.62729],[127.6354,34.66145],[127.62497,34.68048],[127.62608,34.71201],[127.64035,34.72184],[127.66302,34.75666],[127.68062,34.73377],[127.70291,34.72039],[127.71239,34.72461],[127.73438,34.72433],[127.73678,34.73227],[127.74234,34.737],[127.75405,34.73805],[127.74821,34.74718],[127.75436,34.76358],[127.74547,34.7753],[127.76931,34.80496],[127.76778,34.83133],[127.77489,34.83747],[127.77415,34.8608],[127.76197,34.86483],[127.69865,34.85938],[127.67011,34.83703],[127.6616,34.8445],[127.64294,34.83046],[127.63899,34.8199],[127.62672,34.8298],[127.62383,34.84425],[127.60632,34.85169],[127.58968,34.87491],[127.61424,34.89235],[127.60557,34.90342],[127.59072,34.91907],[127.61335,34.92045],[127.63998,34.88636],[127.69321,34.91702],[127.68777,34.92429],[127.71,34.93546],[127.72148,34.94736],[127.72878,34.9632],[127.73001,34.96321],[127.73335,34.95544],[127.7603,34.96654],[127.76457,34.9781],[127.77777,34.98811],[127.7783,34.98886],[127.78715,35.01725],[127.77706,35.02563],[127.76869,35.05044],[127.75088,35.05715],[127.74032,35.06196],[127.73747,35.07808],[127.71887,35.08163],[127.6946,35.10308],[127.69494,35.12233],[127.6951,35.12976],[127.6681,35.15235],[127.6453,35.1613],[127.62474,35.18449],[127.62137,35.18851],[127.61839,35.23721],[127.61002,35.26191],[127.5958,35.26816],[127.57745,35.30896],[127.57265,35.31205],[127.53054,35.33728],[127.51422,35.35134],[127.49562,35.36081],[127.47058,35.36594],[127.43132,35.35953],[127.42276,35.35084],[127.40155,35.3251],[127.39932,35.3129],[127.38445,35.30328],[127.35619,35.32126],[127.32365,35.309],[127.32411,35.30646],[127.3214,35.30574],[127.30494,35.3035],[127.28854,35.31415],[127.26044,35.31163],[127.2512,35.31696],[127.23741,35.32814],[127.22265,35.3367],[127.21485,35.31617],[127.18711,35.32236],[127.1861,35.33619],[127.1679,35.3317],[127.14657,35.31541],[127.11568,35.29955],[127.1023,35.30113],[127.09667,35.30174],[127.06558,35.31056],[127.04671,35.31819],[127.05212,35.33991],[127.06495,35.33649],[127.07028,35.36612],[127.05664,35.38437],[127.03913,35.37996],[127.02727,35.39994],[127.04786,35.4056],[127.0523,35.42686],[127.03732,35.43341],[127.03463,35.4658],[127.01443,35.45745],[127.0024,35.46312],[126.99431,35.43999],[126.97039,35.42743],[126.97705,35.40339],[126.96148,35.39491],[126.93276,35.39515],[126.9196,35.40197],[126.92067,35.41089],[126.90196,35.42277],[126.89484,35.44848],[126.86869,35.46139],[126.85062,35.46598],[126.82613,35.4863],[126.81357,35.46885],[126.77252,35.46838],[126.73812,35.44903],[126.75118,35.43708],[126.75396,35.41624],[126.72204,35.39835],[126.73071,35.38019],[126.71943,35.36492],[126.70458,35.36511],[126.69924,35.34968],[126.68548,35.34459],[126.66673,35.35155],[126.65953,35.33456],[126.64422,35.32727],[126.64473,35.31987],[126.62507,35.32134],[126.604,35.33558],[126.58134,35.32289],[126.58965,35.31198],[126.55794,35.31178],[126.53119,35.30747],[126.51573,35.33167],[126.5141,35.3563],[126.49529,35.36263],[126.4975,35.37235],[126.47758,35.3861],[126.49051,35.39521],[126.49281,35.40914],[126.47871,35.42423],[126.44757,35.42981],[126.41481,35.42193],[126.40301,35.40407],[126.40203,35.39018],[126.4106,35.37554],[126.42478,35.3689],[126.44839,35.35034],[126.39654,35.36842],[126.37833,35.32898],[126.37778,35.30576],[126.3584,35.28935],[126.34387,35.29299],[126.32336,35.28806],[126.32403,35.25259],[126.33343,35.24727],[126.31114,35.25458],[126.2975,35.22737],[126.29812,35.18812],[126.30701,35.17823],[126.33546,35.19123],[126.36865,35.16503],[126.38664,35.14292],[126.40301,35.1354],[126.41963,35.10754],[126.44563,35.10592],[126.46186,35.09605],[126.45016,35.08807],[126.45704,35.07429],[126.43951,35.05558],[126.39905,35.03292],[126.40629,35.05723],[126.40427,35.07073],[126.39175,35.08644],[126.36803,35.07134],[126.33506,35.09167],[126.34211,35.1214],[126.34592,35.15976],[126.32481,35.13414],[126.26134,35.14522],[126.24181,35.11152],[126.24768,35.09711],[126.20982,35.1032],[126.19031,35.11279],[126.15994,35.09887],[126.16557,35.08347],[126.15986,35.07221],[126.18244,35.0578],[126.22261,35.05781],[126.23518,35.04424],[126.22663,35.02343],[126.25592,35.01268],[126.2742,35.03766],[126.26215,35.05369],[126.28491,35.06163],[126.30436,35.04503],[126.31452,35.05326],[126.31675,35.08667],[126.33245,35.08753],[126.34405,35.07046],[126.34744,35.04509],[126.35849,35.03859],[126.38075,35.04821],[126.38926,35.0251],[126.33914,34.997],[126.358,34.99128],[126.34802,34.97579],[126.33302,34.97081],[126.32063,34.97917],[126.29479,34.9653],[126.32871,34.91685],[126.34311,34.9146],[126.36667,34.93263],[126.3746,34.95592],[126.36765,34.9887],[126.37887,34.97117],[126.39217,34.96594],[126.3871,34.9469],[126.39162,34.91997],[126.40312,34.91479],[126.39293,34.88235],[126.3947,34.86926],[126.41211,34.84389],[126.38805,34.83689],[126.38653,34.82958],[126.36767,34.81124]],[[126.62261,34.63248],[126.57876,34.63557],[126.54271,34.65494],[126.51727,34.65806],[126.52561,34.63451],[126.51068,34.64847],[126.47143,34.65915],[126.45121,34.68738],[126.45269,34.70632],[126.3883,34.71987],[126.39082,34.73018],[126.40117,34.73884],[126.43986,34.73745],[126.45634,34.72795],[126.47577,34.73472],[126.47708,34.71996],[126.49,34.71504],[126.50751,34.69555],[126.51293,34.68291],[126.536,34.66767],[126.56142,34.6827],[126.53837,34.66519],[126.58083,34.63847],[126.62261,34.63248]]],[[[126.3269,34.78497],[126.30846,34.78224],[126.30636,34.76463],[126.31791,34.7591],[126.3269,34.78497]]],[[[127.74863,34.73379],[127.74159,34.72197],[127.75441,34.70861],[127.76024,34.68474],[127.7372,34.66059],[127.72342,34.65571],[127.72384,34.63352],[127.71294,34.62433],[127.71906,34.61347],[127.73761,34.6103],[127.75015,34.59263],[127.78564,34.58528],[127.80597,34.59028],[127.79222,34.61088],[127.79845,34.63727],[127.795,34.67133],[127.77641,34.68136],[127.77978,34.69659],[127.79114,34.70161],[127.78733,34.71601],[127.74863,34.73379]]],[[[127.63351,34.84882],[127.64704,34.85743],[127.63368,34.87093],[127.61386,34.85811],[127.63351,34.84882]]],[[[127.80516,34.46124],[127.79333,34.42605],[127.80809,34.41699],[127.80936,34.44987],[127.80516,34.46124]]],[[[127.74112,34.5529],[127.71192,34.53798],[127.71307,34.52948],[127.73478,34.503],[127.76243,34.49909],[127.77086,34.48762],[127.79677,34.49321],[127.78024,34.51988],[127.76232,34.53512],[127.75768,34.55237],[127.74112,34.5529]]],[[[127.65792,34.58554],[127.63909,34.57488],[127.64758,34.55871],[127.67421,34.55564],[127.67849,34.56693],[127.65792,34.58554]]],[[[127.54662,34.61771],[127.53366,34.61202],[127.53952,34.5987],[127.56674,34.60516],[127.54662,34.61771]]],[[[127.29319,34.06352],[127.2792,34.04323],[127.2946,34.01409],[127.31584,34.01435],[127.29277,34.05003],[127.29319,34.06352]]],[[[127.26044,34.24717],[127.24252,34.2472],[127.22484,34.21598],[127.24333,34.21776],[127.26272,34.22678],[127.26044,34.24717]]],[[[127.72503,34.89523],[127.70731,34.89685],[127.69165,34.88493],[127.71788,34.86763],[127.7464,34.8727],[127.74563,34.89097],[127.72503,34.89523]]],[[[127.76879,34.94106],[127.75993,34.9605],[127.74193,34.95235],[127.74471,34.93452],[127.76879,34.94106]]],[[[127.78482,34.91549],[127.76528,34.93188],[127.73842,34.932],[127.74003,34.9455],[127.72442,34.948],[127.70428,34.91256],[127.75917,34.90607],[127.76063,34.89325],[127.78439,34.88639],[127.78482,34.91549]]],[[[127.24596,34.41407],[127.24771,34.38737],[127.27164,34.38057],[127.25706,34.40718],[127.24596,34.41407]]],[[[127.13583,34.52026],[127.11144,34.52243],[127.10938,34.50882],[127.13065,34.5057],[127.13583,34.52026]]],[[[127.22794,34.48927],[127.2156,34.49625],[127.19931,34.48819],[127.1784,34.49202],[127.14044,34.47341],[127.12874,34.47886],[127.10148,34.46956],[127.10541,34.45652],[127.12479,34.43145],[127.14535,34.42923],[127.16921,34.43514],[127.21168,34.43111],[127.23593,34.4744],[127.22794,34.48927]]],[[[127.46163,34.47375],[127.4579,34.45176],[127.47914,34.45067],[127.49122,34.43297],[127.49271,34.41183],[127.51585,34.4222],[127.5299,34.42216],[127.53832,34.43329],[127.53591,34.44884],[127.50655,34.4676],[127.47234,34.46494],[127.46163,34.47375]]],[[[127.46545,34.5438],[127.45269,34.54171],[127.43409,34.51903],[127.45475,34.51123],[127.44423,34.49668],[127.45335,34.47878],[127.46933,34.48638],[127.4967,34.48481],[127.50676,34.49213],[127.49035,34.50874],[127.46179,34.5099],[127.47824,34.53498],[127.46545,34.5438]]],[[[126.15253,35.2902],[126.1324,35.28173],[126.1484,35.2711],[126.15253,35.2902]]],[[[126.02588,35.35965],[126.01724,35.35669],[126.03134,35.33493],[126.04144,35.34634],[126.02588,35.35965]]],[[[126.7296,34.3791],[126.70156,34.39856],[126.68508,34.40317],[126.65422,34.39332],[126.63868,34.38211],[126.64895,34.3337],[126.66519,34.32379],[126.69381,34.29352],[126.73452,34.29938],[126.74829,34.29119],[126.76339,34.29787],[126.77221,34.31234],[126.75464,34.31563],[126.73147,34.35189],[126.7296,34.3791]]],[[[127.03487,34.3761],[127.01112,34.37715],[127.00651,34.35821],[127.03573,34.33698],[127.03775,34.31009],[127.05595,34.32901],[127.08256,34.3364],[127.09101,34.35848],[127.05079,34.36406],[127.03487,34.3761]]],[[[126.56819,34.23443],[126.56529,34.21873],[126.55298,34.20656],[126.56028,34.17891],[126.58687,34.17226],[126.61664,34.18053],[126.61152,34.19249],[126.62511,34.20277],[126.60794,34.22423],[126.58688,34.22397],[126.56819,34.23443]]],[[[126.8395,34.35315],[126.8185,34.34835],[126.80263,34.33364],[126.78763,34.3474],[126.77993,34.32751],[126.79878,34.31829],[126.80868,34.32611],[126.8317,34.32354],[126.84534,34.29827],[126.8651,34.3127],[126.88381,34.31041],[126.89753,34.33189],[126.88114,34.33717],[126.86917,34.35065],[126.84775,34.34538],[126.8395,34.35315]]],[[[126.83341,34.43322],[126.83466,34.44411],[126.80124,34.43172],[126.78838,34.43331],[126.77479,34.42176],[126.75527,34.38649],[126.77212,34.37522],[126.80329,34.38529],[126.83021,34.37765],[126.85399,34.39238],[126.85748,34.40717],[126.84046,34.41095],[126.84558,34.43049],[126.83341,34.43322]]],[[[126.94371,34.41299],[126.93083,34.3906],[126.88185,34.40432],[126.86378,34.37457],[126.88667,34.36197],[126.9176,34.35577],[126.93361,34.37055],[126.95064,34.40195],[126.94371,34.41299]]],[[[126.93077,33.98718],[126.90961,33.98229],[126.91723,33.96869],[126.93518,33.96916],[126.93077,33.98718]]],[[[126.76984,34.19038],[126.76935,34.20412],[126.75474,34.20782],[126.74959,34.18815],[126.76984,34.19038]]],[[[126.89596,34.21235],[126.87194,34.21],[126.84693,34.17422],[126.84839,34.16264],[126.86946,34.16604],[126.88238,34.14973],[126.91545,34.15424],[126.9252,34.17462],[126.91047,34.18992],[126.91193,34.21256],[126.89596,34.21235]]],[[[126.6612,34.1949],[126.6333,34.18654],[126.6475,34.16806],[126.63178,34.15348],[126.63444,34.12688],[126.66296,34.11124],[126.66753,34.12634],[126.68149,34.13978],[126.66987,34.14983],[126.66871,34.16281],[126.68188,34.18533],[126.6612,34.1949]]],[[[126.62689,34.23878],[126.60423,34.24963],[126.593,34.23424],[126.62689,34.23878]]],[[[127.04766,34.4571],[127.03233,34.44951],[127.03639,34.4237],[127.05877,34.41323],[127.07513,34.42136],[127.06588,34.4516],[127.04766,34.4571]]],[[[126.54925,34.17951],[126.54012,34.18254],[126.51545,34.1699],[126.50456,34.13733],[126.52466,34.12089],[126.54778,34.12662],[126.57959,34.15688],[126.59676,34.15731],[126.61698,34.1483],[126.61857,34.16513],[126.5629,34.17029],[126.54925,34.17951]]],[[[126.98877,34.33734],[126.97074,34.33945],[126.95738,34.32938],[126.95686,34.31269],[126.9763,34.30219],[126.99815,34.31357],[127.015,34.33212],[126.98877,34.33734]]],[[[126.20642,34.49831],[126.17321,34.49502],[126.17251,34.48469],[126.14503,34.47576],[126.11608,34.45853],[126.08899,34.41862],[126.1171,34.37897],[126.13291,34.38524],[126.1377,34.37024],[126.1559,34.36531],[126.16288,34.35294],[126.18096,34.35081],[126.20305,34.35763],[126.24348,34.37847],[126.27158,34.39637],[126.28471,34.39459],[126.28425,34.37973],[126.29904,34.36893],[126.30343,34.39059],[126.29147,34.40305],[126.33774,34.4036],[126.34254,34.41556],[126.36548,34.44302],[126.35817,34.45614],[126.37209,34.47027],[126.37891,34.4869],[126.37738,34.51257],[126.35132,34.52753],[126.34548,34.54244],[126.32545,34.54133],[126.30351,34.55588],[126.30923,34.5653],[126.28989,34.57784],[126.25021,34.5895],[126.23981,34.57049],[126.26099,34.54819],[126.24219,34.53205],[126.22781,34.53608],[126.19899,34.51107],[126.20642,34.49831]]],[[[126.05393,34.25013],[126.04528,34.23118],[126.05857,34.22761],[126.06511,34.24143],[126.05393,34.25013]]],[[[126.04034,34.31885],[126.02398,34.31327],[126.01514,34.29113],[126.02343,34.28516],[126.06853,34.27643],[126.09213,34.29114],[126.08034,34.30805],[126.06044,34.3049],[126.04034,34.31885]]],[[[126.03019,34.34058],[126.00088,34.33782],[126.01095,34.32124],[126.05874,34.3237],[126.05362,34.33214],[126.03019,34.34058]]],[[[126.05859,34.49672],[126.04747,34.49617],[126.03895,34.48084],[126.05321,34.47192],[126.06631,34.47503],[126.05859,34.49672]]],[[[126.25192,35.00613],[126.24929,34.97285],[126.27075,34.97617],[126.27023,34.9939],[126.25192,35.00613]]],[[[126.1552,35.05614],[126.13353,35.05173],[126.14862,35.03361],[126.19518,35.02801],[126.16973,35.05579],[126.1552,35.05614]]],[[[126.30344,34.91923],[126.28061,34.90969],[126.29517,34.9015],[126.30368,34.88722],[126.27821,34.87324],[126.26417,34.85931],[126.24339,34.85874],[126.22659,34.84747],[126.26557,34.84152],[126.27549,34.85517],[126.3343,34.84837],[126.33816,34.8162],[126.35757,34.81461],[126.37148,34.84739],[126.35661,34.86402],[126.32104,34.86219],[126.31952,34.88367],[126.34301,34.8945],[126.33838,34.90796],[126.30344,34.91923]]],[[[126.23859,34.93299],[126.22696,34.93723],[126.21999,34.91906],[126.23469,34.90939],[126.25142,34.92038],[126.23859,34.93299]]],[[[126.27451,34.96938],[126.27654,34.94787],[126.30051,34.938],[126.2888,34.96263],[126.27451,34.96938]]],[[[126.21471,34.98635],[126.20092,34.97761],[126.18796,34.94611],[126.19467,34.91481],[126.21275,34.93656],[126.23063,34.97994],[126.21471,34.98635]]],[[[126.14477,35.026],[126.1265,35.02689],[126.1009,35.00039],[126.11581,34.99552],[126.13321,35.0014],[126.13519,34.96752],[126.1235,34.95087],[126.15797,34.93789],[126.17459,34.94597],[126.18766,34.98651],[126.16524,35.02274],[126.14477,35.026]]],[[[126.16195,35.14358],[126.11798,35.1429],[126.08483,35.11162],[126.04838,35.10256],[126.04148,35.08527],[126.04802,35.06109],[126.07259,35.05982],[126.07814,35.05245],[126.10518,35.05508],[126.11857,35.0613],[126.12344,35.0758],[126.121,35.09663],[126.12804,35.11624],[126.14528,35.13738],[126.16195,35.14358]]],[[[126.06265,34.93567],[126.05577,34.91594],[126.00968,34.90341],[125.98927,34.87719],[125.99712,34.86495],[126.05027,34.85338],[126.08534,34.86362],[126.09579,34.8753],[126.10407,34.90108],[126.09187,34.92319],[126.06265,34.93567]]],[[[125.99708,34.80471],[125.97395,34.8033],[125.96697,34.79159],[125.93639,34.77629],[125.90869,34.77654],[125.88867,34.76517],[125.88737,34.73659],[125.90968,34.71557],[125.94242,34.72142],[125.94598,34.74446],[125.99861,34.75993],[126.00054,34.78857],[125.99708,34.80471]]],[[[125.85385,34.61901],[125.83258,34.62166],[125.82246,34.61134],[125.84256,34.597],[125.86269,34.60539],[125.85385,34.61901]]],[[[125.96866,34.72761],[125.96501,34.73536],[125.93716,34.71624],[125.91862,34.71173],[125.91562,34.67734],[125.96533,34.65645],[125.98121,34.66387],[125.98801,34.6782],[126.00839,34.68443],[126.01468,34.71041],[125.9993,34.73155],[125.97634,34.72141],[125.96866,34.72761]]],[[[125.10278,34.09593],[125.09381,34.08737],[125.09446,34.06894],[125.11244,34.0628],[125.11559,34.05122],[125.13474,34.0465],[125.14594,34.05268],[125.10278,34.09593]]],[[[125.39529,34.69742],[125.36022,34.67472],[125.37069,34.66574],[125.39529,34.69742]]],[[[125.44219,34.70045],[125.41297,34.69854],[125.39806,34.67701],[125.38453,34.6438],[125.39295,34.62823],[125.41378,34.62245],[125.41475,34.63852],[125.43028,34.64373],[125.42744,34.6587],[125.44491,34.66288],[125.44809,34.68056],[125.4654,34.69342],[125.44219,34.70045]]],[[[125.20713,34.68529],[125.21546,34.70522],[125.1993,34.71075],[125.19195,34.68652],[125.20713,34.68529]]],[[[125.45552,34.74329],[125.45393,34.71984],[125.47734,34.72915],[125.45552,34.74329]]],[[[126.04874,34.65935],[126.02822,34.64691],[126.02852,34.63648],[126.00984,34.63137],[126.01648,34.61708],[126.01048,34.6064],[126.02644,34.59291],[126.01482,34.58588],[126.01947,34.56359],[126.05481,34.56757],[126.06532,34.58294],[126.05655,34.60264],[126.0374,34.61488],[126.05134,34.64078],[126.04874,34.65935]]],[[[126.08142,34.68856],[126.06463,34.68473],[126.06369,34.65493],[126.07909,34.64339],[126.08651,34.66899],[126.08142,34.68856]]],[[[126.08326,34.61371],[126.06524,34.63516],[126.0492,34.62893],[126.04785,34.60846],[126.06395,34.60796],[126.08036,34.57826],[126.06482,34.56136],[126.04604,34.56554],[126.038,34.55736],[126.03848,34.53795],[126.05737,34.5308],[126.1023,34.55886],[126.09615,34.57386],[126.11111,34.58941],[126.10337,34.60493],[126.08326,34.61371]]],[[[126.14745,34.67399],[126.11744,34.66438],[126.10816,34.64662],[126.12817,34.6201],[126.16191,34.61605],[126.19078,34.63218],[126.18439,34.66241],[126.14745,34.67399]]],[[[126.1993,34.6949],[126.19558,34.7059],[126.15951,34.69348],[126.16089,34.68005],[126.18115,34.67272],[126.19663,34.68339],[126.1993,34.6949]]],[[[126.08124,34.77889],[126.06791,34.77199],[126.08002,34.75302],[126.07287,34.74702],[126.06764,34.71706],[126.07393,34.70809],[126.10888,34.69606],[126.11994,34.68271],[126.14545,34.68629],[126.1542,34.69656],[126.17297,34.7006],[126.19628,34.71945],[126.19369,34.73185],[126.16291,34.75833],[126.13838,34.7584],[126.12396,34.7758],[126.09679,34.77135],[126.08124,34.77889]]],[[[126.17028,34.80323],[126.15649,34.82322],[126.13517,34.80095],[126.11631,34.79275],[126.09984,34.79256],[126.09954,34.77766],[126.12346,34.77951],[126.13576,34.76233],[126.17503,34.76223],[126.17028,34.80323]]],[[[126.11579,34.88217],[126.10828,34.85014],[126.08672,34.86087],[126.07532,34.85122],[126.05837,34.84959],[126.09059,34.81499],[126.09561,34.80269],[126.11437,34.80042],[126.12264,34.81045],[126.11461,34.82527],[126.1246,34.8359],[126.13957,34.835],[126.15104,34.84543],[126.13478,34.85288],[126.15716,34.86643],[126.14083,34.87812],[126.11579,34.88217]]]]},"properties":{"code":"12","name":"전남광주통합특별시"}},{"type":"Feature","geometry":{"type":"MultiPolygon","coordinates":[[[[127.20292,36.72618],[127.20774,36.71918],[127.23609,36.70736],[127.24812,36.69507],[127.27033,36.69428],[127.28563,36.69093],[127.30812,36.70502],[127.31697,36.72482],[127.31723,36.72493],[127.33555,36.75236],[127.35883,36.76068],[127.38718,36.75947],[127.40464,36.74494],[127.41958,36.75757],[127.41252,36.77184],[127.39503,36.78447],[127.40101,36.79909],[127.38168,36.81379],[127.35796,36.82213],[127.33299,36.83148],[127.3366,36.8536],[127.30735,36.85967],[127.30975,36.88116],[127.29061,36.89227],[127.2898,36.89382],[127.27176,36.91331],[127.24402,36.9174],[127.21129,36.93831],[127.20189,36.95211],[127.17587,36.96106],[127.15677,36.96723],[127.1195,36.96913],[127.10443,36.96611],[127.07393,36.93839],[127.06064,36.93952],[127.03173,36.92834],[127.01586,36.93446],[126.98533,36.93247],[126.94323,36.918],[126.91706,36.90536],[126.90896,36.90491],[126.9119,36.89041],[126.88064,36.88806],[126.8479,36.87745],[126.84712,36.86276],[126.8318,36.86196],[126.82647,36.88665],[126.8166,36.89669],[126.81317,36.9216],[126.80084,36.92611],[126.78034,36.96751],[126.78253,36.97569],[126.71858,36.99234],[126.70462,36.99955],[126.63958,36.99809],[126.59807,37.01682],[126.52905,37.04371],[126.51953,37.05939],[126.4983,37.06527],[126.45356,37.0256],[126.47913,36.99677],[126.4866,36.98281],[126.4833,36.97013],[126.48914,36.93291],[126.47678,36.90533],[126.47754,36.91031],[126.48705,36.93489],[126.47798,36.96874],[126.45059,37.00602],[126.42571,37.01487],[126.36919,37.01127],[126.32549,36.9936],[126.33849,36.97503],[126.33401,36.95974],[126.38068,36.944],[126.41048,36.92363],[126.41342,36.89417],[126.39782,36.88127],[126.36669,36.87978],[126.37086,36.86632],[126.35604,36.84904],[126.3456,36.85832],[126.32743,36.86047],[126.321,36.83751],[126.33443,36.81501],[126.28312,36.81685],[126.31232,36.8308],[126.31781,36.83803],[126.29447,36.84297],[126.29643,36.85248],[126.32053,36.89209],[126.30311,36.91681],[126.31018,36.92926],[126.30265,36.94174],[126.31374,36.95481],[126.30842,36.97398],[126.28356,36.97078],[126.29187,36.92784],[126.28397,36.90318],[126.26967,36.88342],[126.25269,36.87944],[126.24834,36.86672],[126.22091,36.88069],[126.24185,36.88853],[126.24818,36.91064],[126.20867,36.9004],[126.19528,36.88808],[126.18828,36.86788],[126.19339,36.84932],[126.17527,36.83585],[126.18633,36.82303],[126.17213,36.83811],[126.15818,36.8283],[126.14215,36.78906],[126.11649,36.77417],[126.11309,36.76415],[126.13352,36.74076],[126.12123,36.7248],[126.13786,36.71907],[126.15288,36.73388],[126.15184,36.74862],[126.16481,36.75751],[126.18465,36.75294],[126.19564,36.73816],[126.21251,36.73874],[126.22113,36.72194],[126.2077,36.70617],[126.18469,36.71692],[126.16581,36.71735],[126.14609,36.70373],[126.14923,36.68624],[126.13064,36.6885],[126.12916,36.66962],[126.17285,36.67817],[126.19736,36.67451],[126.21181,36.69241],[126.2301,36.69314],[126.24175,36.70261],[126.23571,36.71643],[126.25728,36.71659],[126.27127,36.72924],[126.27231,36.70532],[126.26148,36.6969],[126.26324,36.67386],[126.28594,36.66264],[126.29634,36.62956],[126.28487,36.61835],[126.28188,36.59582],[126.29177,36.58397],[126.34074,36.61556],[126.34962,36.63221],[126.3401,36.67223],[126.33981,36.70094],[126.3461,36.72112],[126.34832,36.67441],[126.36091,36.6691],[126.36447,36.62685],[126.37301,36.61939],[126.39472,36.61839],[126.41072,36.60257],[126.42388,36.60028],[126.44415,36.64422],[126.44186,36.66705],[126.45348,36.6937],[126.46224,36.68445],[126.46591,36.64397],[126.45677,36.62629],[126.47383,36.61722],[126.47625,36.60563],[126.45133,36.59651],[126.44763,36.58688],[126.45318,36.55384],[126.47777,36.52007],[126.48895,36.51775],[126.47342,36.50325],[126.4825,36.45273],[126.49698,36.42945],[126.48646,36.40237],[126.4792,36.38523],[126.5091,36.38023],[126.5498,36.35371],[126.56135,36.3516],[126.54422,36.33952],[126.51626,36.33212],[126.50302,36.32305],[126.51906,36.29737],[126.5344,36.28677],[126.54642,36.26888],[126.54065,36.26071],[126.53034,36.23933],[126.52955,36.22157],[126.53653,36.20018],[126.56741,36.19465],[126.56594,36.18797],[126.53101,36.19468],[126.52696,36.1768],[126.51095,36.16037],[126.54288,36.14559],[126.55625,36.12853],[126.57257,36.13937],[126.59169,36.12786],[126.60762,36.10472],[126.6254,36.10101],[126.64583,36.08921],[126.63285,36.08183],[126.63212,36.05487],[126.6441,36.05564],[126.66031,36.03999],[126.66061,36.01092],[126.7348,36.00085],[126.73482,36.00088],[126.7448,36.01814],[126.75667,36.02576],[126.78822,36.03068],[126.81333,36.03557],[126.84363,36.05245],[126.86358,36.06057],[126.87012,36.06925],[126.8749,36.0915],[126.87328,36.11293],[126.89035,36.13937],[126.91452,36.14138],[126.91898,36.13917],[126.93916,36.15132],[126.95698,36.15642],[126.97469,36.14854],[127.00345,36.14914],[127.03002,36.13671],[127.03959,36.14233],[127.0461,36.14378],[127.06058,36.11984],[127.06303,36.09211],[127.09093,36.07197],[127.10178,36.0757],[127.12991,36.06565],[127.13716,36.08685],[127.15125,36.08992],[127.16868,36.08394],[127.17939,36.09418],[127.1961,36.08594],[127.20547,36.10054],[127.21936,36.09696],[127.24626,36.09478],[127.25161,36.11226],[127.27348,36.10757],[127.29447,36.11297],[127.30237,36.12545],[127.323,36.13009],[127.33848,36.13049],[127.35497,36.10831],[127.36,36.08951],[127.36114,36.05331],[127.37308,36.04352],[127.37783,36.02282],[127.40115,36.0079],[127.42627,36.02647],[127.4373,36.02051],[127.45598,35.98378],[127.46822,35.98774],[127.48761,35.97802],[127.52473,35.98557],[127.54018,36.01173],[127.53165,36.04114],[127.59151,36.02449],[127.60495,36.0116],[127.62756,36.03144],[127.61874,36.04251],[127.61998,36.06129],[127.63776,36.06836],[127.61797,36.09634],[127.61957,36.10902],[127.60385,36.1171],[127.5902,36.13383],[127.60174,36.16159],[127.59345,36.17748],[127.59812,36.18435],[127.59284,36.19515],[127.5978,36.21741],[127.58532,36.22976],[127.57041,36.2329],[127.54662,36.23017],[127.54979,36.23832],[127.53249,36.25022],[127.5182,36.24069],[127.49277,36.23809],[127.46712,36.22243],[127.44281,36.19406],[127.42236,36.20829],[127.40827,36.21306],[127.40057,36.23182],[127.38788,36.23447],[127.38881,36.26551],[127.37241,36.27218],[127.36101,36.26446],[127.36451,36.24348],[127.35946,36.21392],[127.33143,36.18432],[127.31445,36.22242],[127.29376,36.22312],[127.27808,36.24407],[127.29177,36.26419],[127.26107,36.27585],[127.25315,36.28114],[127.24683,36.29044],[127.25921,36.29623],[127.25975,36.32721],[127.26801,36.33159],[127.27789,36.34893],[127.27897,36.38157],[127.27884,36.39624],[127.28231,36.41454],[127.26549,36.41717],[127.2508,36.40676],[127.24226,36.41862],[127.22564,36.42229],[127.21248,36.43539],[127.19909,36.44005],[127.20473,36.45929],[127.19048,36.47947],[127.19468,36.48959],[127.17351,36.49927],[127.17002,36.50904],[127.18199,36.52191],[127.17267,36.53614],[127.20768,36.57821],[127.19296,36.58175],[127.18894,36.59439],[127.15559,36.60614],[127.15056,36.62043],[127.15795,36.63517],[127.15477,36.66486],[127.1644,36.67834],[127.1575,36.69531],[127.14247,36.69113],[127.12771,36.70858],[127.15925,36.73168],[127.20292,36.72618]]],[[[126.42603,36.38587],[126.38468,36.38015],[126.39637,36.36748],[126.459,36.35455],[126.42603,36.38587]]],[[[126.42897,37.06397],[126.423,37.04051],[126.44348,37.04437],[126.45057,37.05433],[126.42897,37.06397]]],[[[126.36421,36.43943],[126.35066,36.42436],[126.37074,36.41017],[126.40636,36.41388],[126.42183,36.39977],[126.4354,36.41853],[126.42427,36.45684],[126.42727,36.46213],[126.39664,36.51917],[126.39068,36.55052],[126.39869,36.58234],[126.38487,36.60639],[126.36091,36.61144],[126.33513,36.60629],[126.31036,36.58518],[126.31004,36.56877],[126.32094,36.55833],[126.3338,36.4914],[126.33382,36.43733],[126.36421,36.43943]]]]},"properties":{"code":"44","name":"충청남도"}},{"type":"Feature","geometry":{"type":"MultiPolygon","coordinates":[[[[129.57823,36.03234],[129.56956,36.07916],[129.54572,36.08378],[129.54047,36.06769],[129.5235,36.05452],[129.50411,36.03672],[129.50326,36.02622],[129.47395,36.01312],[129.44632,35.99184],[129.43198,35.99615],[129.41634,36.00568],[129.41688,36.01228],[129.38405,36.02982],[129.37368,36.04956],[129.37852,36.05563],[129.39578,36.06331],[129.41797,36.07352],[129.41721,36.08167],[129.44086,36.11087],[129.42584,36.11371],[129.39775,36.13489],[129.39773,36.16858],[129.3923,36.18398],[129.37716,36.18971],[129.37258,36.20711],[129.38624,36.21811],[129.38601,36.23866],[129.37316,36.25462],[129.37627,36.2683],[129.38047,36.3345],[129.38936,36.35676],[129.42075,36.39856],[129.43059,36.40959],[129.43617,36.47103],[129.44524,36.48871],[129.44419,36.51226],[129.4407,36.55182],[129.4264,36.56609],[129.41058,36.59473],[129.4122,36.62243],[129.42375,36.64326],[129.43741,36.66976],[129.46771,36.68956],[129.47673,36.69962],[129.46949,36.74801],[129.47894,36.76808],[129.4632,36.78827],[129.45744,36.81541],[129.42739,36.85245],[129.42059,36.8708],[129.41638,36.9101],[129.41987,36.95126],[129.4094,36.97825],[129.42,36.99311],[129.41016,37.03063],[129.41333,37.04787],[129.42719,37.06405],[129.40319,37.07886],[129.37956,37.10024],[129.38152,37.12017],[129.3641,37.14636],[129.32473,37.14171],[129.29819,37.12454],[129.29446,37.11441],[129.272,37.11702],[129.26605,37.10231],[129.24963,37.09588],[129.23113,37.07688],[129.2294,37.05587],[129.23806,37.03882],[129.22509,37.04454],[129.18544,37.04209],[129.16522,37.06975],[129.15523,37.07002],[129.11878,37.09292],[129.0958,37.10046],[129.07294,37.09088],[129.06169,37.06557],[129.03431,37.07576],[128.99372,37.08355],[128.96031,37.07744],[128.94463,37.09506],[128.92054,37.09066],[128.90973,37.06687],[128.89737,37.05787],[128.89573,37.0449],[128.87757,37.05264],[128.84663,37.05216],[128.82698,37.0781],[128.80287,37.08536],[128.77322,37.08735],[128.76501,37.06399],[128.75202,37.05754],[128.76172,37.03523],[128.75137,37.02832],[128.73474,37.04014],[128.70894,37.03923],[128.68867,37.05307],[128.65223,37.06546],[128.63029,37.039],[128.61927,37.04955],[128.60679,37.0434],[128.58386,37.04389],[128.56516,37.03087],[128.56992,37.01373],[128.55471,36.99823],[128.51449,36.98681],[128.51363,36.97681],[128.48496,36.95746],[128.47713,36.95754],[128.46324,36.94745],[128.4602,36.93401],[128.44187,36.9279],[128.44011,36.90137],[128.42695,36.88931],[128.42441,36.87647],[128.44892,36.86339],[128.44911,36.84891],[128.43432,36.83402],[128.42065,36.81142],[128.38182,36.81398],[128.36659,36.80064],[128.33423,36.81697],[128.31663,36.81661],[128.30857,36.82874],[128.29663,36.83444],[128.28201,36.85663],[128.24192,36.87279],[128.23396,36.8557],[128.21546,36.84899],[128.21699,36.81305],[128.15602,36.82331],[128.13959,36.83424],[128.13366,36.83222],[128.11223,36.81889],[128.10678,36.80579],[128.08151,36.80677],[128.05956,36.8168],[128.05512,36.79318],[128.03248,36.74752],[128.06895,36.72167],[128.07224,36.70809],[128.04877,36.70755],[128.02222,36.72587],[128.00262,36.71663],[127.9868,36.7175],[127.96077,36.73678],[127.94912,36.70596],[127.93167,36.70632],[127.92769,36.68979],[127.88735,36.69131],[127.89204,36.68231],[127.91293,36.67775],[127.93232,36.66515],[127.93919,36.64963],[127.93164,36.61794],[127.92044,36.60365],[127.90973,36.62573],[127.88941,36.62946],[127.88915,36.64028],[127.87407,36.65539],[127.86158,36.63423],[127.84801,36.63336],[127.84961,36.61277],[127.82379,36.61255],[127.79841,36.60228],[127.80465,36.58166],[127.82388,36.5708],[127.83013,36.5744],[127.86214,36.56741],[127.87336,36.55526],[127.87412,36.53731],[127.90193,36.52817],[127.90676,36.50753],[127.88047,36.49327],[127.87838,36.46709],[127.87303,36.44171],[127.88284,36.4235],[127.86363,36.40308],[127.88423,36.37934],[127.87963,36.37151],[127.89133,36.35955],[127.88145,36.34486],[127.85209,36.3304],[127.84495,36.31626],[127.85232,36.27389],[127.88429,36.27367],[127.89204,36.29217],[127.90509,36.30238],[127.90705,36.28608],[127.93091,36.27822],[127.9473,36.26723],[127.94825,36.25745],[127.96861,36.25039],[127.98217,36.2642],[128.01187,36.27144],[128.02623,36.26787],[128.04466,36.25268],[128.03005,36.24031],[128.05069,36.20592],[128.06296,36.19922],[128.03835,36.194],[128.01352,36.20913],[127.98602,36.2004],[127.97569,36.18854],[127.99647,36.15369],[127.98733,36.14739],[127.98764,36.12962],[127.96648,36.11849],[127.96857,36.10722],[127.95784,36.09489],[127.96139,36.06839],[127.93167,36.05022],[127.91706,36.0544],[127.90355,36.03897],[127.88798,36.0348],[127.87693,36.02244],[127.87581,35.99672],[127.89374,35.98447],[127.90402,35.95452],[127.91147,35.94945],[127.90646,35.94057],[127.88222,35.92774],[127.88761,35.91458],[127.88306,35.89929],[127.8933,35.88659],[127.9134,35.89046],[127.92812,35.88114],[127.93317,35.8642],[127.97115,35.85117],[127.98181,35.8589],[127.99741,35.83775],[128.01214,35.82886],[128.03162,35.83571],[128.05084,35.82926],[128.07871,35.83893],[128.09068,35.83081],[128.12527,35.82276],[128.12169,35.80357],[128.12881,35.78937],[128.15477,35.78649],[128.16406,35.77703],[128.16142,35.76974],[128.18926,35.75234],[128.19789,35.73667],[128.20446,35.69736],[128.1793,35.67302],[128.16002,35.66713],[128.15777,35.65795],[128.16373,35.65349],[128.18406,35.65847],[128.2011,35.64376],[128.22967,35.63945],[128.24392,35.65552],[128.2611,35.64269],[128.27669,35.64673],[128.29726,35.65619],[128.35492,35.64247],[128.36305,35.62858],[128.36235,35.61189],[128.37077,35.61116],[128.3861,35.61241],[128.40168,35.63207],[128.40294,35.64192],[128.38161,35.65529],[128.35877,35.67691],[128.35069,35.69416],[128.35965,35.7075],[128.37517,35.70249],[128.41784,35.69312],[128.43317,35.70302],[128.4341,35.71881],[128.41656,35.73663],[128.39264,35.74553],[128.38644,35.76335],[128.40229,35.78437],[128.41094,35.80028],[128.42028,35.80936],[128.47226,35.80953],[128.48043,35.81775],[128.47719,35.82751],[128.47064,35.833],[128.45631,35.843],[128.42132,35.85139],[128.39009,35.85037],[128.38548,35.86524],[128.39371,35.88304],[128.40334,35.8891],[128.42492,35.92791],[128.44117,35.93482],[128.47568,35.936],[128.46795,35.89982],[128.50415,35.89059],[128.50517,35.903],[128.52966,35.92358],[128.5338,35.93466],[128.53463,35.95844],[128.52879,35.98045],[128.55285,35.96074],[128.55624,35.97059],[128.60302,35.98616],[128.60384,35.98853],[128.61724,36.00511],[128.64061,36.01055],[128.62129,36.02582],[128.62935,36.05124],[128.62411,36.08163],[128.59785,36.07577],[128.56918,36.06068],[128.56345,36.07261],[128.56874,36.08978],[128.5631,36.11168],[128.54864,36.13098],[128.55745,36.17805],[128.52287,36.20069],[128.50435,36.18499],[128.49472,36.19771],[128.48609,36.23122],[128.47797,36.23395],[128.44078,36.21801],[128.42382,36.23665],[128.41657,36.25763],[128.42652,36.27367],[128.41125,36.28751],[128.42776,36.29913],[128.45555,36.32673],[128.47321,36.31212],[128.52926,36.29387],[128.54553,36.29162],[128.5519,36.27491],[128.57636,36.27964],[128.59552,36.27707],[128.63637,36.26118],[128.63105,36.23878],[128.63589,36.2242],[128.63992,36.20809],[128.66339,36.22144],[128.69985,36.20876],[128.69668,36.20239],[128.7277,36.20077],[128.77004,36.19347],[128.79049,36.19486],[128.80392,36.20996],[128.83004,36.21764],[128.85186,36.21488],[128.88246,36.199],[128.88121,36.19013],[128.89605,36.17344],[128.90009,36.16255],[128.89151,36.14339],[128.8591,36.14531],[128.85099,36.13843],[128.85017,36.11887],[128.83085,36.10262],[128.81636,36.09228],[128.79102,36.08673],[128.74509,36.10915],[128.7252,36.09038],[128.70256,36.05562],[128.69684,36.03537],[128.69525,36.0163],[128.72328,36.00595],[128.73516,35.9929],[128.74606,35.97081],[128.73903,35.95532],[128.74557,35.94437],[128.74108,35.93769],[128.73788,35.92983],[128.74446,35.92192],[128.75661,35.91485],[128.75998,35.87472],[128.76004,35.86546],[128.74073,35.85173],[128.72613,35.85712],[128.72618,35.84423],[128.7233,35.83529],[128.71252,35.83053],[128.71769,35.80671],[128.68258,35.7899],[128.69438,35.74388],[128.68339,35.72176],[128.66375,35.72055],[128.64623,35.70843],[128.62068,35.70428],[128.61029,35.72535],[128.61666,35.73712],[128.56615,35.73647],[128.54408,35.71928],[128.52714,35.71361],[128.53349,35.68208],[128.52641,35.68238],[128.5365,35.62365],[128.55805,35.61494],[128.55969,35.60325],[128.59344,35.58433],[128.5937,35.5845],[128.60685,35.58042],[128.65803,35.59774],[128.69128,35.59442],[128.69741,35.58212],[128.71521,35.57825],[128.72511,35.58057],[128.75394,35.57018],[128.78675,35.56609],[128.80047,35.5854],[128.82357,35.59632],[128.84301,35.58908],[128.87236,35.62108],[128.90741,35.63508],[128.91494,35.64541],[128.94095,35.63307],[128.96029,35.61928],[128.98565,35.60786],[129.00335,35.62014],[129.04731,35.65015],[129.07413,35.64009],[129.08107,35.64748],[129.06761,35.6618],[129.06949,35.68073],[129.08857,35.70202],[129.09103,35.70257],[129.13524,35.71193],[129.14572,35.7247],[129.16064,35.71488],[129.18152,35.72314],[129.20091,35.71602],[129.21405,35.71525],[129.23406,35.70358],[129.25604,35.70078],[129.26269,35.69145],[129.25517,35.66034],[129.2695,35.65104],[129.29581,35.6443],[129.30357,35.65697],[129.32399,35.65921],[129.33721,35.6689],[129.36455,35.67877],[129.37347,35.66984],[129.41263,35.66402],[129.45001,35.65095],[129.45707,35.66597],[129.47573,35.68574],[129.47305,35.70345],[129.48167,35.72246],[129.48472,35.74342],[129.49344,35.75166],[129.50964,35.82352],[129.51826,35.84194],[129.52769,35.86357],[129.51999,35.87269],[129.52761,35.89746],[129.5189,35.92716],[129.53015,35.93495],[129.5545,35.96788],[129.55219,35.98559],[129.58486,36.01653],[129.57823,36.03234]]],[[[130.90909,37.52837],[130.90936,37.54816],[130.89166,37.5406],[130.84668,37.53622],[130.80199,37.52052],[130.80114,37.49087],[130.81341,37.47423],[130.83112,37.46658],[130.8688,37.45885],[130.8745,37.4534],[130.88387,37.47086],[130.90694,37.47645],[130.91941,37.51348],[130.90909,37.52837]]]]},"properties":{"code":"47","name":"경상북도"}},{"type":"Feature","geometry":{"type":"MultiPolygon","coordinates":[[[[128.44026,34.82287],[128.42248,34.83815],[128.42559,34.84453],[128.44858,34.84551],[128.4602,34.8728],[128.47127,34.88457],[128.4608,34.90499],[128.44586,34.90573],[128.43426,34.88094],[128.42158,34.87396],[128.42059,34.89474],[128.43404,34.93185],[128.43145,34.95685],[128.44294,34.97281],[128.44127,34.98278],[128.40784,34.99352],[128.47856,34.99259],[128.50283,35.01434],[128.48239,35.0283],[128.48202,35.06608],[128.45232,35.07166],[128.44521,35.05156],[128.38917,35.03507],[128.38862,35.01717],[128.35499,35.00964],[128.3802,35.03958],[128.3741,35.04332],[128.37344,35.04964],[128.42242,35.05629],[128.44054,35.07187],[128.46159,35.07151],[128.46586,35.10108],[128.48853,35.10686],[128.51868,35.0969],[128.53547,35.11694],[128.54992,35.09553],[128.56895,35.09227],[128.56051,35.07665],[128.5744,35.05179],[128.60415,35.05511],[128.63675,35.06774],[128.62598,35.07549],[128.62313,35.09047],[128.60307,35.10415],[128.60097,35.13336],[128.57467,35.13327],[128.59405,35.13683],[128.58877,35.14855],[128.59166,35.15793],[128.57359,35.17529],[128.56504,35.18622],[128.56503,35.1869],[128.57068,35.19273],[128.58483,35.20645],[128.5865,35.20958],[128.61951,35.21251],[128.58923,35.19963],[128.59303,35.17334],[128.61163,35.14823],[128.62923,35.14856],[128.64888,35.13542],[128.67687,35.12412],[128.67847,35.14641],[128.68876,35.14737],[128.68878,35.14682],[128.6905,35.14665],[128.69644,35.13785],[128.70768,35.10461],[128.71466,35.09498],[128.73548,35.09343],[128.74184,35.07953],[128.75976,35.07181],[128.78002,35.08175],[128.77306,35.09893],[128.78888,35.10498],[128.78536,35.07948],[128.80949,35.08278],[128.83247,35.08631],[128.82288,35.09692],[128.8431,35.10913],[128.8344,35.1263],[128.81545,35.13256],[128.79362,35.15705],[128.81586,35.16038],[128.82801,35.15576],[128.87362,35.17436],[128.8802,35.17203],[128.88156,35.18294],[128.87039,35.20171],[128.88642,35.21463],[128.8972,35.21326],[128.91239,35.22256],[128.92349,35.21605],[128.93286,35.22214],[128.94712,35.22668],[128.98074,35.22853],[128.99761,35.23439],[129.00146,35.24212],[129.01261,35.27328],[129.05057,35.28006],[129.06,35.29548],[129.07356,35.29007],[129.097,35.30354],[129.10892,35.30507],[129.12824,35.3438],[129.12956,35.35916],[129.13851,35.36608],[129.17453,35.35147],[129.19358,35.36101],[129.19936,35.37575],[129.19451,35.38375],[129.20297,35.38787],[129.21986,35.40917],[129.2022,35.42999],[129.19636,35.43942],[129.16549,35.43229],[129.14566,35.44443],[129.13572,35.45645],[129.10963,35.4797],[129.10671,35.49496],[129.0947,35.49774],[129.052,35.51573],[129.0567,35.53111],[129.01144,35.52317],[128.9945,35.52899],[128.99762,35.5422],[128.98094,35.54661],[128.9709,35.56064],[128.99545,35.56895],[129.02018,35.58497],[129.02603,35.60069],[129.02186,35.61392],[129.00335,35.62014],[128.98565,35.60786],[128.96029,35.61928],[128.94095,35.63307],[128.91494,35.64541],[128.90741,35.63508],[128.87236,35.62108],[128.84301,35.58908],[128.82357,35.59632],[128.80047,35.5854],[128.78675,35.56609],[128.75394,35.57018],[128.72511,35.58057],[128.71521,35.57825],[128.69741,35.58212],[128.69128,35.59442],[128.65803,35.59774],[128.60685,35.58042],[128.5937,35.5845],[128.59344,35.58433],[128.55969,35.60325],[128.55805,35.61494],[128.5365,35.62365],[128.52641,35.68238],[128.50913,35.67458],[128.50621,35.63959],[128.48286,35.63574],[128.46113,35.64061],[128.45018,35.63803],[128.43191,35.62358],[128.39565,35.61426],[128.38167,35.60677],[128.37077,35.61116],[128.36235,35.61189],[128.36305,35.62858],[128.35492,35.64247],[128.29726,35.65619],[128.27669,35.64673],[128.2611,35.64269],[128.24392,35.65552],[128.22967,35.63945],[128.2011,35.64376],[128.18406,35.65847],[128.16373,35.65349],[128.15777,35.65795],[128.16002,35.66713],[128.1793,35.67302],[128.20446,35.69736],[128.19789,35.73667],[128.18926,35.75234],[128.16142,35.76974],[128.16406,35.77703],[128.15477,35.78649],[128.12881,35.78937],[128.12169,35.80357],[128.12527,35.82276],[128.09068,35.83081],[128.07871,35.83893],[128.05084,35.82926],[128.03162,35.83571],[128.01214,35.82886],[127.99741,35.83775],[127.98181,35.8589],[127.97115,35.85117],[127.93317,35.8642],[127.92812,35.88114],[127.9134,35.89046],[127.8933,35.88659],[127.88306,35.89929],[127.88761,35.91458],[127.85075,35.89005],[127.84094,35.86687],[127.82117,35.8654],[127.81273,35.85283],[127.80387,35.85718],[127.75753,35.83672],[127.74492,35.84392],[127.73865,35.82697],[127.71955,35.79741],[127.69965,35.78822],[127.67903,35.76927],[127.66906,35.77147],[127.6603,35.7384],[127.66077,35.70975],[127.64209,35.69277],[127.63893,35.66989],[127.62008,35.64272],[127.63547,35.61847],[127.62113,35.61501],[127.60757,35.59477],[127.61059,35.58486],[127.59459,35.57336],[127.58541,35.55459],[127.62576,35.53207],[127.63709,35.50919],[127.65084,35.49763],[127.65272,35.48567],[127.63722,35.47893],[127.6357,35.46231],[127.64507,35.44951],[127.6694,35.44734],[127.65936,35.41409],[127.63542,35.39982],[127.6224,35.3732],[127.61025,35.36579],[127.62286,35.34395],[127.62042,35.33233],[127.60551,35.31896],[127.57745,35.30896],[127.5958,35.26816],[127.61002,35.26191],[127.61839,35.23721],[127.62137,35.18851],[127.62474,35.18449],[127.6453,35.1613],[127.6681,35.15235],[127.6951,35.12976],[127.69494,35.12233],[127.6946,35.10308],[127.71887,35.08163],[127.73747,35.07808],[127.74032,35.06196],[127.75088,35.05715],[127.76869,35.05044],[127.77706,35.02563],[127.78715,35.01725],[127.7783,34.98886],[127.77777,34.98811],[127.76509,34.97279],[127.7852,34.9402],[127.81852,34.94362],[127.83861,34.95431],[127.84761,34.94634],[127.87163,34.94626],[127.89444,34.95781],[127.91155,34.98397],[127.92255,35.01404],[127.94275,34.99847],[127.9348,34.98182],[127.94779,34.97667],[127.96243,34.99263],[127.98276,34.97771],[127.99739,34.99599],[128.01538,34.99223],[128.01893,35.01007],[127.98752,35.03888],[127.97708,35.03365],[127.98531,35.04517],[128.00222,35.04215],[128.01481,35.02812],[128.02606,35.03341],[128.02643,35.05467],[128.04233,35.07397],[128.05647,35.08733],[128.05846,35.07678],[128.04541,35.06745],[128.0415,35.04702],[128.03837,35.03796],[128.04894,35.0115],[128.03867,34.99271],[128.04562,34.9672],[128.03272,34.95843],[128.03954,34.94163],[128.05334,34.92963],[128.07198,34.92716],[128.07185,34.92601],[128.08613,34.92672],[128.1194,34.92189],[128.1218,34.90442],[128.13273,34.88773],[128.15066,34.8987],[128.16355,34.89845],[128.20248,34.89415],[128.19687,34.91252],[128.20436,34.92491],[128.19598,34.93669],[128.2228,34.94631],[128.23508,34.9421],[128.24531,34.9439],[128.27001,34.93496],[128.26017,34.9268],[128.28314,34.90436],[128.30524,34.91875],[128.29999,34.93579],[128.32081,34.94402],[128.31777,34.96143],[128.34047,34.94836],[128.34416,34.93735],[128.34224,34.9251],[128.35549,34.9093],[128.29844,34.90252],[128.32838,34.87541],[128.36352,34.86979],[128.37618,34.89104],[128.38478,34.86847],[128.41578,34.86718],[128.4175,34.86006],[128.39048,34.86321],[128.3774,34.85166],[128.38583,34.83302],[128.4046,34.83188],[128.3842,34.82932],[128.37002,34.83428],[128.35627,34.82414],[128.37876,34.81536],[128.37605,34.79832],[128.40619,34.76249],[128.42101,34.7653],[128.43565,34.78184],[128.44196,34.80878],[128.44026,34.82287]]],[[[128.23564,34.65189],[128.22515,34.63247],[128.24224,34.62393],[128.27715,34.61932],[128.2966,34.63138],[128.23564,34.65189]]],[[[128.18242,34.70914],[128.18404,34.69038],[128.20179,34.70125],[128.18242,34.70914]]],[[[128.51736,34.766],[128.55216,34.74791],[128.55871,34.75998],[128.51736,34.766]]],[[[128.48377,34.81578],[128.46823,34.81766],[128.46285,34.79102],[128.4733,34.77103],[128.49173,34.7574],[128.51061,34.77056],[128.49751,34.78183],[128.48377,34.81578]]],[[[128.23775,34.83796],[128.21749,34.83906],[128.19839,34.81795],[128.21357,34.81512],[128.22551,34.79976],[128.24606,34.79916],[128.26387,34.81842],[128.23775,34.83796]]],[[[128.20307,34.85902],[128.17048,34.85377],[128.16678,34.84353],[128.18171,34.82671],[128.19911,34.83157],[128.21051,34.85224],[128.20307,34.85902]]],[[[128.73629,34.8452],[128.73004,34.85301],[128.74366,34.86887],[128.73443,34.89025],[128.72016,34.88298],[128.71842,34.87722],[128.69599,34.88135],[128.69672,34.89135],[128.72034,34.90944],[128.71726,34.92479],[128.72733,34.94697],[128.71658,34.96472],[128.69716,34.97312],[128.69436,34.9976],[128.71837,35.01016],[128.71293,35.03207],[128.67475,35.03124],[128.66751,35.00648],[128.65302,34.9877],[128.65795,34.98067],[128.64731,34.98071],[128.64653,35.00027],[128.63371,34.99952],[128.62231,34.98296],[128.63609,34.96588],[128.59739,34.96552],[128.5865,34.94252],[128.61121,34.92134],[128.62562,34.89765],[128.61816,34.89123],[128.59826,34.90094],[128.5859,34.91391],[128.54782,34.90839],[128.52525,34.92304],[128.51407,34.90913],[128.4839,34.88814],[128.47327,34.87031],[128.48157,34.84064],[128.50141,34.83319],[128.50081,34.82373],[128.51652,34.80811],[128.54144,34.83437],[128.56444,34.83428],[128.57317,34.85421],[128.58875,34.84636],[128.59078,34.82925],[128.58359,34.81718],[128.5836,34.79743],[128.55005,34.79375],[128.54204,34.77522],[128.56396,34.76567],[128.57799,34.77834],[128.59907,34.7672],[128.57867,34.76101],[128.57682,34.74105],[128.6056,34.73533],[128.60333,34.72664],[128.58028,34.71609],[128.61023,34.70112],[128.62554,34.71305],[128.63006,34.73169],[128.68359,34.73775],[128.66851,34.74579],[128.65289,34.74274],[128.64349,34.7581],[128.64132,34.77351],[128.65776,34.77402],[128.67435,34.78573],[128.66694,34.79293],[128.67346,34.81335],[128.69638,34.80694],[128.70902,34.81198],[128.72792,34.79254],[128.73737,34.79894],[128.71032,34.82876],[128.70403,34.84246],[128.71717,34.84946],[128.73629,34.8452]]],[[[128.5348,34.9418],[128.5223,34.95603],[128.53692,34.96601],[128.51851,34.97606],[128.51153,34.96408],[128.52483,34.9275],[128.5348,34.9418]]],[[[127.90271,34.86045],[127.90153,34.87996],[127.92289,34.8994],[127.93028,34.9146],[127.9216,34.93238],[127.89089,34.94713],[127.87041,34.94233],[127.85829,34.92229],[127.85063,34.90282],[127.82969,34.88781],[127.82673,34.87415],[127.8096,34.86421],[127.81272,34.83543],[127.82809,34.81598],[127.83894,34.78915],[127.83618,34.7503],[127.85525,34.74431],[127.86717,34.7261],[127.88663,34.72179],[127.90602,34.72719],[127.91339,34.73972],[127.90414,34.76567],[127.91826,34.76885],[127.94916,34.77729],[127.9438,34.74703],[127.95274,34.71538],[127.95916,34.70857],[127.98727,34.7113],[128.00952,34.72246],[128.02109,34.71057],[128.04467,34.70242],[128.05992,34.71007],[128.03561,34.72189],[128.03595,34.73146],[128.05696,34.74541],[128.05451,34.76478],[128.05129,34.79483],[128.06603,34.8128],[128.06056,34.82187],[128.03235,34.83042],[127.99795,34.83328],[127.9763,34.82552],[127.96329,34.80814],[127.94427,34.80974],[127.94209,34.82544],[127.92644,34.83075],[127.90271,34.86045]]],[[[128.03217,34.92073],[128.00701,34.91955],[127.98075,34.88585],[127.96143,34.86974],[127.96862,34.84356],[127.98727,34.8364],[128.02454,34.83978],[128.06345,34.83034],[128.06034,34.84619],[128.067,34.87034],[128.04797,34.89716],[128.02635,34.9023],[128.03217,34.92073]]]]},"properties":{"code":"48","name":"경상남도"}}]}