{"type":"FeatureCollection","features":[{"type":"Feature","geometry":{"type":"Polygon","coordinates":[[[127.21728,35.80164],[127.22822,35.8088],[127.23561,35.82149],[127.2195,35.81987],[127.20854,35.8292],[127.21022,35.84119],[127.19457,35.85877],[127.17405,35.8547],[127.1676,35.85699],[127.16659,35.85898],[127.15197,35.88059],[127.1479,35.89014],[127.13637,35.90046],[127.12763,35.90149],[127.11174,35.89793],[127.08864,35.89331],[127.07668,35.89815],[127.06421,35.89898],[127.05262,35.89208],[127.03723,35.89346],[127.02819,35.89783],[127.00032,35.89278],[126.99787,35.8837],[127.00655,35.87671],[127.00666,35.87045],[127.00553,35.86204],[127.0162,35.85923],[127.02466,35.86471],[127.03408,35.85073],[127.04988,35.85387],[127.05862,35.83828],[127.05624,35.82526],[127.06553,35.81853],[127.06746,35.80379],[127.06591,35.79076],[127.07435,35.77519],[127.05147,35.75966],[127.05955,35.75842],[127.07051,35.74223],[127.08518,35.72843],[127.09542,35.73732],[127.09621,35.74535],[127.10206,35.75187],[127.11587,35.74943],[127.13666,35.76097],[127.1463,35.7595],[127.14893,35.77318],[127.15342,35.77857],[127.16242,35.78394],[127.17885,35.77261],[127.18544,35.77915],[127.1994,35.77607],[127.19969,35.78603],[127.21194,35.79397],[127.21728,35.80164]]]},"properties":{"code":"52110","name":"전주시","bbox":[126.9975,35.7284,127.2357,35.90149],"labelPoint":[127.11617,35.86398]}},{"type":"Feature","geometry":{"type":"MultiPolygon","coordinates":[[[[126.71313,35.88927],[126.725,35.88577],[126.73634,35.89157],[126.74175,35.89003],[126.76305,35.89147],[126.76999,35.88901],[126.78415,35.90237],[126.80688,35.90814],[126.82812,35.90678],[126.83728,35.91156],[126.84749,35.92021],[126.8536,35.91679],[126.86076,35.91889],[126.88098,35.93832],[126.88183,35.94725],[126.89034,35.95268],[126.88521,35.96085],[126.9029,35.97205],[126.90947,35.98191],[126.90919,35.98354],[126.90777,35.98338],[126.91522,35.99676],[126.91479,36.00435],[126.90101,36.00786],[126.88401,36.02612],[126.8703,36.03283],[126.87292,36.03963],[126.86358,36.06057],[126.84363,36.05245],[126.8297,36.0469],[126.81333,36.03557],[126.79767,36.03077],[126.78822,36.03068],[126.77527,36.03164],[126.75667,36.02576],[126.7448,36.01814],[126.73482,36.00088],[126.7348,36.00085],[126.73225,35.99755],[126.72892,35.996],[126.72159,35.99541],[126.71371,35.99729],[126.70412,35.99969],[126.68011,35.99929],[126.68626,35.99324],[126.67569,35.99063],[126.66644,35.98406],[126.64279,35.97889],[126.6091,35.97853],[126.55109,35.97504],[126.52114,35.97102],[126.52566,35.93438],[126.53382,35.93248],[126.53704,35.94062],[126.54943,35.94314],[126.59508,35.9475],[126.61495,35.94267],[126.61038,35.9166],[126.61475,35.89105],[126.6307,35.8857],[126.65051,35.88412],[126.66767,35.88343],[126.67639,35.89466],[126.69913,35.89374],[126.71313,35.88927]]],[[[126.44057,35.8061],[126.43178,35.80226],[126.42122,35.80681],[126.41343,35.79867],[126.42512,35.79312],[126.44057,35.8061]]],[[[126.49065,35.84699],[126.49096,35.8382],[126.47561,35.82241],[126.45956,35.82612],[126.45538,35.83101],[126.44423,35.83168],[126.44479,35.8233],[126.45731,35.8145],[126.47034,35.81074],[126.48069,35.81208],[126.48074,35.81888],[126.49657,35.83318],[126.50045,35.84422],[126.49065,35.84699]]],[[[126.55711,36.04469],[126.54394,36.04447],[126.54071,36.03726],[126.55688,36.02989],[126.55711,36.04469]]],[[[125.98405,36.12318],[125.96654,36.12484],[125.97343,36.11202],[125.99341,36.11161],[125.9949,36.12245],[125.98405,36.12318]]]]},"properties":{"code":"52130","name":"군산시","bbox":[125.96651,35.79312,126.91551,36.12757],"labelPoint":[126.77205,35.95756]}},{"type":"Feature","geometry":{"type":"Polygon","coordinates":[[[126.89034,35.95268],[126.88183,35.94725],[126.88098,35.93832],[126.86076,35.91889],[126.8536,35.91679],[126.85493,35.90897],[126.86681,35.90773],[126.89209,35.9151],[126.90572,35.90532],[126.92332,35.90834],[126.93261,35.91157],[126.94136,35.91204],[126.94634,35.91033],[126.97214,35.89788],[126.9813,35.8982],[126.99416,35.89219],[126.99787,35.8837],[127.00032,35.89278],[127.02819,35.89783],[127.03723,35.89346],[127.02972,35.91855],[127.04306,35.92584],[127.05708,35.92091],[127.06618,35.9158],[127.0806,35.92149],[127.09421,35.93554],[127.09458,35.94034],[127.10641,35.96042],[127.10426,35.96451],[127.10852,35.98376],[127.10734,35.99553],[127.12516,36.00547],[127.11614,36.03056],[127.1317,36.0455],[127.1401,36.05711],[127.12991,36.06565],[127.1229,36.06319],[127.10178,36.0757],[127.09093,36.07197],[127.06303,36.09211],[127.05778,36.11716],[127.06058,36.11984],[127.0461,36.14378],[127.03959,36.14233],[127.03002,36.13671],[127.02055,36.13812],[127.01792,36.14529],[127.00345,36.14914],[126.99018,36.145],[126.97469,36.14854],[126.95698,36.15642],[126.93916,36.15132],[126.92339,36.13933],[126.91898,36.13917],[126.91452,36.14138],[126.90492,36.14355],[126.89035,36.13937],[126.88406,36.13249],[126.87328,36.11293],[126.8749,36.0915],[126.87012,36.06925],[126.86358,36.06057],[126.87292,36.03963],[126.8703,36.03283],[126.88401,36.02612],[126.90101,36.00786],[126.91479,36.00435],[126.91522,35.99676],[126.90777,35.98338],[126.90919,35.98354],[126.90947,35.98191],[126.9029,35.97205],[126.88521,35.96085],[126.89034,35.95268]]]},"properties":{"code":"52140","name":"익산시","bbox":[126.8536,35.88315,127.1401,36.15642],"labelPoint":[126.97501,36.04868]}},{"type":"Feature","geometry":{"type":"Polygon","coordinates":[[[126.83952,35.69773],[126.83474,35.68726],[126.82725,35.67999],[126.81573,35.68308],[126.80579,35.6758],[126.79804,35.68463],[126.7893,35.67553],[126.78351,35.67584],[126.77182,35.68485],[126.7654,35.6738],[126.74395,35.66673],[126.73355,35.65073],[126.72524,35.64396],[126.72456,35.63804],[126.72366,35.63489],[126.72214,35.6232],[126.7202,35.59856],[126.72542,35.59366],[126.71847,35.57956],[126.7217,35.57303],[126.72637,35.57073],[126.73904,35.56759],[126.7535,35.57338],[126.76405,35.57051],[126.76673,35.56381],[126.76093,35.55573],[126.76608,35.54937],[126.7612,35.5329],[126.77371,35.52426],[126.76411,35.51858],[126.76001,35.51108],[126.76956,35.50854],[126.76856,35.49579],[126.76421,35.49306],[126.77002,35.48262],[126.77252,35.46838],[126.78791,35.46761],[126.81357,35.46885],[126.81396,35.48294],[126.82613,35.4863],[126.8315,35.48004],[126.84027,35.4829],[126.84314,35.47599],[126.84229,35.46389],[126.85062,35.46598],[126.86869,35.46139],[126.86063,35.47369],[126.86191,35.48031],[126.87341,35.47965],[126.88103,35.48571],[126.88869,35.47835],[126.89409,35.48067],[126.91342,35.4765],[126.92263,35.4826],[126.93564,35.48158],[126.93547,35.49596],[126.92986,35.50943],[126.92958,35.51981],[126.94987,35.53362],[126.95111,35.5385],[126.96358,35.54398],[126.97165,35.55367],[126.97907,35.55566],[126.99262,35.53692],[127.01534,35.54535],[127.02868,35.53173],[127.04999,35.52106],[127.05505,35.5092],[127.06706,35.5162],[127.08295,35.50645],[127.08791,35.50805],[127.08649,35.51958],[127.10643,35.53455],[127.10775,35.54264],[127.08744,35.54913],[127.08564,35.55477],[127.09271,35.56704],[127.08293,35.58441],[127.09672,35.58725],[127.10423,35.59484],[127.10022,35.60398],[127.09221,35.61222],[127.0936,35.62144],[127.09388,35.63321],[127.08745,35.64661],[127.08947,35.65305],[127.08029,35.65891],[127.08247,35.66616],[127.06412,35.67772],[127.06072,35.67044],[127.05068,35.67029],[127.04182,35.66598],[127.03074,35.66602],[127.02122,35.6692],[127.0024,35.68571],[126.99115,35.68947],[126.99286,35.69948],[126.97439,35.71766],[126.95089,35.72479],[126.93387,35.72032],[126.92247,35.73901],[126.91378,35.74533],[126.89511,35.75335],[126.8872,35.75421],[126.87305,35.75831],[126.88199,35.74836],[126.88113,35.74009],[126.86846,35.72866],[126.85486,35.72592],[126.84674,35.728],[126.82686,35.71809],[126.82527,35.71431],[126.83952,35.69773]]]},"properties":{"code":"52180","name":"정읍시","bbox":[126.71847,35.46138,127.11727,35.75831],"labelPoint":[126.89878,35.60868]}},{"type":"Feature","geometry":{"type":"Polygon","coordinates":[[[127.51401,35.4792],[127.52698,35.48635],[127.52719,35.49529],[127.51594,35.4988],[127.513,35.50733],[127.49123,35.52695],[127.49254,35.53377],[127.45687,35.54629],[127.4523,35.54075],[127.43981,35.54832],[127.43941,35.55282],[127.42614,35.55019],[127.41306,35.56019],[127.40245,35.54844],[127.38455,35.54652],[127.37766,35.54828],[127.36347,35.55823],[127.35215,35.55238],[127.33412,35.55052],[127.34899,35.54041],[127.34317,35.52032],[127.3547,35.51231],[127.35534,35.50463],[127.35024,35.49669],[127.33221,35.49237],[127.326,35.49583],[127.31041,35.49389],[127.30722,35.4864],[127.30866,35.47766],[127.31368,35.46359],[127.29789,35.44492],[127.29376,35.42983],[127.27569,35.42115],[127.2597,35.42677],[127.25457,35.41888],[127.24543,35.39856],[127.22544,35.39833],[127.22261,35.39312],[127.2134,35.37615],[127.21527,35.37052],[127.20505,35.36062],[127.19733,35.36437],[127.18935,35.35085],[127.1861,35.33619],[127.1834,35.32805],[127.18711,35.32236],[127.20088,35.3158],[127.21485,35.31617],[127.21602,35.32911],[127.22265,35.3367],[127.23179,35.33527],[127.23741,35.32814],[127.2512,35.31696],[127.26044,35.31163],[127.28854,35.31415],[127.3015,35.30846],[127.30494,35.3035],[127.3214,35.30574],[127.32411,35.30646],[127.32365,35.309],[127.33387,35.31536],[127.35619,35.32126],[127.37724,35.31075],[127.38445,35.30328],[127.39932,35.3129],[127.40155,35.3251],[127.4155,35.33728],[127.42276,35.35084],[127.43132,35.35953],[127.45421,35.36073],[127.47058,35.36594],[127.4861,35.35837],[127.49562,35.36081],[127.51422,35.35134],[127.52474,35.3449],[127.53054,35.33728],[127.54066,35.33441],[127.54213,35.32913],[127.55461,35.32234],[127.56815,35.31829],[127.57265,35.31205],[127.57745,35.30896],[127.58567,35.30914],[127.60551,35.31896],[127.60813,35.32532],[127.62042,35.33233],[127.62286,35.34395],[127.61212,35.35595],[127.61025,35.36579],[127.6224,35.3732],[127.62525,35.38475],[127.63542,35.39982],[127.64645,35.40266],[127.65936,35.41409],[127.66534,35.42718],[127.6694,35.44734],[127.65278,35.45073],[127.64507,35.44951],[127.6357,35.46231],[127.63722,35.47893],[127.65272,35.48567],[127.65084,35.49763],[127.64582,35.49819],[127.63709,35.50919],[127.62576,35.53207],[127.58541,35.55459],[127.57307,35.54565],[127.56839,35.525],[127.5786,35.51612],[127.57923,35.5038],[127.57431,35.49469],[127.5636,35.48847],[127.55952,35.48107],[127.56216,35.47482],[127.5465,35.46802],[127.52483,35.47323],[127.51401,35.4792]]]},"properties":{"code":"52190","name":"남원시","bbox":[127.18313,35.30306,127.67286,35.56071],"labelPoint":[127.43828,35.44121]}},{"type":"Feature","geometry":{"type":"Polygon","coordinates":[[[126.79863,35.87396],[126.78798,35.86491],[126.74529,35.86714],[126.73097,35.86665],[126.71987,35.86],[126.69729,35.85476],[126.6853,35.84391],[126.69023,35.84166],[126.6993,35.8399],[126.72258,35.82773],[126.73316,35.81861],[126.76564,35.80741],[126.77684,35.80149],[126.76782,35.78534],[126.77674,35.7664],[126.77723,35.75765],[126.77748,35.75318],[126.79274,35.75354],[126.79915,35.74733],[126.80491,35.73537],[126.80821,35.73393],[126.81271,35.71583],[126.82527,35.71431],[126.82686,35.71809],[126.84674,35.728],[126.85486,35.72592],[126.86846,35.72866],[126.88113,35.74009],[126.88199,35.74836],[126.87305,35.75831],[126.8872,35.75421],[126.89511,35.75335],[126.91378,35.74533],[126.92247,35.73901],[126.93387,35.72032],[126.95089,35.72479],[126.97439,35.71766],[126.99286,35.69948],[126.99115,35.68947],[127.0024,35.68571],[127.02122,35.6692],[127.03074,35.66602],[127.04182,35.66598],[127.05068,35.67029],[127.06072,35.67044],[127.06412,35.67772],[127.06833,35.69463],[127.06042,35.70188],[127.07181,35.71786],[127.08598,35.72484],[127.08518,35.72843],[127.07051,35.74223],[127.05955,35.75842],[127.05147,35.75966],[127.07435,35.77519],[127.06591,35.79076],[127.05543,35.79135],[127.02906,35.80253],[127.01995,35.79992],[126.99969,35.81317],[126.99787,35.81828],[126.99465,35.82932],[127.00967,35.84663],[127.00553,35.86204],[127.00666,35.87045],[127.00655,35.87671],[126.99787,35.8837],[126.99416,35.89219],[126.9813,35.8982],[126.97214,35.89788],[126.94634,35.91033],[126.94136,35.91204],[126.93261,35.91157],[126.92332,35.90834],[126.90572,35.90532],[126.89209,35.9151],[126.86681,35.90773],[126.85493,35.90897],[126.8536,35.91679],[126.84749,35.92021],[126.83728,35.91156],[126.82536,35.89851],[126.8009,35.89375],[126.79672,35.88178],[126.79863,35.87396]]]},"properties":{"code":"52210","name":"김제시","bbox":[126.68524,35.66598,127.08661,35.92032],"labelPoint":[126.86637,35.8038]}},{"type":"Feature","geometry":{"type":"MultiPolygon","coordinates":[[[[127.11174,35.89793],[127.12763,35.90149],[127.13637,35.90046],[127.1479,35.89014],[127.15197,35.88059],[127.16659,35.85898],[127.1676,35.85699],[127.17405,35.8547],[127.19457,35.85877],[127.21022,35.84119],[127.20854,35.8292],[127.2195,35.81987],[127.23561,35.82149],[127.22822,35.8088],[127.21728,35.80164],[127.21194,35.79397],[127.19969,35.78603],[127.1994,35.77607],[127.18544,35.77915],[127.17885,35.77261],[127.16242,35.78394],[127.15342,35.77857],[127.14893,35.77318],[127.1463,35.7595],[127.13666,35.76097],[127.11587,35.74943],[127.10206,35.75187],[127.09621,35.74535],[127.09542,35.73732],[127.08518,35.72843],[127.08598,35.72484],[127.07181,35.71786],[127.06042,35.70188],[127.06833,35.69463],[127.06412,35.67772],[127.08247,35.66616],[127.08029,35.65891],[127.08947,35.65305],[127.08745,35.64661],[127.09388,35.63321],[127.0936,35.62144],[127.10628,35.61954],[127.12007,35.63348],[127.12941,35.63733],[127.13553,35.6468],[127.12698,35.65722],[127.13097,35.66955],[127.12635,35.67368],[127.12509,35.68965],[127.13907,35.69969],[127.13866,35.71801],[127.15248,35.725],[127.15978,35.72397],[127.17707,35.73771],[127.18631,35.73582],[127.18795,35.73088],[127.20452,35.72441],[127.20953,35.7093],[127.22396,35.71172],[127.24122,35.69787],[127.24218,35.68707],[127.25949,35.69308],[127.25162,35.71891],[127.25627,35.73282],[127.25362,35.74191],[127.24445,35.75626],[127.26476,35.77762],[127.2708,35.77796],[127.27414,35.78945],[127.28702,35.79344],[127.3032,35.80084],[127.29552,35.80867],[127.29754,35.81782],[127.3084,35.82272],[127.31286,35.84197],[127.32004,35.84684],[127.32562,35.85996],[127.31985,35.86348],[127.32469,35.87143],[127.33334,35.87491],[127.33261,35.90791],[127.35322,35.91357],[127.34723,35.92666],[127.3498,35.93511],[127.34559,35.94287],[127.35061,35.94868],[127.34418,35.95976],[127.34377,35.98045],[127.35325,35.98889],[127.36397,35.99178],[127.36221,36.01116],[127.36918,36.02087],[127.37783,36.02282],[127.37308,36.04352],[127.36114,36.05331],[127.35724,36.08316],[127.36,36.08951],[127.34789,36.09839],[127.35497,36.10831],[127.34444,36.11807],[127.33848,36.13049],[127.323,36.13009],[127.31438,36.11863],[127.30237,36.12545],[127.29447,36.11297],[127.27348,36.10757],[127.25161,36.11226],[127.24627,36.10475],[127.24626,36.09478],[127.25698,36.08752],[127.24175,36.0858],[127.23537,36.09385],[127.22549,36.09923],[127.21936,36.09696],[127.20547,36.10054],[127.1961,36.08594],[127.18884,36.09245],[127.17939,36.09418],[127.16868,36.08394],[127.15777,36.08369],[127.15125,36.08992],[127.13716,36.08685],[127.13351,36.08134],[127.1337,36.06968],[127.12991,36.06565],[127.1401,36.05711],[127.1317,36.0455],[127.11614,36.03056],[127.12516,36.00547],[127.10734,35.99553],[127.10852,35.98376],[127.10426,35.96451],[127.10641,35.96042],[127.09458,35.94034],[127.09421,35.93554],[127.0806,35.92149],[127.06618,35.9158],[127.05708,35.92091],[127.04306,35.92584],[127.02972,35.91855],[127.03723,35.89346],[127.05262,35.89208],[127.06421,35.89898],[127.07668,35.89815],[127.08864,35.89331],[127.11174,35.89793]]],[[[127.06746,35.80379],[127.06553,35.81853],[127.05624,35.82526],[127.05862,35.83828],[127.04988,35.85387],[127.03408,35.85073],[127.02466,35.86471],[127.0162,35.85923],[127.00553,35.86204],[127.00967,35.84663],[126.99465,35.82932],[126.99787,35.81828],[126.99969,35.81317],[127.01995,35.79992],[127.02906,35.80253],[127.05543,35.79135],[127.06591,35.79076],[127.06746,35.80379]]]]},"properties":{"code":"52710","name":"완주군","bbox":[126.99465,35.61865,127.37935,36.13074],"labelPoint":[127.27409,35.91553]}},{"type":"Feature","geometry":{"type":"Polygon","coordinates":[[[127.52337,35.81261],[127.53578,35.81331],[127.54362,35.80641],[127.55651,35.80463],[127.56022,35.79973],[127.57679,35.79509],[127.59278,35.80179],[127.60263,35.81185],[127.60711,35.8302],[127.6198,35.8397],[127.6217,35.84901],[127.6164,35.85975],[127.5991,35.87233],[127.5976,35.88081],[127.58264,35.87569],[127.57488,35.87938],[127.58385,35.89622],[127.58286,35.90294],[127.57056,35.9124],[127.56332,35.92285],[127.5549,35.92286],[127.54835,35.93278],[127.55331,35.94356],[127.5498,35.95315],[127.52473,35.98557],[127.50582,35.98036],[127.49912,35.98748],[127.48761,35.97802],[127.47585,35.98052],[127.46822,35.98774],[127.45598,35.98378],[127.44817,35.99345],[127.44358,36.00808],[127.43741,36.00912],[127.4373,36.02051],[127.42627,36.02647],[127.40115,36.0079],[127.39186,36.01715],[127.37783,36.02282],[127.36918,36.02087],[127.36221,36.01116],[127.36397,35.99178],[127.35325,35.98889],[127.34377,35.98045],[127.34418,35.95976],[127.35061,35.94868],[127.34559,35.94287],[127.3498,35.93511],[127.34723,35.92666],[127.35322,35.91357],[127.33261,35.90791],[127.33334,35.87491],[127.32469,35.87143],[127.31985,35.86348],[127.32562,35.85996],[127.32004,35.84684],[127.31286,35.84197],[127.3084,35.82272],[127.29754,35.81782],[127.29552,35.80867],[127.3032,35.80084],[127.28702,35.79344],[127.27414,35.78945],[127.2708,35.77796],[127.26557,35.76246],[127.2761,35.75301],[127.29359,35.71732],[127.2898,35.71232],[127.29276,35.70102],[127.29079,35.68617],[127.29627,35.68243],[127.30633,35.68484],[127.31571,35.67877],[127.32742,35.66082],[127.33858,35.66552],[127.35714,35.66913],[127.3647,35.66039],[127.37713,35.66424],[127.37874,35.65396],[127.39268,35.65183],[127.43222,35.63642],[127.43599,35.62186],[127.44212,35.61953],[127.45374,35.61883],[127.46856,35.6215],[127.46663,35.63791],[127.47409,35.64766],[127.47697,35.661],[127.45994,35.67327],[127.46421,35.67869],[127.46489,35.69337],[127.47781,35.70327],[127.47565,35.71491],[127.47852,35.72129],[127.4833,35.72221],[127.49513,35.73688],[127.52255,35.75386],[127.51321,35.77033],[127.51341,35.7991],[127.52337,35.81261]]]},"properties":{"code":"52720","name":"진안군","bbox":[127.26513,35.61882,127.62842,36.02794],"labelPoint":[127.4264,35.83017]}},{"type":"Feature","geometry":{"type":"Polygon","coordinates":[[[127.69523,36.05867],[127.68922,36.06255],[127.67081,36.05192],[127.67262,36.04131],[127.6604,36.03807],[127.65503,36.05489],[127.64471,36.06657],[127.63776,36.06836],[127.62585,36.06699],[127.61998,36.06129],[127.61874,36.04251],[127.63074,36.04077],[127.62756,36.03144],[127.61626,36.01941],[127.61827,36.00861],[127.61087,36.00219],[127.60495,36.0116],[127.59151,36.02449],[127.58314,36.0267],[127.57557,36.02266],[127.56819,36.02975],[127.55238,36.03281],[127.54714,36.03807],[127.53165,36.04114],[127.53792,36.03297],[127.53629,36.02139],[127.54018,36.01173],[127.53242,36.0072],[127.53633,36.0007],[127.53367,35.99211],[127.52473,35.98557],[127.5498,35.95315],[127.55331,35.94356],[127.54835,35.93278],[127.5549,35.92286],[127.56332,35.92285],[127.57056,35.9124],[127.58286,35.90294],[127.58385,35.89622],[127.57488,35.87938],[127.58264,35.87569],[127.5976,35.88081],[127.5991,35.87233],[127.6164,35.85975],[127.6217,35.84901],[127.6198,35.8397],[127.62082,35.82545],[127.62985,35.81473],[127.63694,35.81616],[127.65479,35.81159],[127.66332,35.81817],[127.67124,35.80987],[127.68688,35.80388],[127.68829,35.79541],[127.69965,35.78822],[127.71955,35.79741],[127.73865,35.82697],[127.73794,35.8347],[127.74492,35.84392],[127.75753,35.83672],[127.77215,35.83893],[127.77924,35.84717],[127.80387,35.85718],[127.81273,35.85283],[127.82117,35.8654],[127.83088,35.86974],[127.84094,35.86687],[127.84467,35.87575],[127.85299,35.88122],[127.85075,35.89005],[127.85709,35.89499],[127.85954,35.90649],[127.8672,35.90411],[127.88761,35.91458],[127.88222,35.92774],[127.90646,35.94057],[127.91147,35.94945],[127.90402,35.95452],[127.89651,35.97204],[127.89374,35.98447],[127.8867,35.99211],[127.87581,35.99672],[127.87882,36.00131],[127.87538,36.01643],[127.87693,36.02244],[127.86532,36.02507],[127.84937,36.03966],[127.82581,36.03274],[127.81874,36.02802],[127.79762,36.02497],[127.78785,36.01425],[127.77796,36.01563],[127.76471,36.01208],[127.75876,36.01499],[127.76239,36.0248],[127.73948,36.02548],[127.73107,36.03225],[127.71984,36.03044],[127.71366,36.03536],[127.70499,36.03365],[127.69647,36.0412],[127.69523,36.05867]]]},"properties":{"code":"52730","name":"무주군","bbox":[127.52473,35.78822,127.91147,36.06836],"labelPoint":[127.71092,35.93546]}},{"type":"Feature","geometry":{"type":"Polygon","coordinates":[[[127.44212,35.61953],[127.43599,35.62186],[127.42569,35.61465],[127.39996,35.61279],[127.38681,35.61493],[127.37436,35.60758],[127.37572,35.59918],[127.37208,35.58669],[127.37911,35.57745],[127.36471,35.56859],[127.36347,35.55823],[127.37766,35.54828],[127.38455,35.54652],[127.40245,35.54844],[127.41306,35.56019],[127.42614,35.55019],[127.43941,35.55282],[127.43981,35.54832],[127.4523,35.54075],[127.45687,35.54629],[127.49254,35.53377],[127.49123,35.52695],[127.513,35.50733],[127.51594,35.4988],[127.52719,35.49529],[127.52698,35.48635],[127.51401,35.4792],[127.52483,35.47323],[127.5465,35.46802],[127.56216,35.47482],[127.55952,35.48107],[127.5636,35.48847],[127.57431,35.49469],[127.57923,35.5038],[127.5786,35.51612],[127.56839,35.525],[127.57307,35.54565],[127.58541,35.55459],[127.58663,35.56278],[127.59459,35.57336],[127.61059,35.58486],[127.60757,35.59477],[127.6124,35.60695],[127.62113,35.61501],[127.63547,35.61847],[127.62422,35.63219],[127.62008,35.64272],[127.62238,35.65084],[127.6296,35.65663],[127.62915,35.66427],[127.63893,35.66989],[127.64209,35.69277],[127.66077,35.70975],[127.66344,35.72476],[127.6603,35.7384],[127.66414,35.76701],[127.66906,35.77147],[127.67903,35.76927],[127.68499,35.77785],[127.69965,35.78822],[127.68829,35.79541],[127.68688,35.80388],[127.67124,35.80987],[127.66332,35.81817],[127.65479,35.81159],[127.63694,35.81616],[127.62985,35.81473],[127.62082,35.82545],[127.6198,35.8397],[127.60711,35.8302],[127.60263,35.81185],[127.59278,35.80179],[127.57679,35.79509],[127.56022,35.79973],[127.55651,35.80463],[127.54362,35.80641],[127.53578,35.81331],[127.52337,35.81261],[127.51341,35.7991],[127.51321,35.77033],[127.52255,35.75386],[127.49513,35.73688],[127.4833,35.72221],[127.47852,35.72129],[127.47565,35.71491],[127.47781,35.70327],[127.46489,35.69337],[127.46421,35.67869],[127.45994,35.67327],[127.47697,35.661],[127.47409,35.64766],[127.46663,35.63791],[127.46856,35.6215],[127.45374,35.61883],[127.44212,35.61953]]]},"properties":{"code":"52740","name":"장수군","bbox":[127.36146,35.4679,127.69965,35.8397],"labelPoint":[127.54617,35.65707]}},{"type":"Feature","geometry":{"type":"Polygon","coordinates":[[[127.09271,35.56704],[127.08564,35.55477],[127.08744,35.54913],[127.10775,35.54264],[127.10643,35.53455],[127.08649,35.51958],[127.08791,35.50805],[127.09223,35.50583],[127.11086,35.509],[127.11663,35.50363],[127.12772,35.50325],[127.13423,35.49266],[127.13637,35.48272],[127.1421,35.47641],[127.14014,35.47032],[127.14433,35.46178],[127.16605,35.46224],[127.1733,35.45888],[127.17744,35.47081],[127.17894,35.47633],[127.19458,35.48638],[127.20413,35.48999],[127.21659,35.48991],[127.22805,35.47881],[127.23718,35.47734],[127.24444,35.48445],[127.25879,35.48],[127.26378,35.47488],[127.27453,35.47343],[127.28419,35.47913],[127.2952,35.47509],[127.30866,35.47766],[127.30722,35.4864],[127.31041,35.49389],[127.326,35.49583],[127.33221,35.49237],[127.35024,35.49669],[127.35534,35.50463],[127.3547,35.51231],[127.34317,35.52032],[127.34899,35.54041],[127.33412,35.55052],[127.35215,35.55238],[127.36347,35.55823],[127.36471,35.56859],[127.37911,35.57745],[127.37208,35.58669],[127.37572,35.59918],[127.37436,35.60758],[127.38681,35.61493],[127.39996,35.61279],[127.42569,35.61465],[127.43599,35.62186],[127.43222,35.63642],[127.39268,35.65183],[127.37874,35.65396],[127.37713,35.66424],[127.3647,35.66039],[127.35714,35.66913],[127.33858,35.66552],[127.32742,35.66082],[127.31571,35.67877],[127.30633,35.68484],[127.29627,35.68243],[127.29079,35.68617],[127.29276,35.70102],[127.2898,35.71232],[127.29359,35.71732],[127.2761,35.75301],[127.26557,35.76246],[127.2708,35.77796],[127.26476,35.77762],[127.24445,35.75626],[127.25362,35.74191],[127.25627,35.73282],[127.25162,35.71891],[127.25949,35.69308],[127.24218,35.68707],[127.24122,35.69787],[127.22396,35.71172],[127.20953,35.7093],[127.20452,35.72441],[127.18795,35.73088],[127.18631,35.73582],[127.17707,35.73771],[127.15978,35.72397],[127.15248,35.725],[127.13866,35.71801],[127.13907,35.69969],[127.12509,35.68965],[127.12635,35.67368],[127.13097,35.66955],[127.12698,35.65722],[127.13553,35.6468],[127.12941,35.63733],[127.12007,35.63348],[127.10628,35.61954],[127.0936,35.62144],[127.09221,35.61222],[127.10022,35.60398],[127.10423,35.59484],[127.09672,35.58725],[127.08293,35.58441],[127.09271,35.56704]]]},"properties":{"code":"52750","name":"임실군","bbox":[127.08271,35.45888,127.43599,35.77804],"labelPoint":[127.23658,35.59707]}},{"type":"Feature","geometry":{"type":"Polygon","coordinates":[[[127.14433,35.46178],[127.14014,35.47032],[127.1421,35.47641],[127.13637,35.48272],[127.13423,35.49266],[127.12772,35.50325],[127.11663,35.50363],[127.11086,35.509],[127.09223,35.50583],[127.08791,35.50805],[127.08295,35.50645],[127.06706,35.5162],[127.05505,35.5092],[127.04999,35.52106],[127.02868,35.53173],[127.01534,35.54535],[126.99262,35.53692],[126.97907,35.55566],[126.97165,35.55367],[126.96358,35.54398],[126.95111,35.5385],[126.94987,35.53362],[126.92958,35.51981],[126.92986,35.50943],[126.93547,35.49596],[126.93564,35.48158],[126.92263,35.4826],[126.91342,35.4765],[126.89409,35.48067],[126.88869,35.47835],[126.88103,35.48571],[126.87341,35.47965],[126.86191,35.48031],[126.86063,35.47369],[126.86869,35.46139],[126.884,35.45099],[126.89484,35.44848],[126.89972,35.44263],[126.89758,35.43587],[126.90372,35.42995],[126.90196,35.42277],[126.92067,35.41089],[126.9196,35.40197],[126.92972,35.40582],[126.93276,35.39515],[126.95441,35.39665],[126.96148,35.39491],[126.97705,35.40339],[126.97177,35.41358],[126.97039,35.42743],[126.98164,35.4265],[126.98403,35.43497],[126.99431,35.43999],[127.0024,35.46312],[127.01443,35.45745],[127.0237,35.46347],[127.03463,35.4658],[127.03462,35.44753],[127.03732,35.43341],[127.04396,35.43379],[127.0523,35.42686],[127.04559,35.40806],[127.04786,35.4056],[127.04222,35.39891],[127.02727,35.39994],[127.03021,35.39046],[127.03913,35.37996],[127.04643,35.37694],[127.05664,35.38437],[127.07028,35.36612],[127.06547,35.35778],[127.06968,35.35158],[127.06495,35.33649],[127.05212,35.33991],[127.04671,35.31819],[127.06132,35.31722],[127.06558,35.31056],[127.07222,35.3126],[127.08926,35.30678],[127.09667,35.30174],[127.1023,35.30113],[127.11568,35.29955],[127.12622,35.30365],[127.12986,35.30925],[127.14558,35.30925],[127.14657,35.31541],[127.1679,35.3317],[127.1729,35.33033],[127.1861,35.33619],[127.18935,35.35085],[127.19733,35.36437],[127.20505,35.36062],[127.21527,35.37052],[127.2134,35.37615],[127.22261,35.39312],[127.22544,35.39833],[127.24543,35.39856],[127.25457,35.41888],[127.2597,35.42677],[127.27569,35.42115],[127.29376,35.42983],[127.29789,35.44492],[127.31368,35.46359],[127.30866,35.47766],[127.2952,35.47509],[127.28419,35.47913],[127.27453,35.47343],[127.26378,35.47488],[127.25879,35.48],[127.24444,35.48445],[127.23718,35.47734],[127.22805,35.47881],[127.21659,35.48991],[127.20413,35.48999],[127.19458,35.48638],[127.17894,35.47633],[127.17744,35.47081],[127.1733,35.45888],[127.16605,35.46224],[127.14433,35.46178]]]},"properties":{"code":"52770","name":"순창군","bbox":[126.86006,35.2992,127.31447,35.55593],"labelPoint":[127.11988,35.40427]}},{"type":"Feature","geometry":{"type":"Polygon","coordinates":[[[126.75396,35.41624],[126.75118,35.43708],[126.73812,35.44903],[126.74787,35.45033],[126.75676,35.46078],[126.77252,35.46838],[126.77002,35.48262],[126.76421,35.49306],[126.76856,35.49579],[126.76956,35.50854],[126.76001,35.51108],[126.76411,35.51858],[126.77371,35.52426],[126.7612,35.5329],[126.76608,35.54937],[126.76093,35.55573],[126.76673,35.56381],[126.76405,35.57051],[126.7535,35.57338],[126.73904,35.56759],[126.72637,35.57073],[126.7217,35.57303],[126.70243,35.57451],[126.69222,35.56945],[126.67225,35.5714],[126.66583,35.55984],[126.66713,35.55432],[126.6479,35.56967],[126.63194,35.5727],[126.61704,35.56953],[126.61641,35.55689],[126.61046,35.55496],[126.59399,35.53512],[126.58976,35.54207],[126.56513,35.54266],[126.54185,35.5274],[126.53643,35.53138],[126.51932,35.53354],[126.5006,35.52435],[126.49656,35.51005],[126.48341,35.51928],[126.47368,35.5063],[126.46217,35.4824],[126.45795,35.47856],[126.44208,35.45366],[126.42904,35.43806],[126.43184,35.43226],[126.44184,35.43564],[126.44757,35.42981],[126.45203,35.42691],[126.47871,35.42423],[126.49281,35.40914],[126.49051,35.39521],[126.47758,35.3861],[126.4862,35.37759],[126.4975,35.37235],[126.49529,35.36263],[126.49921,35.35405],[126.50776,35.3614],[126.5141,35.3563],[126.52024,35.34979],[126.51573,35.33167],[126.52326,35.31544],[126.53119,35.30747],[126.55095,35.3136],[126.55794,35.31178],[126.57322,35.30964],[126.58494,35.3008],[126.58965,35.31198],[126.58134,35.32289],[126.58395,35.32951],[126.59541,35.32923],[126.604,35.33558],[126.62507,35.32134],[126.64473,35.31987],[126.64422,35.32727],[126.65261,35.32769],[126.65953,35.33456],[126.66019,35.34389],[126.66673,35.35155],[126.68548,35.34459],[126.69067,35.35086],[126.69924,35.34968],[126.70458,35.36511],[126.71943,35.36492],[126.7312,35.37678],[126.73071,35.38019],[126.72961,35.39449],[126.72204,35.39835],[126.73608,35.40325],[126.74841,35.41516],[126.75396,35.41624]]]},"properties":{"code":"52790","name":"고창군","bbox":[126.42793,35.30077,126.77374,35.57497],"labelPoint":[126.61603,35.44699]}},{"type":"Feature","geometry":{"type":"MultiPolygon","coordinates":[[[[126.72456,35.63804],[126.72524,35.64396],[126.73355,35.65073],[126.74395,35.66673],[126.7654,35.6738],[126.77182,35.68485],[126.78351,35.67584],[126.7893,35.67553],[126.79804,35.68463],[126.80579,35.6758],[126.81573,35.68308],[126.82725,35.67999],[126.83474,35.68726],[126.83952,35.69773],[126.82527,35.71431],[126.81271,35.71583],[126.80821,35.73393],[126.80491,35.73537],[126.79915,35.74733],[126.79274,35.75354],[126.77748,35.75318],[126.77723,35.75765],[126.77115,35.77113],[126.7523,35.78519],[126.72829,35.7941],[126.71727,35.79396],[126.69926,35.79944],[126.64299,35.79769],[126.63235,35.80041],[126.62263,35.7887],[126.62604,35.74758],[126.61155,35.73683],[126.60122,35.71956],[126.56816,35.69458],[126.56089,35.69872],[126.53896,35.68998],[126.53261,35.69053],[126.52741,35.67665],[126.52065,35.67636],[126.51469,35.66745],[126.50039,35.65736],[126.48428,35.65561],[126.4766,35.64334],[126.46594,35.64422],[126.4613,35.6381],[126.46862,35.62832],[126.46819,35.61859],[126.46065,35.6137],[126.47052,35.60282],[126.48418,35.59802],[126.49171,35.58597],[126.50672,35.58123],[126.52783,35.5793],[126.5411,35.58801],[126.5601,35.58543],[126.57525,35.59014],[126.61716,35.58495],[126.62512,35.59297],[126.63604,35.59342],[126.6574,35.5906],[126.66585,35.57551],[126.67225,35.5714],[126.69222,35.56945],[126.70243,35.57451],[126.7217,35.57303],[126.71847,35.57956],[126.72542,35.59366],[126.7202,35.59856],[126.72214,35.6232],[126.72366,35.63489],[126.72456,35.63804]]],[[[126.30426,35.6217],[126.30333,35.61266],[126.29231,35.61852],[126.28411,35.61414],[126.28331,35.60401],[126.27071,35.60851],[126.27289,35.5989],[126.26493,35.58852],[126.25409,35.5899],[126.25676,35.57459],[126.27534,35.57784],[126.28893,35.58951],[126.31117,35.60462],[126.31549,35.611],[126.30426,35.6217]]]]},"properties":{"code":"52800","name":"부안군","bbox":[126.24842,35.56681,126.83952,35.80042],"labelPoint":[126.65416,35.67855]}}]}