{
  "type": "FeatureCollection",
  "features": [
    {
      "type": "Feature",
      "geometry": {
        "type": "Polygon",
        "coordinates": [
          [
            [
              126.61984,
              37.46191
            ],
            [
              126.61219,
              37.46243
            ],
            [
              126.60336,
              37.46016
            ],
            [
              126.60483,
              37.46455
            ],
            [
              126.59967,
              37.4655
            ],
            [
              126.59317,
              37.46372
            ],
            [
              126.59634,
              37.45118
            ],
            [
              126.59288,
              37.4506
            ],
            [
              126.59294,
              37.44132
            ],
            [
              126.60099,
              37.43837
            ],
            [
              126.60814,
              37.44063
            ],
            [
              126.61419,
              37.43773
            ],
            [
              126.61321,
              37.43458
            ],
            [
              126.61734,
              37.43809
            ],
            [
              126.63024,
              37.4583
            ],
            [
              126.61984,
              37.46191
            ]
          ]
        ]
      },
      "properties": {
        "code": "23100520",
        "name": "연안동"
      }
    },
    {
      "type": "Feature",
      "geometry": {
        "type": "Polygon",
        "coordinates": [
          [
            [
              126.63024,
              37.4583
            ],
            [
              126.63078,
              37.4702
            ],
            [
              126.63119,
              37.47096
            ],
            [
              126.62263,
              37.47551
            ],
            [
              126.61583,
              37.47465
            ],
            [
              126.61625,
              37.46992
            ],
            [
              126.61441,
              37.46399
            ],
            [
              126.61984,
              37.46191
            ],
            [
              126.63024,
              37.4583
            ]
          ]
        ]
      },
      "properties": {
        "code": "23100530",
        "name": "신포동"
      }
    },
    {
      "type": "Feature",
      "geometry": {
        "type": "Polygon",
        "coordinates": [
          [
            [
              126.61321,
              37.43458
            ],
            [
              126.61087,
              37.42992
            ],
            [
              126.63497,
              37.43003
            ],
            [
              126.63468,
              37.431
            ],
            [
              126.63262,
              37.44153
            ],
            [
              126.62918,
              37.45203
            ],
            [
              126.63552,
              37.45727
            ],
            [
              126.63758,
              37.45993
            ],
            [
              126.64027,
              37.4641
            ],
            [
              126.63669,
              37.46799
            ],
            [
              126.63078,
              37.4702
            ],
            [
              126.63024,
              37.4583
            ],
            [
              126.61734,
              37.43809
            ],
            [
              126.61321,
              37.43458
            ]
          ]
        ]
      },
      "properties": {
        "code": "23100540",
        "name": "신흥동"
      }
    },
    {
      "type": "Feature",
      "geometry": {
        "type": "Polygon",
        "coordinates": [
          [
            [
              126.64027,
              37.4641
            ],
            [
              126.64279,
              37.46849
            ],
            [
              126.63919,
              37.47029
            ],
            [
              126.63669,
              37.46799
            ],
            [
              126.64027,
              37.4641
            ]
          ]
        ]
      },
      "properties": {
        "code": "23100560",
        "name": "도원동"
      }
    },
    {
      "type": "Feature",
      "geometry": {
        "type": "Polygon",
        "coordinates": [
          [
            [
              126.63078,
              37.4702
            ],
            [
              126.63669,
              37.46799
            ],
            [
              126.63919,
              37.47029
            ],
            [
              126.63618,
              37.47222
            ],
            [
              126.63119,
              37.47096
            ],
            [
              126.63078,
              37.4702
            ]
          ]
        ]
      },
      "properties": {
        "code": "23100570",
        "name": "율목동"
      }
    },
    {
      "type": "Feature",
      "geometry": {
        "type": "Polygon",
        "coordinates": [
          [
            [
              126.63119,
              37.47096
            ],
            [
              126.63618,
              37.47222
            ],
            [
              126.63463,
              37.47367
            ],
            [
              126.63142,
              37.4768
            ],
            [
              126.62802,
              37.47943
            ],
            [
              126.62797,
              37.47923
            ],
            [
              126.62263,
              37.47551
            ],
            [
              126.63119,
              37.47096
            ]
          ]
        ]
      },
      "properties": {
        "code": "23100580",
        "name": "동인천동"
      }
    },
    {
      "type": "Feature",
      "geometry": {
        "type": "Polygon",
        "coordinates": [
          [
            [
              126.62802,
              37.47943
            ],
            [
              126.62832,
              37.48374
            ],
            [
              126.62526,
              37.48701
            ],
            [
              126.62689,
              37.49061
            ],
            [
              126.62628,
              37.49254
            ],
            [
              126.60982,
              37.4874
            ],
            [
              126.61162,
              37.48349
            ],
            [
              126.61677,
              37.48359
            ],
            [
              126.62035,
              37.48066
            ],
            [
              126.62797,
              37.47923
            ],
            [
              126.62802,
              37.47943
            ]
          ]
        ]
      },
      "properties": {
        "code": "23100510",
        "name": "만석동"
      }
    },
    {
      "type": "Feature",
      "geometry": {
        "type": "Polygon",
        "coordinates": [
          [
            [
              126.63142,
              37.4768
            ],
            [
              126.63359,
              37.47905
            ],
            [
              126.62832,
              37.48374
            ],
            [
              126.62802,
              37.47943
            ],
            [
              126.63142,
              37.4768
            ]
          ]
        ]
      },
      "properties": {
        "code": "23100671",
        "name": "화수1·화평동"
      }
    },
    {
      "type": "Feature",
      "geometry": {
        "type": "Polygon",
        "coordinates": [
          [
            [
              126.62832,
              37.48374
            ],
            [
              126.63359,
              37.47905
            ],
            [
              126.63753,
              37.48204
            ],
            [
              126.63205,
              37.4877
            ],
            [
              126.62689,
              37.49061
            ],
            [
              126.62526,
              37.48701
            ],
            [
              126.62832,
              37.48374
            ]
          ]
        ]
      },
      "properties": {
        "code": "23100672",
        "name": "화수2동"
      }
    },
    {
      "type": "Feature",
      "geometry": {
        "type": "Polygon",
        "coordinates": [
          [
            [
              126.63463,
              37.47367
            ],
            [
              126.6353,
              37.47429
            ],
            [
              126.6399,
              37.47819
            ],
            [
              126.63753,
              37.48204
            ],
            [
              126.63359,
              37.47905
            ],
            [
              126.63142,
              37.4768
            ],
            [
              126.63463,
              37.47367
            ]
          ]
        ]
      },
      "properties": {
        "code": "23100550",
        "name": "송현1·2동"
      }
    },
    {
      "type": "Feature",
      "geometry": {
        "type": "Polygon",
        "coordinates": [
          [
            [
              126.63753,
              37.48204
            ],
            [
              126.6399,
              37.47819
            ],
            [
              126.641,
              37.47807
            ],
            [
              126.64534,
              37.47968
            ],
            [
              126.64525,
              37.48392
            ],
            [
              126.64882,
              37.48732
            ],
            [
              126.65264,
              37.48502
            ],
            [
              126.65536,
              37.48816
            ],
            [
              126.64076,
              37.49587
            ],
            [
              126.62745,
              37.49325
            ],
            [
              126.63205,
              37.4877
            ],
            [
              126.63753,
              37.48204
            ]
          ]
        ]
      },
      "properties": {
        "code": "23100673",
        "name": "송현3동"
      }
    },
    {
      "type": "Feature",
      "geometry": {
        "type": "Polygon",
        "coordinates": [
          [
            [
              126.6353,
              37.47429
            ],
            [
              126.64189,
              37.47397
            ],
            [
              126.641,
              37.47807
            ],
            [
              126.6399,
              37.47819
            ],
            [
              126.6353,
              37.47429
            ]
          ]
        ]
      },
      "properties": {
        "code": "23100674",
        "name": "송림1동"
      }
    },
    {
      "type": "Feature",
      "geometry": {
        "type": "Polygon",
        "coordinates": [
          [
            [
              126.641,
              37.47807
            ],
            [
              126.64189,
              37.47397
            ],
            [
              126.6436,
              37.47324
            ],
            [
              126.64477,
              37.47578
            ],
            [
              126.64534,
              37.47968
            ],
            [
              126.641,
              37.47807
            ]
          ]
        ]
      },
      "properties": {
        "code": "23100590",
        "name": "송림2동"
      }
    },
    {
      "type": "Feature",
      "geometry": {
        "type": "Polygon",
        "coordinates": [
          [
            [
              126.6436,
              37.47324
            ],
            [
              126.64555,
              37.46995
            ],
            [
              126.65029,
              37.46951
            ],
            [
              126.65223,
              37.47582
            ],
            [
              126.64964,
              37.47739
            ],
            [
              126.64477,
              37.47578
            ],
            [
              126.6436,
              37.47324
            ]
          ]
        ]
      },
      "properties": {
        "code": "23100600",
        "name": "송림3·5동"
      }
    },
    {
      "type": "Feature",
      "geometry": {
        "type": "Polygon",
        "coordinates": [
          [
            [
              126.65264,
              37.48502
            ],
            [
              126.64964,
              37.47739
            ],
            [
              126.65223,
              37.47582
            ],
            [
              126.65496,
              37.48406
            ],
            [
              126.67048,
              37.47685
            ],
            [
              126.66476,
              37.48246
            ],
            [
              126.65536,
              37.48816
            ],
            [
              126.65264,
              37.48502
            ]
          ]
        ]
      },
      "properties": {
        "code": "23100610",
        "name": "송림4동"
      }
    },
    {
      "type": "Feature",
      "geometry": {
        "type": "Polygon",
        "coordinates": [
          [
            [
              126.64534,
              37.47968
            ],
            [
              126.64477,
              37.47578
            ],
            [
              126.64964,
              37.47739
            ],
            [
              126.65264,
              37.48502
            ],
            [
              126.64882,
              37.48732
            ],
            [
              126.64525,
              37.48392
            ],
            [
              126.64534,
              37.47968
            ]
          ]
        ]
      },
      "properties": {
        "code": "23100630",
        "name": "송림6동"
      }
    },
    {
      "type": "Feature",
      "geometry": {
        "type": "Polygon",
        "coordinates": [
          [
            [
              126.64279,
              37.46849
            ],
            [
              126.64555,
              37.46995
            ],
            [
              126.6436,
              37.47324
            ],
            [
              126.64189,
              37.47397
            ],
            [
              126.6353,
              37.47429
            ],
            [
              126.63463,
              37.47367
            ],
            [
              126.63618,
              37.47222
            ],
            [
              126.63919,
              37.47029
            ],
            [
              126.64279,
              37.46849
            ]
          ]
        ]
      },
      "properties": {
        "code": "23100640",
        "name": "금창동"
      }
    },
    {
      "type": "Feature",
      "geometry": {
        "type": "Polygon",
        "coordinates": [
          [
            [
              126.62263,
              37.47551
            ],
            [
              126.62797,
              37.47923
            ],
            [
              126.62035,
              37.48066
            ],
            [
              126.61677,
              37.48359
            ],
            [
              126.60985,
              37.48294
            ],
            [
              126.60624,
              37.4863
            ],
            [
              126.60054,
              37.48153
            ],
            [
              126.59558,
              37.47185
            ],
            [
              126.6,
              37.4661
            ],
            [
              126.60327,
              37.46552
            ],
            [
              126.60993,
              37.46916
            ],
            [
              126.61625,
              37.46992
            ],
            [
              126.61583,
              37.47465
            ],
            [
              126.62263,
              37.47551
            ]
          ]
        ]
      },
      "properties": {
        "code": "23100670",
        "name": "개항동"
      }
    }
  ]
}
