{
  "type": "FeatureCollection",
  "features": [
    {
      "type": "Feature",
      "geometry": {
        "type": "Polygon",
        "coordinates": [
          [
            [
              126.50616,
              37.46394
            ],
            [
              126.50735,
              37.46581
            ],
            [
              126.52115,
              37.46914
            ],
            [
              126.53731,
              37.47583
            ],
            [
              126.55037,
              37.47639
            ],
            [
              126.55895,
              37.4783
            ],
            [
              126.55804,
              37.48301
            ],
            [
              126.5461,
              37.4831
            ],
            [
              126.54363,
              37.48731
            ],
            [
              126.55342,
              37.49647
            ],
            [
              126.56216,
              37.50177
            ],
            [
              126.57453,
              37.50504
            ],
            [
              126.56911,
              37.5078
            ],
            [
              126.56433,
              37.51446
            ],
            [
              126.54389,
              37.52361
            ],
            [
              126.52634,
              37.52737
            ],
            [
              126.52091,
              37.53393
            ],
            [
              126.51378,
              37.53498
            ],
            [
              126.49839,
              37.53185
            ],
            [
              126.49535,
              37.52647
            ],
            [
              126.49407,
              37.5162
            ],
            [
              126.49046,
              37.5099
            ],
            [
              126.49757,
              37.50691
            ],
            [
              126.50004,
              37.50144
            ],
            [
              126.50532,
              37.50493
            ],
            [
              126.5101,
              37.50344
            ],
            [
              126.50958,
              37.49962
            ],
            [
              126.51726,
              37.49119
            ],
            [
              126.51502,
              37.48488
            ],
            [
              126.51048,
              37.48084
            ],
            [
              126.50594,
              37.48348
            ],
            [
              126.49963,
              37.47907
            ],
            [
              126.50432,
              37.47565
            ],
            [
              126.50709,
              37.46858
            ],
            [
              126.50616,
              37.46394
            ]
          ]
        ]
      },
      "properties": {
        "code": "23110650",
        "name": "영종동"
      }
    },
    {
      "type": "Feature",
      "geometry": {
        "type": "MultiPolygon",
        "coordinates": [
          [
            [
              [
                126.39066,
                37.39581
              ],
              [
                126.39725,
                37.40241
              ],
              [
                126.39329,
                37.40499
              ],
              [
                126.38918,
                37.40216
              ],
              [
                126.39066,
                37.39581
              ]
            ]
          ],
          [
            [
              [
                126.41412,
                37.40909
              ],
              [
                126.40725,
                37.41321
              ],
              [
                126.40238,
                37.40969
              ],
              [
                126.40446,
                37.40672
              ],
              [
                126.40111,
                37.4026
              ],
              [
                126.40059,
                37.39657
              ],
              [
                126.40735,
                37.38812
              ],
              [
                126.40912,
                37.37651
              ],
              [
                126.40714,
                37.3726
              ],
              [
                126.41322,
                37.36625
              ],
              [
                126.41794,
                37.36531
              ],
              [
                126.42799,
                37.3683
              ],
              [
                126.43368,
                37.36859
              ],
              [
                126.43352,
                37.37419
              ],
              [
                126.43947,
                37.37574
              ],
              [
                126.44104,
                37.38564
              ],
              [
                126.43166,
                37.3899
              ],
              [
                126.42314,
                37.39808
              ],
              [
                126.42217,
                37.40165
              ],
              [
                126.41461,
                37.40349
              ],
              [
                126.41412,
                37.40909
              ]
            ]
          ],
          [
            [
              [
                126.37342,
                37.47213
              ],
              [
                126.36472,
                37.47469
              ],
              [
                126.35913,
                37.47293
              ],
              [
                126.35625,
                37.46957
              ],
              [
                126.35628,
                37.46305
              ],
              [
                126.36106,
                37.45726
              ],
              [
                126.36772,
                37.45694
              ],
              [
                126.37228,
                37.44515
              ],
              [
                126.38049,
                37.43902
              ],
              [
                126.38969,
                37.44076
              ],
              [
                126.39529,
                37.44609
              ],
              [
                126.4,
                37.44371
              ],
              [
                126.41558,
                37.43247
              ],
              [
                126.41944,
                37.42197
              ],
              [
                126.4277,
                37.42295
              ],
              [
                126.42279,
                37.42557
              ],
              [
                126.42717,
                37.43225
              ],
              [
                126.43317,
                37.43651
              ],
              [
                126.43195,
                37.44143
              ],
              [
                126.4339,
                37.44635
              ],
              [
                126.42074,
                37.45211
              ],
              [
                126.4113,
                37.46007
              ],
              [
                126.39567,
                37.46636
              ],
              [
                126.39705,
                37.45736
              ],
              [
                126.38787,
                37.45484
              ],
              [
                126.37843,
                37.45996
              ],
              [
                126.37487,
                37.46553
              ],
              [
                126.37342,
                37.47213
              ]
            ]
          ]
        ]
      },
      "properties": {
        "code": "23110630",
        "name": "용유동"
      }
    },
    {
      "type": "Feature",
      "geometry": {
        "type": "Polygon",
        "coordinates": [
          [
            [
              126.49046,
              37.5099
            ],
            [
              126.48299,
              37.5042
            ],
            [
              126.4701,
              37.50287
            ],
            [
              126.46454,
              37.49947
            ],
            [
              126.45761,
              37.49975
            ],
            [
              126.43217,
              37.50392
            ],
            [
              126.42747,
              37.50185
            ],
            [
              126.37342,
              37.47213
            ],
            [
              126.37487,
              37.46553
            ],
            [
              126.37843,
              37.45996
            ],
            [
              126.38787,
              37.45484
            ],
            [
              126.39705,
              37.45736
            ],
            [
              126.39567,
              37.46636
            ],
            [
              126.4113,
              37.46007
            ],
            [
              126.42074,
              37.45211
            ],
            [
              126.4339,
              37.44635
            ],
            [
              126.43195,
              37.44143
            ],
            [
              126.43317,
              37.43651
            ],
            [
              126.42717,
              37.43225
            ],
            [
              126.42279,
              37.42557
            ],
            [
              126.4277,
              37.42295
            ],
            [
              126.44181,
              37.42089
            ],
            [
              126.47791,
              37.44084
            ],
            [
              126.49616,
              37.44821
            ],
            [
              126.50028,
              37.45469
            ],
            [
              126.48968,
              37.45686
            ],
            [
              126.48566,
              37.4725
            ],
            [
              126.48558,
              37.47826
            ],
            [
              126.48895,
              37.48551
            ],
            [
              126.49908,
              37.49934
            ],
            [
              126.50532,
              37.50493
            ],
            [
              126.50004,
              37.50144
            ],
            [
              126.49757,
              37.50691
            ],
            [
              126.49046,
              37.5099
            ]
          ]
        ]
      },
      "properties": {
        "code": "23110692",
        "name": "운서1동"
      }
    },
    {
      "type": "Feature",
      "geometry": {
        "type": "Polygon",
        "coordinates": [
          [
            [
              126.50532,
              37.50493
            ],
            [
              126.49908,
              37.49934
            ],
            [
              126.48895,
              37.48551
            ],
            [
              126.48558,
              37.47826
            ],
            [
              126.48566,
              37.4725
            ],
            [
              126.48968,
              37.45686
            ],
            [
              126.50028,
              37.45469
            ],
            [
              126.50616,
              37.46394
            ],
            [
              126.50709,
              37.46858
            ],
            [
              126.50432,
              37.47565
            ],
            [
              126.49963,
              37.47907
            ],
            [
              126.50594,
              37.48348
            ],
            [
              126.51048,
              37.48084
            ],
            [
              126.51502,
              37.48488
            ],
            [
              126.51726,
              37.49119
            ],
            [
              126.50958,
              37.49962
            ],
            [
              126.5101,
              37.50344
            ],
            [
              126.50532,
              37.50493
            ]
          ]
        ]
      },
      "properties": {
        "code": "23110693",
        "name": "운서2동"
      }
    },
    {
      "type": "Feature",
      "geometry": {
        "type": "Polygon",
        "coordinates": [
          [
            [
              126.55895,
              37.4783
            ],
            [
              126.56484,
              37.47962
            ],
            [
              126.5708,
              37.48492
            ],
            [
              126.55342,
              37.49647
            ],
            [
              126.54363,
              37.48731
            ],
            [
              126.5461,
              37.4831
            ],
            [
              126.55804,
              37.48301
            ],
            [
              126.55895,
              37.4783
            ]
          ]
        ]
      },
      "properties": {
        "code": "23110681",
        "name": "영종1동"
      }
    },
    {
      "type": "Feature",
      "geometry": {
        "type": "Polygon",
        "coordinates": [
          [
            [
              126.55342,
              37.49647
            ],
            [
              126.5708,
              37.48492
            ],
            [
              126.58132,
              37.48971
            ],
            [
              126.57884,
              37.49794
            ],
            [
              126.57453,
              37.50504
            ],
            [
              126.56216,
              37.50177
            ],
            [
              126.55342,
              37.49647
            ]
          ]
        ]
      },
      "properties": {
        "code": "23110691",
        "name": "영종2동"
      }
    }
  ]
}
