{
  "type": "FeatureCollection",
  "features": [
    {
      "type": "Feature",
      "geometry": {
        "type": "Polygon",
        "coordinates": [
          [
            [
              126.65324,
              37.45961
            ],
            [
              126.64998,
              37.46505
            ],
            [
              126.64285,
              37.46225
            ],
            [
              126.64594,
              37.45786
            ],
            [
              126.64922,
              37.45808
            ],
            [
              126.65324,
              37.45961
            ]
          ]
        ]
      },
      "properties": {
        "code": "23090520",
        "name": "숭의2동"
      }
    },
    {
      "type": "Feature",
      "geometry": {
        "type": "Polygon",
        "coordinates": [
          [
            [
              126.65324,
              37.45961
            ],
            [
              126.65709,
              37.45895
            ],
            [
              126.6625,
              37.45866
            ],
            [
              126.6643,
              37.46097
            ],
            [
              126.65617,
              37.46622
            ],
            [
              126.64998,
              37.46505
            ],
            [
              126.65324,
              37.45961
            ]
          ]
        ]
      },
      "properties": {
        "code": "23090540",
        "name": "숭의4동"
      }
    },
    {
      "type": "Feature",
      "geometry": {
        "type": "Polygon",
        "coordinates": [
          [
            [
              126.63552,
              37.45727
            ],
            [
              126.64811,
              37.45219
            ],
            [
              126.64922,
              37.45808
            ],
            [
              126.64594,
              37.45786
            ],
            [
              126.63758,
              37.45993
            ],
            [
              126.63552,
              37.45727
            ]
          ]
        ]
      },
      "properties": {
        "code": "23090560",
        "name": "용현2동"
      }
    },
    {
      "type": "Feature",
      "geometry": {
        "type": "Polygon",
        "coordinates": [
          [
            [
              126.64922,
              37.45808
            ],
            [
              126.64811,
              37.45219
            ],
            [
              126.65837,
              37.45383
            ],
            [
              126.65709,
              37.45895
            ],
            [
              126.65324,
              37.45961
            ],
            [
              126.64922,
              37.45808
            ]
          ]
        ]
      },
      "properties": {
        "code": "23090570",
        "name": "용현3동"
      }
    },
    {
      "type": "Feature",
      "geometry": {
        "type": "Polygon",
        "coordinates": [
          [
            [
              126.63262,
              37.44153
            ],
            [
              126.65039,
              37.44616
            ],
            [
              126.64811,
              37.45219
            ],
            [
              126.63552,
              37.45727
            ],
            [
              126.62918,
              37.45203
            ],
            [
              126.63262,
              37.44153
            ]
          ]
        ]
      },
      "properties": {
        "code": "23090590",
        "name": "용현5동"
      }
    },
    {
      "type": "Feature",
      "geometry": {
        "type": "Polygon",
        "coordinates": [
          [
            [
              126.63468,
              37.431
            ],
            [
              126.64059,
              37.43046
            ],
            [
              126.64813,
              37.43512
            ],
            [
              126.65637,
              37.43528
            ],
            [
              126.66054,
              37.43549
            ],
            [
              126.67512,
              37.43028
            ],
            [
              126.67707,
              37.4315
            ],
            [
              126.67659,
              37.43797
            ],
            [
              126.66424,
              37.44293
            ],
            [
              126.66029,
              37.44709
            ],
            [
              126.65039,
              37.44616
            ],
            [
              126.63262,
              37.44153
            ],
            [
              126.63468,
              37.431
            ]
          ]
        ]
      },
      "properties": {
        "code": "23090600",
        "name": "학익1동"
      }
    },
    {
      "type": "Feature",
      "geometry": {
        "type": "Polygon",
        "coordinates": [
          [
            [
              126.67659,
              37.43797
            ],
            [
              126.67854,
              37.44193
            ],
            [
              126.67541,
              37.44413
            ],
            [
              126.66793,
              37.44782
            ],
            [
              126.66029,
              37.44709
            ],
            [
              126.66424,
              37.44293
            ],
            [
              126.67659,
              37.43797
            ]
          ]
        ]
      },
      "properties": {
        "code": "23090610",
        "name": "학익2동"
      }
    },
    {
      "type": "Feature",
      "geometry": {
        "type": "Polygon",
        "coordinates": [
          [
            [
              126.6643,
              37.46097
            ],
            [
              126.66871,
              37.45749
            ],
            [
              126.67621,
              37.45872
            ],
            [
              126.67695,
              37.4627
            ],
            [
              126.67372,
              37.46568
            ],
            [
              126.65619,
              37.46679
            ],
            [
              126.65617,
              37.46622
            ],
            [
              126.6643,
              37.46097
            ]
          ]
        ]
      },
      "properties": {
        "code": "23090620",
        "name": "도화1동"
      }
    },
    {
      "type": "Feature",
      "geometry": {
        "type": "Polygon",
        "coordinates": [
          [
            [
              126.67621,
              37.45872
            ],
            [
              126.68009,
              37.45848
            ],
            [
              126.68579,
              37.45813
            ],
            [
              126.68607,
              37.46449
            ],
            [
              126.67372,
              37.46568
            ],
            [
              126.67695,
              37.4627
            ],
            [
              126.67621,
              37.45872
            ]
          ]
        ]
      },
      "properties": {
        "code": "23090650",
        "name": "주안1동"
      }
    },
    {
      "type": "Feature",
      "geometry": {
        "type": "Polygon",
        "coordinates": [
          [
            [
              126.6625,
              37.45866
            ],
            [
              126.66753,
              37.45226
            ],
            [
              126.67468,
              37.45174
            ],
            [
              126.6798,
              37.45141
            ],
            [
              126.68009,
              37.45848
            ],
            [
              126.67621,
              37.45872
            ],
            [
              126.66871,
              37.45749
            ],
            [
              126.6643,
              37.46097
            ],
            [
              126.6625,
              37.45866
            ]
          ]
        ]
      },
      "properties": {
        "code": "23090660",
        "name": "주안2동"
      }
    },
    {
      "type": "Feature",
      "geometry": {
        "type": "Polygon",
        "coordinates": [
          [
            [
              126.67541,
              37.44413
            ],
            [
              126.67468,
              37.45174
            ],
            [
              126.66753,
              37.45226
            ],
            [
              126.66793,
              37.44782
            ],
            [
              126.67541,
              37.44413
            ]
          ]
        ]
      },
      "properties": {
        "code": "23090670",
        "name": "주안3동"
      }
    },
    {
      "type": "Feature",
      "geometry": {
        "type": "Polygon",
        "coordinates": [
          [
            [
              126.68009,
              37.45848
            ],
            [
              126.6798,
              37.45141
            ],
            [
              126.69261,
              37.45054
            ],
            [
              126.69504,
              37.45566
            ],
            [
              126.69453,
              37.45598
            ],
            [
              126.68579,
              37.45813
            ],
            [
              126.68009,
              37.45848
            ]
          ]
        ]
      },
      "properties": {
        "code": "23090680",
        "name": "주안4동"
      }
    },
    {
      "type": "Feature",
      "geometry": {
        "type": "Polygon",
        "coordinates": [
          [
            [
              126.68607,
              37.46449
            ],
            [
              126.69294,
              37.46472
            ],
            [
              126.6868,
              37.46621
            ],
            [
              126.68605,
              37.47202
            ],
            [
              126.68404,
              37.47335
            ],
            [
              126.67438,
              37.47551
            ],
            [
              126.67372,
              37.46568
            ],
            [
              126.68607,
              37.46449
            ]
          ]
        ]
      },
      "properties": {
        "code": "23090690",
        "name": "주안5동"
      }
    },
    {
      "type": "Feature",
      "geometry": {
        "type": "Polygon",
        "coordinates": [
          [
            [
              126.68579,
              37.45813
            ],
            [
              126.69453,
              37.45598
            ],
            [
              126.69724,
              37.46129
            ],
            [
              126.69294,
              37.46472
            ],
            [
              126.68607,
              37.46449
            ],
            [
              126.68579,
              37.45813
            ]
          ]
        ]
      },
      "properties": {
        "code": "23090700",
        "name": "주안6동"
      }
    },
    {
      "type": "Feature",
      "geometry": {
        "type": "Polygon",
        "coordinates": [
          [
            [
              126.67854,
              37.44193
            ],
            [
              126.68083,
              37.44194
            ],
            [
              126.6798,
              37.45141
            ],
            [
              126.67468,
              37.45174
            ],
            [
              126.67541,
              37.44413
            ],
            [
              126.67854,
              37.44193
            ]
          ]
        ]
      },
      "properties": {
        "code": "23090710",
        "name": "주안7동"
      }
    },
    {
      "type": "Feature",
      "geometry": {
        "type": "Polygon",
        "coordinates": [
          [
            [
              126.6798,
              37.45141
            ],
            [
              126.68083,
              37.44194
            ],
            [
              126.68506,
              37.44228
            ],
            [
              126.68752,
              37.44673
            ],
            [
              126.69288,
              37.44823
            ],
            [
              126.69261,
              37.45054
            ],
            [
              126.6798,
              37.45141
            ]
          ]
        ]
      },
      "properties": {
        "code": "23090720",
        "name": "주안8동"
      }
    },
    {
      "type": "Feature",
      "geometry": {
        "type": "Polygon",
        "coordinates": [
          [
            [
              126.68506,
              37.44228
            ],
            [
              126.69493,
              37.43877
            ],
            [
              126.70236,
              37.43887
            ],
            [
              126.70018,
              37.44362
            ],
            [
              126.69288,
              37.44823
            ],
            [
              126.68752,
              37.44673
            ],
            [
              126.68506,
              37.44228
            ]
          ]
        ]
      },
      "properties": {
        "code": "23090730",
        "name": "관교동"
      }
    },
    {
      "type": "Feature",
      "geometry": {
        "type": "Polygon",
        "coordinates": [
          [
            [
              126.67707,
              37.4315
            ],
            [
              126.68559,
              37.43019
            ],
            [
              126.68717,
              37.43318
            ],
            [
              126.69669,
              37.4334
            ],
            [
              126.69493,
              37.43877
            ],
            [
              126.68506,
              37.44228
            ],
            [
              126.68083,
              37.44194
            ],
            [
              126.67854,
              37.44193
            ],
            [
              126.67659,
              37.43797
            ],
            [
              126.67707,
              37.4315
            ]
          ]
        ]
      },
      "properties": {
        "code": "23090740",
        "name": "문학동"
      }
    },
    {
      "type": "Feature",
      "geometry": {
        "type": "Polygon",
        "coordinates": [
          [
            [
              126.63758,
              37.45993
            ],
            [
              126.64594,
              37.45786
            ],
            [
              126.64285,
              37.46225
            ],
            [
              126.64998,
              37.46505
            ],
            [
              126.65617,
              37.46622
            ],
            [
              126.65619,
              37.46679
            ],
            [
              126.65029,
              37.46951
            ],
            [
              126.64555,
              37.46995
            ],
            [
              126.64279,
              37.46849
            ],
            [
              126.64027,
              37.4641
            ],
            [
              126.63758,
              37.45993
            ]
          ]
        ]
      },
      "properties": {
        "code": "23090750",
        "name": "숭의1·3동"
      }
    },
    {
      "type": "Feature",
      "geometry": {
        "type": "Polygon",
        "coordinates": [
          [
            [
              126.65709,
              37.45895
            ],
            [
              126.65837,
              37.45383
            ],
            [
              126.64811,
              37.45219
            ],
            [
              126.65039,
              37.44616
            ],
            [
              126.66029,
              37.44709
            ],
            [
              126.66793,
              37.44782
            ],
            [
              126.66753,
              37.45226
            ],
            [
              126.6625,
              37.45866
            ],
            [
              126.65709,
              37.45895
            ]
          ]
        ]
      },
      "properties": {
        "code": "23090760",
        "name": "용현1·4동"
      }
    },
    {
      "type": "Feature",
      "geometry": {
        "type": "Polygon",
        "coordinates": [
          [
            [
              126.65029,
              37.46951
            ],
            [
              126.65619,
              37.46679
            ],
            [
              126.67372,
              37.46568
            ],
            [
              126.67438,
              37.47551
            ],
            [
              126.67048,
              37.47685
            ],
            [
              126.65496,
              37.48406
            ],
            [
              126.65223,
              37.47582
            ],
            [
              126.65029,
              37.46951
            ]
          ]
        ]
      },
      "properties": {
        "code": "23090770",
        "name": "도화2·3동"
      }
    }
  ]
}
