{
  "type": "FeatureCollection",
  "features": [
    {
      "type": "Feature",
      "geometry": {
        "type": "Polygon",
        "coordinates": [
          [
            [
              126.66051,
              37.42719
            ],
            [
              126.65484,
              37.4283
            ],
            [
              126.65213,
              37.42459
            ],
            [
              126.64474,
              37.42432
            ],
            [
              126.63729,
              37.42153
            ],
            [
              126.64112,
              37.41301
            ],
            [
              126.64813,
              37.41313
            ],
            [
              126.66128,
              37.41753
            ],
            [
              126.6592,
              37.42331
            ],
            [
              126.66051,
              37.42719
            ]
          ]
        ]
      },
      "properties": {
        "code": "23040510",
        "name": "옥련1동"
      }
    },
    {
      "type": "Feature",
      "geometry": {
        "type": "Polygon",
        "coordinates": [
          [
            [
              126.69493,
              37.43877
            ],
            [
              126.69669,
              37.4334
            ],
            [
              126.68717,
              37.43318
            ],
            [
              126.68559,
              37.43019
            ],
            [
              126.69149,
              37.42294
            ],
            [
              126.69464,
              37.41877
            ],
            [
              126.69534,
              37.4171
            ],
            [
              126.70412,
              37.42492
            ],
            [
              126.7062,
              37.43415
            ],
            [
              126.70236,
              37.43887
            ],
            [
              126.69493,
              37.43877
            ]
          ]
        ]
      },
      "properties": {
        "code": "23040520",
        "name": "선학동"
      }
    },
    {
      "type": "Feature",
      "geometry": {
        "type": "Polygon",
        "coordinates": [
          [
            [
              126.67512,
              37.43028
            ],
            [
              126.67128,
              37.42584
            ],
            [
              126.67304,
              37.42134
            ],
            [
              126.67776,
              37.41846
            ],
            [
              126.67953,
              37.41781
            ],
            [
              126.68641,
              37.42389
            ],
            [
              126.69149,
              37.42294
            ],
            [
              126.68559,
              37.43019
            ],
            [
              126.67707,
              37.4315
            ],
            [
              126.67512,
              37.43028
            ]
          ]
        ]
      },
      "properties": {
        "code": "23040530",
        "name": "연수1동"
      }
    },
    {
      "type": "Feature",
      "geometry": {
        "type": "Polygon",
        "coordinates": [
          [
            [
              126.69464,
              37.41877
            ],
            [
              126.68499,
              37.41411
            ],
            [
              126.67953,
              37.41781
            ],
            [
              126.67776,
              37.41846
            ],
            [
              126.67563,
              37.41365
            ],
            [
              126.68552,
              37.40657
            ],
            [
              126.6871,
              37.41063
            ],
            [
              126.69534,
              37.4171
            ],
            [
              126.69464,
              37.41877
            ]
          ]
        ]
      },
      "properties": {
        "code": "23040540",
        "name": "연수2동"
      }
    },
    {
      "type": "Feature",
      "geometry": {
        "type": "Polygon",
        "coordinates": [
          [
            [
              126.69149,
              37.42294
            ],
            [
              126.68641,
              37.42389
            ],
            [
              126.67953,
              37.41781
            ],
            [
              126.68499,
              37.41411
            ],
            [
              126.69464,
              37.41877
            ],
            [
              126.69149,
              37.42294
            ]
          ]
        ]
      },
      "properties": {
        "code": "23040550",
        "name": "연수3동"
      }
    },
    {
      "type": "Feature",
      "geometry": {
        "type": "Polygon",
        "coordinates": [
          [
            [
              126.65637,
              37.43528
            ],
            [
              126.66051,
              37.42719
            ],
            [
              126.6592,
              37.42331
            ],
            [
              126.66128,
              37.41753
            ],
            [
              126.66743,
              37.41562
            ],
            [
              126.67262,
              37.41693
            ],
            [
              126.67563,
              37.41365
            ],
            [
              126.67776,
              37.41846
            ],
            [
              126.67304,
              37.42134
            ],
            [
              126.67128,
              37.42584
            ],
            [
              126.67512,
              37.43028
            ],
            [
              126.66054,
              37.43549
            ],
            [
              126.65637,
              37.43528
            ]
          ]
        ]
      },
      "properties": {
        "code": "23040560",
        "name": "청학동"
      }
    },
    {
      "type": "Feature",
      "geometry": {
        "type": "Polygon",
        "coordinates": [
          [
            [
              126.64112,
              37.41301
            ],
            [
              126.64629,
              37.40837
            ],
            [
              126.65509,
              37.40064
            ],
            [
              126.66331,
              37.39507
            ],
            [
              126.67079,
              37.40912
            ],
            [
              126.67563,
              37.41365
            ],
            [
              126.67262,
              37.41693
            ],
            [
              126.66743,
              37.41562
            ],
            [
              126.66128,
              37.41753
            ],
            [
              126.64813,
              37.41313
            ],
            [
              126.64112,
              37.41301
            ]
          ]
        ]
      },
      "properties": {
        "code": "23040570",
        "name": "동춘1동"
      }
    },
    {
      "type": "Feature",
      "geometry": {
        "type": "Polygon",
        "coordinates": [
          [
            [
              126.66331,
              37.39507
            ],
            [
              126.66699,
              37.39276
            ],
            [
              126.66778,
              37.3923
            ],
            [
              126.68027,
              37.40278
            ],
            [
              126.67079,
              37.40912
            ],
            [
              126.66331,
              37.39507
            ]
          ]
        ]
      },
      "properties": {
        "code": "23040580",
        "name": "동춘2동"
      }
    },
    {
      "type": "Feature",
      "geometry": {
        "type": "Polygon",
        "coordinates": [
          [
            [
              126.67563,
              37.41365
            ],
            [
              126.67079,
              37.40912
            ],
            [
              126.68027,
              37.40278
            ],
            [
              126.68552,
              37.40657
            ],
            [
              126.67563,
              37.41365
            ]
          ]
        ]
      },
      "properties": {
        "code": "23040590",
        "name": "동춘3동"
      }
    },
    {
      "type": "Feature",
      "geometry": {
        "type": "Polygon",
        "coordinates": [
          [
            [
              126.63497,
              37.43003
            ],
            [
              126.63729,
              37.42153
            ],
            [
              126.64474,
              37.42432
            ],
            [
              126.65213,
              37.42459
            ],
            [
              126.65484,
              37.4283
            ],
            [
              126.66051,
              37.42719
            ],
            [
              126.65637,
              37.43528
            ],
            [
              126.64813,
              37.43512
            ],
            [
              126.64059,
              37.43046
            ],
            [
              126.63468,
              37.431
            ],
            [
              126.63497,
              37.43003
            ]
          ]
        ]
      },
      "properties": {
        "code": "23040600",
        "name": "옥련2동"
      }
    },
    {
      "type": "Feature",
      "geometry": {
        "type": "Polygon",
        "coordinates": [
          [
            [
              126.60977,
              37.40657
            ],
            [
              126.60987,
              37.38716
            ],
            [
              126.61607,
              37.37925
            ],
            [
              126.62473,
              37.37415
            ],
            [
              126.62676,
              37.37401
            ],
            [
              126.63958,
              37.38588
            ],
            [
              126.6248,
              37.40912
            ],
            [
              126.60977,
              37.40657
            ]
          ]
        ]
      },
      "properties": {
        "code": "23040680",
        "name": "송도4동"
      }
    },
    {
      "type": "Feature",
      "geometry": {
        "type": "Polygon",
        "coordinates": [
          [
            [
              126.65509,
              37.40064
            ],
            [
              126.63958,
              37.38588
            ],
            [
              126.62676,
              37.37401
            ],
            [
              126.63603,
              37.36798
            ],
            [
              126.64132,
              37.36604
            ],
            [
              126.66699,
              37.39276
            ],
            [
              126.66331,
              37.39507
            ],
            [
              126.65509,
              37.40064
            ]
          ]
        ]
      },
      "properties": {
        "code": "23040640",
        "name": "송도1동"
      }
    },
    {
      "type": "Feature",
      "geometry": {
        "type": "Polygon",
        "coordinates": [
          [
            [
              126.66699,
              37.39276
            ],
            [
              126.64132,
              37.36604
            ],
            [
              126.63603,
              37.36798
            ],
            [
              126.62676,
              37.37401
            ],
            [
              126.62473,
              37.37415
            ],
            [
              126.61191,
              37.35531
            ],
            [
              126.58453,
              37.35466
            ],
            [
              126.58461,
              37.34738
            ],
            [
              126.61727,
              37.34732
            ],
            [
              126.61731,
              37.34285
            ],
            [
              126.66107,
              37.34325
            ],
            [
              126.71593,
              37.37907
            ],
            [
              126.71771,
              37.38111
            ],
            [
              126.71026,
              37.38316
            ],
            [
              126.6745,
              37.38911
            ],
            [
              126.66778,
              37.3923
            ],
            [
              126.66699,
              37.39276
            ]
          ]
        ]
      },
      "properties": {
        "code": "23040650",
        "name": "송도3동"
      }
    },
    {
      "type": "Feature",
      "geometry": {
        "type": "Polygon",
        "coordinates": [
          [
            [
              126.64629,
              37.40837
            ],
            [
              126.63859,
              37.40766
            ],
            [
              126.63401,
              37.41014
            ],
            [
              126.6248,
              37.40912
            ],
            [
              126.63958,
              37.38588
            ],
            [
              126.65509,
              37.40064
            ],
            [
              126.64629,
              37.40837
            ]
          ]
        ]
      },
      "properties": {
        "code": "23040660",
        "name": "송도2동"
      }
    },
    {
      "type": "Feature",
      "geometry": {
        "type": "Polygon",
        "coordinates": [
          [
            [
              126.61087,
              37.42992
            ],
            [
              126.60791,
              37.42708
            ],
            [
              126.58981,
              37.43305
            ],
            [
              126.59029,
              37.41914
            ],
            [
              126.59682,
              37.41595
            ],
            [
              126.60972,
              37.41605
            ],
            [
              126.60977,
              37.40657
            ],
            [
              126.6248,
              37.40912
            ],
            [
              126.63401,
              37.41014
            ],
            [
              126.63859,
              37.40766
            ],
            [
              126.64629,
              37.40837
            ],
            [
              126.64112,
              37.41301
            ],
            [
              126.63729,
              37.42153
            ],
            [
              126.63497,
              37.43003
            ],
            [
              126.61087,
              37.42992
            ]
          ]
        ]
      },
      "properties": {
        "code": "23040690",
        "name": "송도5동"
      }
    }
  ]
}
