{
  "type": "FeatureCollection",
  "features": [
    {
      "type": "Feature",
      "geometry": {
        "type": "Polygon",
        "coordinates": [
          [
            [
              126.70236,
              37.43887
            ],
            [
              126.7062,
              37.43415
            ],
            [
              126.71776,
              37.44079
            ],
            [
              126.71897,
              37.45224
            ],
            [
              126.70811,
              37.45304
            ],
            [
              126.70867,
              37.45698
            ],
            [
              126.70185,
              37.45474
            ],
            [
              126.70018,
              37.44362
            ],
            [
              126.70236,
              37.43887
            ]
          ]
        ]
      },
      "properties": {
        "code": "23050510",
        "name": "구월1동"
      }
    },
    {
      "type": "Feature",
      "geometry": {
        "type": "Polygon",
        "coordinates": [
          [
            [
              126.71897,
              37.45224
            ],
            [
              126.72163,
              37.45574
            ],
            [
              126.72182,
              37.46068
            ],
            [
              126.72007,
              37.46109
            ],
            [
              126.7125,
              37.46065
            ],
            [
              126.70867,
              37.45698
            ],
            [
              126.70811,
              37.45304
            ],
            [
              126.71897,
              37.45224
            ]
          ]
        ]
      },
      "properties": {
        "code": "23050521",
        "name": "구월2동"
      }
    },
    {
      "type": "Feature",
      "geometry": {
        "type": "Polygon",
        "coordinates": [
          [
            [
              126.69261,
              37.45054
            ],
            [
              126.69288,
              37.44823
            ],
            [
              126.70018,
              37.44362
            ],
            [
              126.70185,
              37.45474
            ],
            [
              126.69504,
              37.45566
            ],
            [
              126.69261,
              37.45054
            ]
          ]
        ]
      },
      "properties": {
        "code": "23050530",
        "name": "구월3동"
      }
    },
    {
      "type": "Feature",
      "geometry": {
        "type": "Polygon",
        "coordinates": [
          [
            [
              126.71776,
              37.44079
            ],
            [
              126.72774,
              37.44464
            ],
            [
              126.72974,
              37.44784
            ],
            [
              126.72595,
              37.45187
            ],
            [
              126.72163,
              37.45574
            ],
            [
              126.71897,
              37.45224
            ],
            [
              126.71776,
              37.44079
            ]
          ]
        ]
      },
      "properties": {
        "code": "23050540",
        "name": "구월4동"
      }
    },
    {
      "type": "Feature",
      "geometry": {
        "type": "Polygon",
        "coordinates": [
          [
            [
              126.69504,
              37.45566
            ],
            [
              126.70185,
              37.45474
            ],
            [
              126.70867,
              37.45698
            ],
            [
              126.70795,
              37.46684
            ],
            [
              126.69724,
              37.46129
            ],
            [
              126.69453,
              37.45598
            ],
            [
              126.69504,
              37.45566
            ]
          ]
        ]
      },
      "properties": {
        "code": "23050550",
        "name": "간석1동"
      }
    },
    {
      "type": "Feature",
      "geometry": {
        "type": "Polygon",
        "coordinates": [
          [
            [
              126.72007,
              37.46109
            ],
            [
              126.70797,
              37.46715
            ],
            [
              126.70795,
              37.46684
            ],
            [
              126.70867,
              37.45698
            ],
            [
              126.7125,
              37.46065
            ],
            [
              126.72007,
              37.46109
            ]
          ]
        ]
      },
      "properties": {
        "code": "23050561",
        "name": "간석2동"
      }
    },
    {
      "type": "Feature",
      "geometry": {
        "type": "Polygon",
        "coordinates": [
          [
            [
              126.72182,
              37.46068
            ],
            [
              126.72285,
              37.47027
            ],
            [
              126.71094,
              37.47962
            ],
            [
              126.70961,
              37.47589
            ],
            [
              126.70798,
              37.46933
            ],
            [
              126.70797,
              37.46715
            ],
            [
              126.72007,
              37.46109
            ],
            [
              126.72182,
              37.46068
            ]
          ]
        ]
      },
      "properties": {
        "code": "23050570",
        "name": "간석3동"
      }
    },
    {
      "type": "Feature",
      "geometry": {
        "type": "Polygon",
        "coordinates": [
          [
            [
              126.69294,
              37.46472
            ],
            [
              126.69724,
              37.46129
            ],
            [
              126.70795,
              37.46684
            ],
            [
              126.70797,
              37.46715
            ],
            [
              126.70798,
              37.46933
            ],
            [
              126.69761,
              37.46809
            ],
            [
              126.69339,
              37.46994
            ],
            [
              126.68605,
              37.47202
            ],
            [
              126.6868,
              37.46621
            ],
            [
              126.69294,
              37.46472
            ]
          ]
        ]
      },
      "properties": {
        "code": "23050580",
        "name": "간석4동"
      }
    },
    {
      "type": "Feature",
      "geometry": {
        "type": "Polygon",
        "coordinates": [
          [
            [
              126.72974,
              37.44784
            ],
            [
              126.74023,
              37.44802
            ],
            [
              126.74272,
              37.45068
            ],
            [
              126.73334,
              37.45488
            ],
            [
              126.72595,
              37.45187
            ],
            [
              126.72974,
              37.44784
            ]
          ]
        ]
      },
      "properties": {
        "code": "23050590",
        "name": "만수1동"
      }
    },
    {
      "type": "Feature",
      "geometry": {
        "type": "Polygon",
        "coordinates": [
          [
            [
              126.74514,
              37.46537
            ],
            [
              126.73847,
              37.4709
            ],
            [
              126.73229,
              37.47159
            ],
            [
              126.73127,
              37.46448
            ],
            [
              126.72726,
              37.45903
            ],
            [
              126.7307,
              37.45661
            ],
            [
              126.73558,
              37.46169
            ],
            [
              126.74263,
              37.46007
            ],
            [
              126.74514,
              37.46537
            ]
          ]
        ]
      },
      "properties": {
        "code": "23050600",
        "name": "만수2동"
      }
    },
    {
      "type": "Feature",
      "geometry": {
        "type": "Polygon",
        "coordinates": [
          [
            [
              126.72182,
              37.46068
            ],
            [
              126.72726,
              37.45903
            ],
            [
              126.73127,
              37.46448
            ],
            [
              126.73229,
              37.47159
            ],
            [
              126.73118,
              37.47244
            ],
            [
              126.72285,
              37.47027
            ],
            [
              126.72182,
              37.46068
            ]
          ]
        ]
      },
      "properties": {
        "code": "23050610",
        "name": "만수3동"
      }
    },
    {
      "type": "Feature",
      "geometry": {
        "type": "Polygon",
        "coordinates": [
          [
            [
              126.74272,
              37.45068
            ],
            [
              126.74263,
              37.46007
            ],
            [
              126.73558,
              37.46169
            ],
            [
              126.7307,
              37.45661
            ],
            [
              126.73334,
              37.45488
            ],
            [
              126.74272,
              37.45068
            ]
          ]
        ]
      },
      "properties": {
        "code": "23050620",
        "name": "만수4동"
      }
    },
    {
      "type": "Feature",
      "geometry": {
        "type": "Polygon",
        "coordinates": [
          [
            [
              126.72163,
              37.45574
            ],
            [
              126.72595,
              37.45187
            ],
            [
              126.73334,
              37.45488
            ],
            [
              126.7307,
              37.45661
            ],
            [
              126.72726,
              37.45903
            ],
            [
              126.72182,
              37.46068
            ],
            [
              126.72163,
              37.45574
            ]
          ]
        ]
      },
      "properties": {
        "code": "23050630",
        "name": "만수5동"
      }
    },
    {
      "type": "Feature",
      "geometry": {
        "type": "Polygon",
        "coordinates": [
          [
            [
              126.72974,
              37.44784
            ],
            [
              126.73633,
              37.43773
            ],
            [
              126.73568,
              37.43301
            ],
            [
              126.74179,
              37.43285
            ],
            [
              126.74346,
              37.43833
            ],
            [
              126.74928,
              37.44182
            ],
            [
              126.75025,
              37.44514
            ],
            [
              126.74023,
              37.44802
            ],
            [
              126.72974,
              37.44784
            ]
          ]
        ]
      },
      "properties": {
        "code": "23050640",
        "name": "만수6동"
      }
    },
    {
      "type": "Feature",
      "geometry": {
        "type": "Polygon",
        "coordinates": [
          [
            [
              126.73568,
              37.43301
            ],
            [
              126.74002,
              37.4207
            ],
            [
              126.74748,
              37.41959
            ],
            [
              126.75329,
              37.41692
            ],
            [
              126.75369,
              37.42254
            ],
            [
              126.76098,
              37.42629
            ],
            [
              126.75915,
              37.43221
            ],
            [
              126.74179,
              37.43285
            ],
            [
              126.73568,
              37.43301
            ]
          ]
        ]
      },
      "properties": {
        "code": "23050760",
        "name": "서창2동"
      }
    },
    {
      "type": "Feature",
      "geometry": {
        "type": "Polygon",
        "coordinates": [
          [
            [
              126.69534,
              37.4171
            ],
            [
              126.70882,
              37.41031
            ],
            [
              126.71342,
              37.41285
            ],
            [
              126.71844,
              37.40838
            ],
            [
              126.72401,
              37.41022
            ],
            [
              126.73134,
              37.41162
            ],
            [
              126.74002,
              37.4207
            ],
            [
              126.73568,
              37.43301
            ],
            [
              126.73633,
              37.43773
            ],
            [
              126.72974,
              37.44784
            ],
            [
              126.72774,
              37.44464
            ],
            [
              126.71776,
              37.44079
            ],
            [
              126.7062,
              37.43415
            ],
            [
              126.70412,
              37.42492
            ],
            [
              126.69534,
              37.4171
            ]
          ]
        ]
      },
      "properties": {
        "code": "23050670",
        "name": "남촌도림동"
      }
    },
    {
      "type": "Feature",
      "geometry": {
        "type": "Polygon",
        "coordinates": [
          [
            [
              126.74002,
              37.4207
            ],
            [
              126.73134,
              37.41162
            ],
            [
              126.72401,
              37.41022
            ],
            [
              126.72442,
              37.40103
            ],
            [
              126.7315,
              37.40183
            ],
            [
              126.73836,
              37.39652
            ],
            [
              126.74384,
              37.40037
            ],
            [
              126.75058,
              37.40761
            ],
            [
              126.75329,
              37.41692
            ],
            [
              126.74748,
              37.41959
            ],
            [
              126.74002,
              37.4207
            ]
          ]
        ]
      },
      "properties": {
        "code": "23050720",
        "name": "논현1동"
      }
    },
    {
      "type": "Feature",
      "geometry": {
        "type": "Polygon",
        "coordinates": [
          [
            [
              126.6871,
              37.41063
            ],
            [
              126.68953,
              37.41127
            ],
            [
              126.70302,
              37.40306
            ],
            [
              126.71232,
              37.39903
            ],
            [
              126.72442,
              37.40103
            ],
            [
              126.72401,
              37.41022
            ],
            [
              126.71844,
              37.40838
            ],
            [
              126.71342,
              37.41285
            ],
            [
              126.70882,
              37.41031
            ],
            [
              126.69534,
              37.4171
            ],
            [
              126.6871,
              37.41063
            ]
          ]
        ]
      },
      "properties": {
        "code": "23050730",
        "name": "논현2동"
      }
    },
    {
      "type": "Feature",
      "geometry": {
        "type": "Polygon",
        "coordinates": [
          [
            [
              126.68552,
              37.40657
            ],
            [
              126.68027,
              37.40278
            ],
            [
              126.66778,
              37.3923
            ],
            [
              126.6745,
              37.38911
            ],
            [
              126.71026,
              37.38316
            ],
            [
              126.71771,
              37.38111
            ],
            [
              126.72091,
              37.38114
            ],
            [
              126.73654,
              37.39543
            ],
            [
              126.73836,
              37.39652
            ],
            [
              126.7315,
              37.40183
            ],
            [
              126.72442,
              37.40103
            ],
            [
              126.71232,
              37.39903
            ],
            [
              126.70302,
              37.40306
            ],
            [
              126.68953,
              37.41127
            ],
            [
              126.6871,
              37.41063
            ],
            [
              126.68552,
              37.40657
            ]
          ]
        ]
      },
      "properties": {
        "code": "23050740",
        "name": "논현고잔동"
      }
    },
    {
      "type": "Feature",
      "geometry": {
        "type": "Polygon",
        "coordinates": [
          [
            [
              126.74023,
              37.44802
            ],
            [
              126.75025,
              37.44514
            ],
            [
              126.74928,
              37.44182
            ],
            [
              126.74346,
              37.43833
            ],
            [
              126.74179,
              37.43285
            ],
            [
              126.75915,
              37.43221
            ],
            [
              126.76098,
              37.42629
            ],
            [
              126.76737,
              37.42659
            ],
            [
              126.77035,
              37.42905
            ],
            [
              126.77105,
              37.43682
            ],
            [
              126.76884,
              37.44293
            ],
            [
              126.77174,
              37.45027
            ],
            [
              126.77832,
              37.45079
            ],
            [
              126.77745,
              37.45752
            ],
            [
              126.77984,
              37.46579
            ],
            [
              126.77823,
              37.47179
            ],
            [
              126.77808,
              37.47181
            ],
            [
              126.77188,
              37.47236
            ],
            [
              126.76774,
              37.47176
            ],
            [
              126.75694,
              37.46917
            ],
            [
              126.75452,
              37.46573
            ],
            [
              126.74514,
              37.46537
            ],
            [
              126.74263,
              37.46007
            ],
            [
              126.74272,
              37.45068
            ],
            [
              126.74023,
              37.44802
            ]
          ]
        ]
      },
      "properties": {
        "code": "23050750",
        "name": "장수서창동"
      }
    }
  ]
}
