{
  "type": "FeatureCollection",
  "features": [
    {
      "type": "Feature",
      "geometry": {
        "type": "Polygon",
        "coordinates": [
          [
            [
              126.72298,
              37.49398
            ],
            [
              126.72104,
              37.50662
            ],
            [
              126.72071,
              37.5065
            ],
            [
              126.71513,
              37.50359
            ],
            [
              126.71619,
              37.49782
            ],
            [
              126.71636,
              37.49108
            ],
            [
              126.71726,
              37.48947
            ],
            [
              126.72156,
              37.48962
            ],
            [
              126.7295,
              37.4891
            ],
            [
              126.72298,
              37.49398
            ]
          ]
        ]
      },
      "properties": {
        "code": "23060510",
        "name": "부평1동"
      }
    },
    {
      "type": "Feature",
      "geometry": {
        "type": "Polygon",
        "coordinates": [
          [
            [
              126.72285,
              37.47027
            ],
            [
              126.73118,
              37.47244
            ],
            [
              126.73246,
              37.47754
            ],
            [
              126.73035,
              37.47918
            ],
            [
              126.72333,
              37.48137
            ],
            [
              126.72156,
              37.48962
            ],
            [
              126.71726,
              37.48947
            ],
            [
              126.7127,
              37.48546
            ],
            [
              126.71094,
              37.47962
            ],
            [
              126.72285,
              37.47027
            ]
          ]
        ]
      },
      "properties": {
        "code": "23060520",
        "name": "부평2동"
      }
    },
    {
      "type": "Feature",
      "geometry": {
        "type": "Polygon",
        "coordinates": [
          [
            [
              126.71094,
              37.47962
            ],
            [
              126.7127,
              37.48546
            ],
            [
              126.71726,
              37.48947
            ],
            [
              126.71636,
              37.49108
            ],
            [
              126.7122,
              37.49089
            ],
            [
              126.70712,
              37.48706
            ],
            [
              126.70154,
              37.48661
            ],
            [
              126.70135,
              37.4851
            ],
            [
              126.70456,
              37.48094
            ],
            [
              126.70961,
              37.47589
            ],
            [
              126.71094,
              37.47962
            ]
          ]
        ]
      },
      "properties": {
        "code": "23060530",
        "name": "부평3동"
      }
    },
    {
      "type": "Feature",
      "geometry": {
        "type": "Polygon",
        "coordinates": [
          [
            [
              126.72298,
              37.49398
            ],
            [
              126.73041,
              37.49812
            ],
            [
              126.73113,
              37.50529
            ],
            [
              126.73122,
              37.50702
            ],
            [
              126.7208,
              37.50736
            ],
            [
              126.72104,
              37.50662
            ],
            [
              126.72298,
              37.49398
            ]
          ]
        ]
      },
      "properties": {
        "code": "23060540",
        "name": "부평4동"
      }
    },
    {
      "type": "Feature",
      "geometry": {
        "type": "Polygon",
        "coordinates": [
          [
            [
              126.7295,
              37.4891
            ],
            [
              126.73232,
              37.48898
            ],
            [
              126.73379,
              37.4979
            ],
            [
              126.73427,
              37.50274
            ],
            [
              126.73113,
              37.50529
            ],
            [
              126.73041,
              37.49812
            ],
            [
              126.72298,
              37.49398
            ],
            [
              126.7295,
              37.4891
            ]
          ]
        ]
      },
      "properties": {
        "code": "23060550",
        "name": "부평5동"
      }
    },
    {
      "type": "Feature",
      "geometry": {
        "type": "Polygon",
        "coordinates": [
          [
            [
              126.72156,
              37.48962
            ],
            [
              126.72333,
              37.48137
            ],
            [
              126.73035,
              37.47918
            ],
            [
              126.73232,
              37.48898
            ],
            [
              126.7295,
              37.4891
            ],
            [
              126.72156,
              37.48962
            ]
          ]
        ]
      },
      "properties": {
        "code": "23060560",
        "name": "부평6동"
      }
    },
    {
      "type": "Feature",
      "geometry": {
        "type": "Polygon",
        "coordinates": [
          [
            [
              126.70392,
              37.51302
            ],
            [
              126.69326,
              37.51376
            ],
            [
              126.6883,
              37.50844
            ],
            [
              126.68845,
              37.50521
            ],
            [
              126.691,
              37.50379
            ],
            [
              126.68997,
              37.49944
            ],
            [
              126.69284,
              37.49536
            ],
            [
              126.69483,
              37.4917
            ],
            [
              126.70258,
              37.49625
            ],
            [
              126.69965,
              37.50455
            ],
            [
              126.70317,
              37.50436
            ],
            [
              126.70371,
              37.5105
            ],
            [
              126.70392,
              37.51302
            ]
          ]
        ]
      },
      "properties": {
        "code": "23060570",
        "name": "산곡1동"
      }
    },
    {
      "type": "Feature",
      "geometry": {
        "type": "Polygon",
        "coordinates": [
          [
            [
              126.70258,
              37.49625
            ],
            [
              126.70906,
              37.49882
            ],
            [
              126.70891,
              37.50614
            ],
            [
              126.70928,
              37.51019
            ],
            [
              126.70371,
              37.5105
            ],
            [
              126.70317,
              37.50436
            ],
            [
              126.69965,
              37.50455
            ],
            [
              126.70258,
              37.49625
            ]
          ]
        ]
      },
      "properties": {
        "code": "23060580",
        "name": "산곡2동"
      }
    },
    {
      "type": "Feature",
      "geometry": {
        "type": "Polygon",
        "coordinates": [
          [
            [
              126.71619,
              37.49782
            ],
            [
              126.70906,
              37.49882
            ],
            [
              126.70258,
              37.49625
            ],
            [
              126.69483,
              37.4917
            ],
            [
              126.70154,
              37.48661
            ],
            [
              126.70712,
              37.48706
            ],
            [
              126.7122,
              37.49089
            ],
            [
              126.71636,
              37.49108
            ],
            [
              126.71619,
              37.49782
            ]
          ]
        ]
      },
      "properties": {
        "code": "23060590",
        "name": "산곡3동"
      }
    },
    {
      "type": "Feature",
      "geometry": {
        "type": "Polygon",
        "coordinates": [
          [
            [
              126.71513,
              37.50359
            ],
            [
              126.70891,
              37.50614
            ],
            [
              126.70906,
              37.49882
            ],
            [
              126.71619,
              37.49782
            ],
            [
              126.71513,
              37.50359
            ]
          ]
        ]
      },
      "properties": {
        "code": "23060600",
        "name": "산곡4동"
      }
    },
    {
      "type": "Feature",
      "geometry": {
        "type": "Polygon",
        "coordinates": [
          [
            [
              126.70392,
              37.51302
            ],
            [
              126.70497,
              37.52363
            ],
            [
              126.68916,
              37.52356
            ],
            [
              126.68913,
              37.52347
            ],
            [
              126.68322,
              37.517
            ],
            [
              126.68328,
              37.51466
            ],
            [
              126.6883,
              37.50844
            ],
            [
              126.69326,
              37.51376
            ],
            [
              126.70392,
              37.51302
            ]
          ]
        ]
      },
      "properties": {
        "code": "23060610",
        "name": "청천1동"
      }
    },
    {
      "type": "Feature",
      "geometry": {
        "type": "Polygon",
        "coordinates": [
          [
            [
              126.72071,
              37.5065
            ],
            [
              126.72213,
              37.52381
            ],
            [
              126.71916,
              37.52377
            ],
            [
              126.70497,
              37.52363
            ],
            [
              126.70392,
              37.51302
            ],
            [
              126.70371,
              37.5105
            ],
            [
              126.70928,
              37.51019
            ],
            [
              126.70891,
              37.50614
            ],
            [
              126.71513,
              37.50359
            ],
            [
              126.72071,
              37.5065
            ]
          ]
        ]
      },
      "properties": {
        "code": "23060620",
        "name": "청천2동"
      }
    },
    {
      "type": "Feature",
      "geometry": {
        "type": "Polygon",
        "coordinates": [
          [
            [
              126.72104,
              37.50662
            ],
            [
              126.7208,
              37.50736
            ],
            [
              126.7255,
              37.51462
            ],
            [
              126.73198,
              37.51479
            ],
            [
              126.73228,
              37.51765
            ],
            [
              126.73299,
              37.52386
            ],
            [
              126.72589,
              37.5238
            ],
            [
              126.72213,
              37.52381
            ],
            [
              126.72071,
              37.5065
            ],
            [
              126.72104,
              37.50662
            ]
          ]
        ]
      },
      "properties": {
        "code": "23060630",
        "name": "갈산1동"
      }
    },
    {
      "type": "Feature",
      "geometry": {
        "type": "Polygon",
        "coordinates": [
          [
            [
              126.73122,
              37.50702
            ],
            [
              126.73198,
              37.51479
            ],
            [
              126.7255,
              37.51462
            ],
            [
              126.7208,
              37.50736
            ],
            [
              126.73122,
              37.50702
            ]
          ]
        ]
      },
      "properties": {
        "code": "23060640",
        "name": "갈산2동"
      }
    },
    {
      "type": "Feature",
      "geometry": {
        "type": "Polygon",
        "coordinates": [
          [
            [
              126.73228,
              37.51765
            ],
            [
              126.752,
              37.51641
            ],
            [
              126.75957,
              37.51556
            ],
            [
              126.761,
              37.51798
            ],
            [
              126.76034,
              37.5241
            ],
            [
              126.73299,
              37.52386
            ],
            [
              126.73228,
              37.51765
            ]
          ]
        ]
      },
      "properties": {
        "code": "23060650",
        "name": "삼산1동"
      }
    },
    {
      "type": "Feature",
      "geometry": {
        "type": "Polygon",
        "coordinates": [
          [
            [
              126.73246,
              37.47754
            ],
            [
              126.74184,
              37.48409
            ],
            [
              126.7426,
              37.48665
            ],
            [
              126.74242,
              37.48843
            ],
            [
              126.73232,
              37.48898
            ],
            [
              126.73035,
              37.47918
            ],
            [
              126.73246,
              37.47754
            ]
          ]
        ]
      },
      "properties": {
        "code": "23060660",
        "name": "부개1동"
      }
    },
    {
      "type": "Feature",
      "geometry": {
        "type": "Polygon",
        "coordinates": [
          [
            [
              126.73232,
              37.48898
            ],
            [
              126.74242,
              37.48843
            ],
            [
              126.74242,
              37.48849
            ],
            [
              126.74256,
              37.49722
            ],
            [
              126.73379,
              37.4979
            ],
            [
              126.73232,
              37.48898
            ]
          ]
        ]
      },
      "properties": {
        "code": "23060670",
        "name": "부개2동"
      }
    },
    {
      "type": "Feature",
      "geometry": {
        "type": "Polygon",
        "coordinates": [
          [
            [
              126.73113,
              37.50529
            ],
            [
              126.73427,
              37.50274
            ],
            [
              126.73379,
              37.4979
            ],
            [
              126.74256,
              37.49722
            ],
            [
              126.74216,
              37.50645
            ],
            [
              126.73122,
              37.50702
            ],
            [
              126.73113,
              37.50529
            ]
          ]
        ]
      },
      "properties": {
        "code": "23060680",
        "name": "부개3동"
      }
    },
    {
      "type": "Feature",
      "geometry": {
        "type": "Polygon",
        "coordinates": [
          [
            [
              126.74514,
              37.46537
            ],
            [
              126.75452,
              37.46573
            ],
            [
              126.75694,
              37.46917
            ],
            [
              126.76774,
              37.47176
            ],
            [
              126.76179,
              37.47633
            ],
            [
              126.75525,
              37.48082
            ],
            [
              126.75452,
              37.4837
            ],
            [
              126.7426,
              37.48665
            ],
            [
              126.74184,
              37.48409
            ],
            [
              126.73246,
              37.47754
            ],
            [
              126.73118,
              37.47244
            ],
            [
              126.73229,
              37.47159
            ],
            [
              126.73847,
              37.4709
            ],
            [
              126.74514,
              37.46537
            ]
          ]
        ]
      },
      "properties": {
        "code": "23060690",
        "name": "일신동"
      }
    },
    {
      "type": "Feature",
      "geometry": {
        "type": "Polygon",
        "coordinates": [
          [
            [
              126.68605,
              37.47202
            ],
            [
              126.69339,
              37.46994
            ],
            [
              126.70456,
              37.48094
            ],
            [
              126.70135,
              37.4851
            ],
            [
              126.69263,
              37.48535
            ],
            [
              126.69065,
              37.47908
            ],
            [
              126.68742,
              37.47631
            ],
            [
              126.68404,
              37.47335
            ],
            [
              126.68605,
              37.47202
            ]
          ]
        ]
      },
      "properties": {
        "code": "23060700",
        "name": "십정1동"
      }
    },
    {
      "type": "Feature",
      "geometry": {
        "type": "Polygon",
        "coordinates": [
          [
            [
              126.70961,
              37.47589
            ],
            [
              126.70456,
              37.48094
            ],
            [
              126.69339,
              37.46994
            ],
            [
              126.69761,
              37.46809
            ],
            [
              126.70798,
              37.46933
            ],
            [
              126.70961,
              37.47589
            ]
          ]
        ]
      },
      "properties": {
        "code": "23060710",
        "name": "십정2동"
      }
    },
    {
      "type": "Feature",
      "geometry": {
        "type": "Polygon",
        "coordinates": [
          [
            [
              126.73198,
              37.51479
            ],
            [
              126.73122,
              37.50702
            ],
            [
              126.74216,
              37.50645
            ],
            [
              126.7451,
              37.51408
            ],
            [
              126.752,
              37.51641
            ],
            [
              126.73228,
              37.51765
            ],
            [
              126.73198,
              37.51479
            ]
          ]
        ]
      },
      "properties": {
        "code": "23060720",
        "name": "삼산2동"
      }
    }
  ]
}
