{
  "type": "FeatureCollection",
  "features": [
    {
      "type": "Feature",
      "geometry": {
        "type": "Polygon",
        "coordinates": [
          [
            [
              126.71732,
              37.53629
            ],
            [
              126.71123,
              37.54002
            ],
            [
              126.70366,
              37.54176
            ],
            [
              126.69928,
              37.54043
            ],
            [
              126.70241,
              37.52778
            ],
            [
              126.71837,
              37.52792
            ],
            [
              126.71732,
              37.53629
            ]
          ]
        ]
      },
      "properties": {
        "code": "23070510",
        "name": "효성1동"
      }
    },
    {
      "type": "Feature",
      "geometry": {
        "type": "Polygon",
        "coordinates": [
          [
            [
              126.70497,
              37.52363
            ],
            [
              126.71916,
              37.52377
            ],
            [
              126.71837,
              37.52792
            ],
            [
              126.70241,
              37.52778
            ],
            [
              126.69928,
              37.54043
            ],
            [
              126.69267,
              37.54115
            ],
            [
              126.69142,
              37.53598
            ],
            [
              126.68361,
              37.5352
            ],
            [
              126.68692,
              37.53074
            ],
            [
              126.68916,
              37.52356
            ],
            [
              126.70497,
              37.52363
            ]
          ]
        ]
      },
      "properties": {
        "code": "23070520",
        "name": "효성2동"
      }
    },
    {
      "type": "Feature",
      "geometry": {
        "type": "Polygon",
        "coordinates": [
          [
            [
              126.71732,
              37.53629
            ],
            [
              126.72799,
              37.53629
            ],
            [
              126.72899,
              37.54325
            ],
            [
              126.71469,
              37.54404
            ],
            [
              126.7085,
              37.54651
            ],
            [
              126.70366,
              37.54176
            ],
            [
              126.71123,
              37.54002
            ],
            [
              126.71732,
              37.53629
            ]
          ]
        ]
      },
      "properties": {
        "code": "23070530",
        "name": "계산1동"
      }
    },
    {
      "type": "Feature",
      "geometry": {
        "type": "Polygon",
        "coordinates": [
          [
            [
              126.72899,
              37.54325
            ],
            [
              126.7341,
              37.54299
            ],
            [
              126.72334,
              37.55251
            ],
            [
              126.71213,
              37.55256
            ],
            [
              126.7085,
              37.54651
            ],
            [
              126.71469,
              37.54404
            ],
            [
              126.72899,
              37.54325
            ]
          ]
        ]
      },
      "properties": {
        "code": "23070540",
        "name": "계산2동"
      }
    },
    {
      "type": "Feature",
      "geometry": {
        "type": "Polygon",
        "coordinates": [
          [
            [
              126.72799,
              37.53629
            ],
            [
              126.73416,
              37.53519
            ],
            [
              126.73687,
              37.5429
            ],
            [
              126.7341,
              37.54299
            ],
            [
              126.72899,
              37.54325
            ],
            [
              126.72799,
              37.53629
            ]
          ]
        ]
      },
      "properties": {
        "code": "23070550",
        "name": "계산3동"
      }
    },
    {
      "type": "Feature",
      "geometry": {
        "type": "Polygon",
        "coordinates": [
          [
            [
              126.73299,
              37.52386
            ],
            [
              126.73405,
              37.5341
            ],
            [
              126.73416,
              37.53519
            ],
            [
              126.72799,
              37.53629
            ],
            [
              126.72513,
              37.5299
            ],
            [
              126.72589,
              37.5238
            ],
            [
              126.73299,
              37.52386
            ]
          ]
        ]
      },
      "properties": {
        "code": "23070560",
        "name": "작전1동"
      }
    },
    {
      "type": "Feature",
      "geometry": {
        "type": "Polygon",
        "coordinates": [
          [
            [
              126.72213,
              37.52381
            ],
            [
              126.72589,
              37.5238
            ],
            [
              126.72513,
              37.5299
            ],
            [
              126.72799,
              37.53629
            ],
            [
              126.71732,
              37.53629
            ],
            [
              126.71837,
              37.52792
            ],
            [
              126.71916,
              37.52377
            ],
            [
              126.72213,
              37.52381
            ]
          ]
        ]
      },
      "properties": {
        "code": "23070570",
        "name": "작전2동"
      }
    },
    {
      "type": "Feature",
      "geometry": {
        "type": "Polygon",
        "coordinates": [
          [
            [
              126.76034,
              37.5241
            ],
            [
              126.76068,
              37.53556
            ],
            [
              126.76095,
              37.53786
            ],
            [
              126.74463,
              37.53824
            ],
            [
              126.74364,
              37.53348
            ],
            [
              126.73405,
              37.5341
            ],
            [
              126.73299,
              37.52386
            ],
            [
              126.76034,
              37.5241
            ]
          ]
        ]
      },
      "properties": {
        "code": "23070580",
        "name": "작전서운동"
      }
    },
    {
      "type": "Feature",
      "geometry": {
        "type": "Polygon",
        "coordinates": [
          [
            [
              126.7341,
              37.54299
            ],
            [
              126.73687,
              37.5429
            ],
            [
              126.74567,
              37.5445
            ],
            [
              126.74463,
              37.53824
            ],
            [
              126.76095,
              37.53786
            ],
            [
              126.7616,
              37.54023
            ],
            [
              126.75446,
              37.54422
            ],
            [
              126.75267,
              37.55099
            ],
            [
              126.74467,
              37.5526
            ],
            [
              126.73946,
              37.55591
            ],
            [
              126.7363,
              37.56059
            ],
            [
              126.72578,
              37.55813
            ],
            [
              126.72334,
              37.55251
            ],
            [
              126.7341,
              37.54299
            ]
          ]
        ]
      },
      "properties": {
        "code": "23070610",
        "name": "계양2동"
      }
    },
    {
      "type": "Feature",
      "geometry": {
        "type": "Polygon",
        "coordinates": [
          [
            [
              126.73416,
              37.53519
            ],
            [
              126.73405,
              37.5341
            ],
            [
              126.74364,
              37.53348
            ],
            [
              126.74463,
              37.53824
            ],
            [
              126.74567,
              37.5445
            ],
            [
              126.73687,
              37.5429
            ],
            [
              126.73416,
              37.53519
            ]
          ]
        ]
      },
      "properties": {
        "code": "23070620",
        "name": "계산4동"
      }
    },
    {
      "type": "Feature",
      "geometry": {
        "type": "Polygon",
        "coordinates": [
          [
            [
              126.72334,
              37.55251
            ],
            [
              126.72578,
              37.55813
            ],
            [
              126.7363,
              37.56059
            ],
            [
              126.73946,
              37.55591
            ],
            [
              126.74467,
              37.5526
            ],
            [
              126.75267,
              37.55099
            ],
            [
              126.75446,
              37.54422
            ],
            [
              126.7616,
              37.54023
            ],
            [
              126.76351,
              37.54675
            ],
            [
              126.7566,
              37.54877
            ],
            [
              126.75818,
              37.55239
            ],
            [
              126.75047,
              37.55583
            ],
            [
              126.74227,
              37.56596
            ],
            [
              126.73836,
              37.57334
            ],
            [
              126.75644,
              37.57388
            ],
            [
              126.76134,
              37.57622
            ],
            [
              126.76308,
              37.58489
            ],
            [
              126.7577,
              37.58479
            ],
            [
              126.75474,
              37.58043
            ],
            [
              126.74646,
              37.58686
            ],
            [
              126.74362,
              37.59335
            ],
            [
              126.73705,
              37.59318
            ],
            [
              126.73502,
              37.59047
            ],
            [
              126.72901,
              37.59294
            ],
            [
              126.72513,
              37.592
            ],
            [
              126.71777,
              37.58533
            ],
            [
              126.71774,
              37.5815
            ],
            [
              126.7133,
              37.57769
            ],
            [
              126.70367,
              37.58032
            ],
            [
              126.6933,
              37.58225
            ],
            [
              126.69206,
              37.58243
            ],
            [
              126.69079,
              37.58269
            ],
            [
              126.68711,
              37.58371
            ],
            [
              126.68681,
              37.58382
            ],
            [
              126.68309,
              37.58146
            ],
            [
              126.68245,
              37.57722
            ],
            [
              126.69906,
              37.57338
            ],
            [
              126.70029,
              37.57204
            ],
            [
              126.70014,
              37.56559
            ],
            [
              126.70338,
              37.56387
            ],
            [
              126.70235,
              37.56075
            ],
            [
              126.69951,
              37.55889
            ],
            [
              126.70657,
              37.55706
            ],
            [
              126.71213,
              37.55256
            ],
            [
              126.72334,
              37.55251
            ]
          ]
        ]
      },
      "properties": {
        "code": "23070630",
        "name": "계양1동"
      }
    },
    {
      "type": "Feature",
      "geometry": {
        "type": "Polygon",
        "coordinates": [
          [
            [
              126.78757,
              37.5756
            ],
            [
              126.79367,
              37.5816
            ],
            [
              126.78705,
              37.58555
            ],
            [
              126.78411,
              37.58259
            ],
            [
              126.77336,
              37.58512
            ],
            [
              126.76731,
              37.58803
            ],
            [
              126.76308,
              37.58489
            ],
            [
              126.76134,
              37.57622
            ],
            [
              126.75644,
              37.57388
            ],
            [
              126.73836,
              37.57334
            ],
            [
              126.74227,
              37.56596
            ],
            [
              126.75047,
              37.55583
            ],
            [
              126.75818,
              37.55239
            ],
            [
              126.7566,
              37.54877
            ],
            [
              126.76351,
              37.54675
            ],
            [
              126.7662,
              37.55413
            ],
            [
              126.7666,
              37.55667
            ],
            [
              126.77563,
              37.5618
            ],
            [
              126.77696,
              37.56634
            ],
            [
              126.78757,
              37.5756
            ]
          ]
        ]
      },
      "properties": {
        "code": "23070640",
        "name": "계양3동"
      }
    }
  ]
}
