{
  "type": "FeatureCollection",
  "features": [
    {
      "type": "Feature",
      "geometry": {
        "type": "Polygon",
        "coordinates": [
          [
            [
              126.70366,
              37.54176
            ],
            [
              126.7085,
              37.54651
            ],
            [
              126.71213,
              37.55256
            ],
            [
              126.70657,
              37.55706
            ],
            [
              126.69951,
              37.55889
            ],
            [
              126.69117,
              37.55812
            ],
            [
              126.68635,
              37.56216
            ],
            [
              126.68209,
              37.5621
            ],
            [
              126.67746,
              37.55623
            ],
            [
              126.67062,
              37.55375
            ],
            [
              126.66549,
              37.55317
            ],
            [
              126.66289,
              37.55189
            ],
            [
              126.65613,
              37.54925
            ],
            [
              126.65012,
              37.54361
            ],
            [
              126.64995,
              37.54029
            ],
            [
              126.65935,
              37.54093
            ],
            [
              126.66327,
              37.53865
            ],
            [
              126.66605,
              37.54012
            ],
            [
              126.67652,
              37.53853
            ],
            [
              126.68361,
              37.5352
            ],
            [
              126.69142,
              37.53598
            ],
            [
              126.69267,
              37.54115
            ],
            [
              126.69928,
              37.54043
            ],
            [
              126.70366,
              37.54176
            ]
          ]
        ]
      },
      "properties": {
        "code": "23130531",
        "name": "연희동"
      }
    },
    {
      "type": "Feature",
      "geometry": {
        "type": "Polygon",
        "coordinates": [
          [
            [
              126.66327,
              37.53865
            ],
            [
              126.66264,
              37.5255
            ],
            [
              126.66929,
              37.52496
            ],
            [
              126.67323,
              37.52242
            ],
            [
              126.67269,
              37.51342
            ],
            [
              126.67663,
              37.51327
            ],
            [
              126.68011,
              37.52095
            ],
            [
              126.6772,
              37.52238
            ],
            [
              126.67652,
              37.53853
            ],
            [
              126.66605,
              37.54012
            ],
            [
              126.66327,
              37.53865
            ]
          ]
        ]
      },
      "properties": {
        "code": "23130541",
        "name": "가정1동"
      }
    },
    {
      "type": "Feature",
      "geometry": {
        "type": "Polygon",
        "coordinates": [
          [
            [
              126.68916,
              37.52356
            ],
            [
              126.68692,
              37.53074
            ],
            [
              126.68361,
              37.5352
            ],
            [
              126.67652,
              37.53853
            ],
            [
              126.6772,
              37.52238
            ],
            [
              126.68011,
              37.52095
            ],
            [
              126.68913,
              37.52347
            ],
            [
              126.68916,
              37.52356
            ]
          ]
        ]
      },
      "properties": {
        "code": "23130550",
        "name": "가정2동"
      }
    },
    {
      "type": "Feature",
      "geometry": {
        "type": "Polygon",
        "coordinates": [
          [
            [
              126.68913,
              37.52347
            ],
            [
              126.68011,
              37.52095
            ],
            [
              126.67663,
              37.51327
            ],
            [
              126.68328,
              37.51466
            ],
            [
              126.68322,
              37.517
            ],
            [
              126.68913,
              37.52347
            ]
          ]
        ]
      },
      "properties": {
        "code": "23130560",
        "name": "가정3동"
      }
    },
    {
      "type": "Feature",
      "geometry": {
        "type": "Polygon",
        "coordinates": [
          [
            [
              126.67269,
              37.51342
            ],
            [
              126.66501,
              37.51372
            ],
            [
              126.66059,
              37.50924
            ],
            [
              126.66181,
              37.50686
            ],
            [
              126.67621,
              37.50624
            ],
            [
              126.67663,
              37.51327
            ],
            [
              126.67269,
              37.51342
            ]
          ]
        ]
      },
      "properties": {
        "code": "23130580",
        "name": "석남1동"
      }
    },
    {
      "type": "Feature",
      "geometry": {
        "type": "Polygon",
        "coordinates": [
          [
            [
              126.66059,
              37.50924
            ],
            [
              126.65258,
              37.50662
            ],
            [
              126.64261,
              37.50668
            ],
            [
              126.64111,
              37.50498
            ],
            [
              126.64101,
              37.49916
            ],
            [
              126.6758,
              37.49921
            ],
            [
              126.67621,
              37.50624
            ],
            [
              126.66181,
              37.50686
            ],
            [
              126.66059,
              37.50924
            ]
          ]
        ]
      },
      "properties": {
        "code": "23130590",
        "name": "석남2동"
      }
    },
    {
      "type": "Feature",
      "geometry": {
        "type": "Polygon",
        "coordinates": [
          [
            [
              126.6883,
              37.50844
            ],
            [
              126.68328,
              37.51466
            ],
            [
              126.67663,
              37.51327
            ],
            [
              126.67621,
              37.50624
            ],
            [
              126.6758,
              37.49921
            ],
            [
              126.68417,
              37.50011
            ],
            [
              126.68845,
              37.50521
            ],
            [
              126.6883,
              37.50844
            ]
          ]
        ]
      },
      "properties": {
        "code": "23130600",
        "name": "석남3동"
      }
    },
    {
      "type": "Feature",
      "geometry": {
        "type": "Polygon",
        "coordinates": [
          [
            [
              126.65536,
              37.48816
            ],
            [
              126.66476,
              37.48246
            ],
            [
              126.67048,
              37.47685
            ],
            [
              126.67438,
              37.47551
            ],
            [
              126.6758,
              37.49921
            ],
            [
              126.64101,
              37.49916
            ],
            [
              126.64076,
              37.49587
            ],
            [
              126.65536,
              37.48816
            ]
          ]
        ]
      },
      "properties": {
        "code": "23130620",
        "name": "가좌1동"
      }
    },
    {
      "type": "Feature",
      "geometry": {
        "type": "Polygon",
        "coordinates": [
          [
            [
              126.691,
              37.50379
            ],
            [
              126.68038,
              37.49312
            ],
            [
              126.68002,
              37.487
            ],
            [
              126.68924,
              37.49482
            ],
            [
              126.69284,
              37.49536
            ],
            [
              126.68997,
              37.49944
            ],
            [
              126.691,
              37.50379
            ]
          ]
        ]
      },
      "properties": {
        "code": "23130630",
        "name": "가좌2동"
      }
    },
    {
      "type": "Feature",
      "geometry": {
        "type": "Polygon",
        "coordinates": [
          [
            [
              126.68404,
              37.47335
            ],
            [
              126.68742,
              37.47631
            ],
            [
              126.67675,
              37.48418
            ],
            [
              126.68002,
              37.487
            ],
            [
              126.68038,
              37.49312
            ],
            [
              126.691,
              37.50379
            ],
            [
              126.68845,
              37.50521
            ],
            [
              126.68417,
              37.50011
            ],
            [
              126.6758,
              37.49921
            ],
            [
              126.67438,
              37.47551
            ],
            [
              126.68404,
              37.47335
            ]
          ]
        ]
      },
      "properties": {
        "code": "23130640",
        "name": "가좌3동"
      }
    },
    {
      "type": "Feature",
      "geometry": {
        "type": "Polygon",
        "coordinates": [
          [
            [
              126.70154,
              37.48661
            ],
            [
              126.69483,
              37.4917
            ],
            [
              126.69284,
              37.49536
            ],
            [
              126.68924,
              37.49482
            ],
            [
              126.68002,
              37.487
            ],
            [
              126.67675,
              37.48418
            ],
            [
              126.68742,
              37.47631
            ],
            [
              126.69065,
              37.47908
            ],
            [
              126.69263,
              37.48535
            ],
            [
              126.70135,
              37.4851
            ],
            [
              126.70154,
              37.48661
            ]
          ]
        ]
      },
      "properties": {
        "code": "23130650",
        "name": "가좌4동"
      }
    },
    {
      "type": "Feature",
      "geometry": {
        "type": "Polygon",
        "coordinates": [
          [
            [
              126.66264,
              37.5255
            ],
            [
              126.65909,
              37.52278
            ],
            [
              126.65134,
              37.52078
            ],
            [
              126.64893,
              37.51634
            ],
            [
              126.63617,
              37.52
            ],
            [
              126.63266,
              37.51598
            ],
            [
              126.61741,
              37.51118
            ],
            [
              126.61094,
              37.51291
            ],
            [
              126.60413,
              37.51006
            ],
            [
              126.60439,
              37.49681
            ],
            [
              126.62679,
              37.49722
            ],
            [
              126.62971,
              37.50238
            ],
            [
              126.64111,
              37.50498
            ],
            [
              126.64261,
              37.50668
            ],
            [
              126.65258,
              37.50662
            ],
            [
              126.66059,
              37.50924
            ],
            [
              126.66501,
              37.51372
            ],
            [
              126.67269,
              37.51342
            ],
            [
              126.67323,
              37.52242
            ],
            [
              126.66929,
              37.52496
            ],
            [
              126.66264,
              37.5255
            ]
          ]
        ]
      },
      "properties": {
        "code": "23130730",
        "name": "신현원창동"
      }
    },
    {
      "type": "Feature",
      "geometry": {
        "type": "Polygon",
        "coordinates": [
          [
            [
              126.64995,
              37.54029
            ],
            [
              126.64893,
              37.51634
            ],
            [
              126.65134,
              37.52078
            ],
            [
              126.65909,
              37.52278
            ],
            [
              126.66264,
              37.5255
            ],
            [
              126.66327,
              37.53865
            ],
            [
              126.65935,
              37.54093
            ],
            [
              126.64995,
              37.54029
            ]
          ]
        ]
      },
      "properties": {
        "code": "23130740",
        "name": "청라1동"
      }
    },
    {
      "type": "Feature",
      "geometry": {
        "type": "Polygon",
        "coordinates": [
          [
            [
              126.65012,
              37.54361
            ],
            [
              126.64094,
              37.54814
            ],
            [
              126.63216,
              37.55035
            ],
            [
              126.63189,
              37.5298
            ],
            [
              126.63617,
              37.52
            ],
            [
              126.64893,
              37.51634
            ],
            [
              126.64995,
              37.54029
            ],
            [
              126.65012,
              37.54361
            ]
          ]
        ]
      },
      "properties": {
        "code": "23130780",
        "name": "청라2동"
      }
    },
    {
      "type": "Feature",
      "geometry": {
        "type": "Polygon",
        "coordinates": [
          [
            [
              126.63617,
              37.52
            ],
            [
              126.63189,
              37.5298
            ],
            [
              126.63216,
              37.55035
            ],
            [
              126.63538,
              37.55847
            ],
            [
              126.61051,
              37.55228
            ],
            [
              126.60658,
              37.55369
            ],
            [
              126.60509,
              37.53932
            ],
            [
              126.59915,
              37.53917
            ],
            [
              126.60247,
              37.53326
            ],
            [
              126.60261,
              37.51706
            ],
            [
              126.60413,
              37.51006
            ],
            [
              126.61094,
              37.51291
            ],
            [
              126.61741,
              37.51118
            ],
            [
              126.63266,
              37.51598
            ],
            [
              126.63617,
              37.52
            ]
          ]
        ]
      },
      "properties": {
        "code": "23130790",
        "name": "청라3동"
      }
    },
    {
      "type": "Feature",
      "geometry": {
        "type": "Polygon",
        "coordinates": [
          [
            [
              126.70029,
              37.57204
            ],
            [
              126.68776,
              37.5714
            ],
            [
              126.66065,
              37.57207
            ],
            [
              126.63275,
              37.56981
            ],
            [
              126.60695,
              37.56159
            ],
            [
              126.59334,
              37.55935
            ],
            [
              126.59372,
              37.55426
            ],
            [
              126.60451,
              37.5556
            ],
            [
              126.60658,
              37.55369
            ],
            [
              126.61051,
              37.55228
            ],
            [
              126.63538,
              37.55847
            ],
            [
              126.63216,
              37.55035
            ],
            [
              126.64094,
              37.54814
            ],
            [
              126.65012,
              37.54361
            ],
            [
              126.65613,
              37.54925
            ],
            [
              126.66289,
              37.55189
            ],
            [
              126.66549,
              37.55317
            ],
            [
              126.67062,
              37.55375
            ],
            [
              126.67746,
              37.55623
            ],
            [
              126.68209,
              37.5621
            ],
            [
              126.68635,
              37.56216
            ],
            [
              126.69117,
              37.55812
            ],
            [
              126.69951,
              37.55889
            ],
            [
              126.70235,
              37.56075
            ],
            [
              126.70338,
              37.56387
            ],
            [
              126.70014,
              37.56559
            ],
            [
              126.70029,
              37.57204
            ]
          ]
        ]
      },
      "properties": {
        "code": "23130510",
        "name": "검암경서동"
      }
    }
  ]
}
