{
  "type": "FeatureCollection",
  "features": [
    {
      "type": "Feature",
      "geometry": {
        "type": "Polygon",
        "coordinates": [
          [
            [
              126.65944,
              37.63823
            ],
            [
              126.65601,
              37.63801
            ],
            [
              126.65169,
              37.63517
            ],
            [
              126.64758,
              37.62874
            ],
            [
              126.66108,
              37.61631
            ],
            [
              126.67769,
              37.61078
            ],
            [
              126.67969,
              37.60657
            ],
            [
              126.6765,
              37.60387
            ],
            [
              126.67581,
              37.59868
            ],
            [
              126.67931,
              37.59658
            ],
            [
              126.68952,
              37.59722
            ],
            [
              126.69401,
              37.59955
            ],
            [
              126.69632,
              37.60407
            ],
            [
              126.70425,
              37.60555
            ],
            [
              126.70416,
              37.61255
            ],
            [
              126.69863,
              37.61746
            ],
            [
              126.68519,
              37.6242
            ],
            [
              126.67931,
              37.62989
            ],
            [
              126.67517,
              37.62995
            ],
            [
              126.67094,
              37.63436
            ],
            [
              126.65944,
              37.63823
            ]
          ]
        ]
      },
      "properties": {
        "code": "23120810",
        "name": "불로대곡동"
      }
    },
    {
      "type": "Feature",
      "geometry": {
        "type": "Polygon",
        "coordinates": [
          [
            [
              126.70367,
              37.58032
            ],
            [
              126.70095,
              37.58212
            ],
            [
              126.70395,
              37.59044
            ],
            [
              126.70247,
              37.59314
            ],
            [
              126.70202,
              37.59533
            ],
            [
              126.70527,
              37.59655
            ],
            [
              126.70281,
              37.59747
            ],
            [
              126.70376,
              37.59969
            ],
            [
              126.70327,
              37.60046
            ],
            [
              126.70393,
              37.60073
            ],
            [
              126.70404,
              37.60157
            ],
            [
              126.70456,
              37.60264
            ],
            [
              126.70451,
              37.60265
            ],
            [
              126.70425,
              37.60555
            ],
            [
              126.69632,
              37.60407
            ],
            [
              126.69401,
              37.59955
            ],
            [
              126.68952,
              37.59722
            ],
            [
              126.68843,
              37.5946
            ],
            [
              126.68878,
              37.58807
            ],
            [
              126.69455,
              37.58493
            ],
            [
              126.6933,
              37.58225
            ],
            [
              126.70367,
              37.58032
            ]
          ]
        ]
      },
      "properties": {
        "code": "23120870",
        "name": "원당동"
      }
    },
    {
      "type": "Feature",
      "geometry": {
        "type": "Polygon",
        "coordinates": [
          [
            [
              126.64758,
              37.62874
            ],
            [
              126.64492,
              37.6286
            ],
            [
              126.63695,
              37.62603
            ],
            [
              126.62929,
              37.61096
            ],
            [
              126.62769,
              37.60597
            ],
            [
              126.6346,
              37.60633
            ],
            [
              126.65614,
              37.60273
            ],
            [
              126.6639,
              37.59914
            ],
            [
              126.67581,
              37.59868
            ],
            [
              126.6765,
              37.60387
            ],
            [
              126.67969,
              37.60657
            ],
            [
              126.67769,
              37.61078
            ],
            [
              126.66108,
              37.61631
            ],
            [
              126.64758,
              37.62874
            ]
          ]
        ]
      },
      "properties": {
        "code": "23120800",
        "name": "검단동"
      }
    },
    {
      "type": "Feature",
      "geometry": {
        "type": "Polygon",
        "coordinates": [
          [
            [
              126.72513,
              37.592
            ],
            [
              126.72451,
              37.59294
            ],
            [
              126.72186,
              37.59593
            ],
            [
              126.7137,
              37.5923
            ],
            [
              126.70663,
              37.59157
            ],
            [
              126.70247,
              37.59314
            ],
            [
              126.70395,
              37.59044
            ],
            [
              126.70095,
              37.58212
            ],
            [
              126.70367,
              37.58032
            ],
            [
              126.7133,
              37.57769
            ],
            [
              126.71774,
              37.5815
            ],
            [
              126.71777,
              37.58533
            ],
            [
              126.72513,
              37.592
            ]
          ]
        ]
      },
      "properties": {
        "code": "23120881",
        "name": "아라1동"
      }
    },
    {
      "type": "Feature",
      "geometry": {
        "type": "Polygon",
        "coordinates": [
          [
            [
              126.70247,
              37.59314
            ],
            [
              126.70663,
              37.59157
            ],
            [
              126.7137,
              37.5923
            ],
            [
              126.72186,
              37.59593
            ],
            [
              126.71812,
              37.5978
            ],
            [
              126.71199,
              37.60479
            ],
            [
              126.70465,
              37.60262
            ],
            [
              126.70456,
              37.60264
            ],
            [
              126.70404,
              37.60157
            ],
            [
              126.70393,
              37.60073
            ],
            [
              126.70327,
              37.60046
            ],
            [
              126.70376,
              37.59969
            ],
            [
              126.70281,
              37.59747
            ],
            [
              126.70527,
              37.59655
            ],
            [
              126.70202,
              37.59533
            ],
            [
              126.70247,
              37.59314
            ]
          ]
        ]
      },
      "properties": {
        "code": "23120882",
        "name": "아라2동"
      }
    },
    {
      "type": "Feature",
      "geometry": {
        "type": "Polygon",
        "coordinates": [
          [
            [
              126.6933,
              37.58225
            ],
            [
              126.69455,
              37.58493
            ],
            [
              126.68878,
              37.58807
            ],
            [
              126.68843,
              37.5946
            ],
            [
              126.66348,
              37.59364
            ],
            [
              126.66699,
              37.58433
            ],
            [
              126.65833,
              37.58371
            ],
            [
              126.65742,
              37.57924
            ],
            [
              126.66305,
              37.57647
            ],
            [
              126.66065,
              37.57207
            ],
            [
              126.68776,
              37.5714
            ],
            [
              126.70029,
              37.57204
            ],
            [
              126.69906,
              37.57338
            ],
            [
              126.68245,
              37.57722
            ],
            [
              126.68309,
              37.58146
            ],
            [
              126.68681,
              37.58382
            ],
            [
              126.68711,
              37.58371
            ],
            [
              126.69079,
              37.58269
            ],
            [
              126.69206,
              37.58243
            ],
            [
              126.6933,
              37.58225
            ]
          ]
        ]
      },
      "properties": {
        "code": "23120850",
        "name": "당하동"
      }
    },
    {
      "type": "Feature",
      "geometry": {
        "type": "Polygon",
        "coordinates": [
          [
            [
              126.62769,
              37.60597
            ],
            [
              126.6234,
              37.6028
            ],
            [
              126.61575,
              37.60549
            ],
            [
              126.60906,
              37.60415
            ],
            [
              126.60552,
              37.59988
            ],
            [
              126.60495,
              37.59944
            ],
            [
              126.59272,
              37.59298
            ],
            [
              126.57258,
              37.58778
            ],
            [
              126.58149,
              37.57144
            ],
            [
              126.59334,
              37.55935
            ],
            [
              126.60695,
              37.56159
            ],
            [
              126.63275,
              37.56981
            ],
            [
              126.66065,
              37.57207
            ],
            [
              126.66305,
              37.57647
            ],
            [
              126.65742,
              37.57924
            ],
            [
              126.65833,
              37.58371
            ],
            [
              126.66699,
              37.58433
            ],
            [
              126.66348,
              37.59364
            ],
            [
              126.6639,
              37.59914
            ],
            [
              126.65614,
              37.60273
            ],
            [
              126.6346,
              37.60633
            ],
            [
              126.62769,
              37.60597
            ]
          ]
        ]
      },
      "properties": {
        "code": "23120840",
        "name": "오류왕길동"
      }
    },
    {
      "type": "Feature",
      "geometry": {
        "type": "Polygon",
        "coordinates": [
          [
            [
              126.67581,
              37.59868
            ],
            [
              126.6639,
              37.59914
            ],
            [
              126.66348,
              37.59364
            ],
            [
              126.68843,
              37.5946
            ],
            [
              126.68952,
              37.59722
            ],
            [
              126.67931,
              37.59658
            ],
            [
              126.67581,
              37.59868
            ]
          ]
        ]
      },
      "properties": {
        "code": "23120860",
        "name": "마전동"
      }
    }
  ]
}
