{
  "type": "FeatureCollection",
  "features": [
    {
      "type": "Feature",
      "geometry": {
        "type": "Polygon",
        "coordinates": [
          [
            [
              126.52602,
              37.73809
            ],
            [
              126.5269,
              37.74783
            ],
            [
              126.52245,
              37.75178
            ],
            [
              126.51239,
              37.76354
            ],
            [
              126.51424,
              37.7713
            ],
            [
              126.51076,
              37.77513
            ],
            [
              126.50804,
              37.7833
            ],
            [
              126.4983,
              37.788
            ],
            [
              126.48751,
              37.79151
            ],
            [
              126.48428,
              37.77706
            ],
            [
              126.48706,
              37.77077
            ],
            [
              126.48317,
              37.76856
            ],
            [
              126.48019,
              37.76304
            ],
            [
              126.48142,
              37.75631
            ],
            [
              126.47324,
              37.75992
            ],
            [
              126.46731,
              37.75108
            ],
            [
              126.45703,
              37.74811
            ],
            [
              126.45079,
              37.74897
            ],
            [
              126.4406,
              37.74446
            ],
            [
              126.43747,
              37.74398
            ],
            [
              126.44204,
              37.73297
            ],
            [
              126.4419,
              37.72871
            ],
            [
              126.44868,
              37.73273
            ],
            [
              126.45275,
              37.7315
            ],
            [
              126.45901,
              37.73622
            ],
            [
              126.4679,
              37.73691
            ],
            [
              126.46855,
              37.73201
            ],
            [
              126.47638,
              37.72937
            ],
            [
              126.48811,
              37.73644
            ],
            [
              126.49314,
              37.73805
            ],
            [
              126.50782,
              37.73135
            ],
            [
              126.51715,
              37.73261
            ],
            [
              126.52237,
              37.73127
            ],
            [
              126.52602,
              37.73809
            ]
          ]
        ]
      },
      "properties": {
        "code": "23510110",
        "name": "강화읍"
      }
    },
    {
      "type": "Feature",
      "geometry": {
        "type": "Polygon",
        "coordinates": [
          [
            [
              126.4419,
              37.72871
            ],
            [
              126.43733,
              37.72651
            ],
            [
              126.44014,
              37.72032
            ],
            [
              126.45697,
              37.71801
            ],
            [
              126.46249,
              37.71429
            ],
            [
              126.46712,
              37.70841
            ],
            [
              126.46668,
              37.70162
            ],
            [
              126.48779,
              37.6995
            ],
            [
              126.49042,
              37.69792
            ],
            [
              126.511,
              37.69634
            ],
            [
              126.51973,
              37.6908
            ],
            [
              126.5255,
              37.69012
            ],
            [
              126.52728,
              37.70314
            ],
            [
              126.51851,
              37.71273
            ],
            [
              126.51846,
              37.7216
            ],
            [
              126.52237,
              37.73127
            ],
            [
              126.51715,
              37.73261
            ],
            [
              126.50782,
              37.73135
            ],
            [
              126.49314,
              37.73805
            ],
            [
              126.48811,
              37.73644
            ],
            [
              126.47638,
              37.72937
            ],
            [
              126.46855,
              37.73201
            ],
            [
              126.4679,
              37.73691
            ],
            [
              126.45901,
              37.73622
            ],
            [
              126.45275,
              37.7315
            ],
            [
              126.44868,
              37.73273
            ],
            [
              126.4419,
              37.72871
            ]
          ]
        ]
      },
      "properties": {
        "code": "23510310",
        "name": "선원면"
      }
    },
    {
      "type": "Feature",
      "geometry": {
        "type": "Polygon",
        "coordinates": [
          [
            [
              126.44014,
              37.72032
            ],
            [
              126.43185,
              37.71549
            ],
            [
              126.4268,
              37.71073
            ],
            [
              126.43193,
              37.70657
            ],
            [
              126.43964,
              37.69655
            ],
            [
              126.44262,
              37.69032
            ],
            [
              126.4419,
              37.68508
            ],
            [
              126.44731,
              37.6813
            ],
            [
              126.45834,
              37.68011
            ],
            [
              126.46256,
              37.67788
            ],
            [
              126.47596,
              37.67384
            ],
            [
              126.49066,
              37.6699
            ],
            [
              126.49271,
              37.66697
            ],
            [
              126.49302,
              37.65508
            ],
            [
              126.50312,
              37.6527
            ],
            [
              126.50775,
              37.6475
            ],
            [
              126.50726,
              37.64319
            ],
            [
              126.51742,
              37.64347
            ],
            [
              126.52138,
              37.64581
            ],
            [
              126.52935,
              37.646
            ],
            [
              126.52896,
              37.65297
            ],
            [
              126.53446,
              37.65914
            ],
            [
              126.5353,
              37.66633
            ],
            [
              126.52411,
              37.67318
            ],
            [
              126.52298,
              37.67652
            ],
            [
              126.52545,
              37.68741
            ],
            [
              126.5255,
              37.69012
            ],
            [
              126.51973,
              37.6908
            ],
            [
              126.511,
              37.69634
            ],
            [
              126.49042,
              37.69792
            ],
            [
              126.48779,
              37.6995
            ],
            [
              126.46668,
              37.70162
            ],
            [
              126.46712,
              37.70841
            ],
            [
              126.46249,
              37.71429
            ],
            [
              126.45697,
              37.71801
            ],
            [
              126.44014,
              37.72032
            ]
          ]
        ]
      },
      "properties": {
        "code": "23510320",
        "name": "불은면"
      }
    },
    {
      "type": "Feature",
      "geometry": {
        "type": "Polygon",
        "coordinates": [
          [
            [
              126.47596,
              37.67384
            ],
            [
              126.47193,
              37.6677
            ],
            [
              126.4728,
              37.66019
            ],
            [
              126.47137,
              37.64934
            ],
            [
              126.46732,
              37.64532
            ],
            [
              126.46713,
              37.63889
            ],
            [
              126.46409,
              37.63702
            ],
            [
              126.47072,
              37.62111
            ],
            [
              126.46636,
              37.62027
            ],
            [
              126.472,
              37.60778
            ],
            [
              126.47334,
              37.59749
            ],
            [
              126.4803,
              37.58358
            ],
            [
              126.49264,
              37.58864
            ],
            [
              126.50324,
              37.58964
            ],
            [
              126.51196,
              37.58124
            ],
            [
              126.51861,
              37.57995
            ],
            [
              126.52651,
              37.58474
            ],
            [
              126.525,
              37.58987
            ],
            [
              126.51852,
              37.59344
            ],
            [
              126.52395,
              37.59647
            ],
            [
              126.54112,
              37.60168
            ],
            [
              126.54743,
              37.60482
            ],
            [
              126.54282,
              37.62258
            ],
            [
              126.53547,
              37.63024
            ],
            [
              126.53053,
              37.63855
            ],
            [
              126.52935,
              37.646
            ],
            [
              126.52138,
              37.64581
            ],
            [
              126.51742,
              37.64347
            ],
            [
              126.50726,
              37.64319
            ],
            [
              126.50775,
              37.6475
            ],
            [
              126.50312,
              37.6527
            ],
            [
              126.49302,
              37.65508
            ],
            [
              126.49271,
              37.66697
            ],
            [
              126.49066,
              37.6699
            ],
            [
              126.47596,
              37.67384
            ]
          ]
        ]
      },
      "properties": {
        "code": "23510330",
        "name": "길상면"
      }
    },
    {
      "type": "Feature",
      "geometry": {
        "type": "Polygon",
        "coordinates": [
          [
            [
              126.46409,
              37.63702
            ],
            [
              126.45805,
              37.63743
            ],
            [
              126.45091,
              37.64063
            ],
            [
              126.43111,
              37.64107
            ],
            [
              126.42909,
              37.6449
            ],
            [
              126.42086,
              37.64747
            ],
            [
              126.41815,
              37.65015
            ],
            [
              126.41224,
              37.64801
            ],
            [
              126.405,
              37.65078
            ],
            [
              126.40283,
              37.64728
            ],
            [
              126.39529,
              37.64187
            ],
            [
              126.3902,
              37.64152
            ],
            [
              126.37411,
              37.63727
            ],
            [
              126.36598,
              37.63745
            ],
            [
              126.36441,
              37.63411
            ],
            [
              126.372,
              37.63304
            ],
            [
              126.37432,
              37.6278
            ],
            [
              126.37721,
              37.61568
            ],
            [
              126.37243,
              37.61429
            ],
            [
              126.37772,
              37.60951
            ],
            [
              126.38552,
              37.60765
            ],
            [
              126.38611,
              37.60396
            ],
            [
              126.39385,
              37.60071
            ],
            [
              126.40372,
              37.5941
            ],
            [
              126.43571,
              37.59263
            ],
            [
              126.44664,
              37.59449
            ],
            [
              126.45529,
              37.59335
            ],
            [
              126.46266,
              37.5894
            ],
            [
              126.46592,
              37.59551
            ],
            [
              126.47334,
              37.59749
            ],
            [
              126.472,
              37.60778
            ],
            [
              126.46636,
              37.62027
            ],
            [
              126.47072,
              37.62111
            ],
            [
              126.46409,
              37.63702
            ]
          ]
        ]
      },
      "properties": {
        "code": "23510340",
        "name": "화도면"
      }
    },
    {
      "type": "Feature",
      "geometry": {
        "type": "Polygon",
        "coordinates": [
          [
            [
              126.4268,
              37.71073
            ],
            [
              126.4195,
              37.70865
            ],
            [
              126.40245,
              37.70669
            ],
            [
              126.39962,
              37.70251
            ],
            [
              126.39712,
              37.69018
            ],
            [
              126.38587,
              37.69087
            ],
            [
              126.39328,
              37.67784
            ],
            [
              126.3957,
              37.66457
            ],
            [
              126.38851,
              37.65639
            ],
            [
              126.405,
              37.65078
            ],
            [
              126.41224,
              37.64801
            ],
            [
              126.41815,
              37.65015
            ],
            [
              126.42086,
              37.64747
            ],
            [
              126.42909,
              37.6449
            ],
            [
              126.43111,
              37.64107
            ],
            [
              126.45091,
              37.64063
            ],
            [
              126.45805,
              37.63743
            ],
            [
              126.46409,
              37.63702
            ],
            [
              126.46713,
              37.63889
            ],
            [
              126.46732,
              37.64532
            ],
            [
              126.47137,
              37.64934
            ],
            [
              126.4728,
              37.66019
            ],
            [
              126.47193,
              37.6677
            ],
            [
              126.47596,
              37.67384
            ],
            [
              126.46256,
              37.67788
            ],
            [
              126.45834,
              37.68011
            ],
            [
              126.44731,
              37.6813
            ],
            [
              126.4419,
              37.68508
            ],
            [
              126.44262,
              37.69032
            ],
            [
              126.43964,
              37.69655
            ],
            [
              126.43193,
              37.70657
            ],
            [
              126.4268,
              37.71073
            ]
          ]
        ]
      },
      "properties": {
        "code": "23510350",
        "name": "양도면"
      }
    },
    {
      "type": "Feature",
      "geometry": {
        "type": "Polygon",
        "coordinates": [
          [
            [
              126.43747,
              37.74398
            ],
            [
              126.42928,
              37.74503
            ],
            [
              126.4213,
              37.74132
            ],
            [
              126.40454,
              37.7381
            ],
            [
              126.39997,
              37.73957
            ],
            [
              126.38886,
              37.73988
            ],
            [
              126.37966,
              37.73768
            ],
            [
              126.37059,
              37.74029
            ],
            [
              126.35472,
              37.74097
            ],
            [
              126.3535,
              37.74359
            ],
            [
              126.35205,
              37.74533
            ],
            [
              126.34148,
              37.74837
            ],
            [
              126.3414,
              37.73854
            ],
            [
              126.34318,
              37.7206
            ],
            [
              126.35237,
              37.70581
            ],
            [
              126.37749,
              37.69639
            ],
            [
              126.38587,
              37.69087
            ],
            [
              126.39712,
              37.69018
            ],
            [
              126.39962,
              37.70251
            ],
            [
              126.40245,
              37.70669
            ],
            [
              126.4195,
              37.70865
            ],
            [
              126.4268,
              37.71073
            ],
            [
              126.43185,
              37.71549
            ],
            [
              126.44014,
              37.72032
            ],
            [
              126.43733,
              37.72651
            ],
            [
              126.4419,
              37.72871
            ],
            [
              126.44204,
              37.73297
            ],
            [
              126.43747,
              37.74398
            ]
          ]
        ]
      },
      "properties": {
        "code": "23510360",
        "name": "내가면"
      }
    },
    {
      "type": "Feature",
      "geometry": {
        "type": "Polygon",
        "coordinates": [
          [
            [
              126.4406,
              37.74446
            ],
            [
              126.44361,
              37.75279
            ],
            [
              126.44347,
              37.76253
            ],
            [
              126.44563,
              37.76475
            ],
            [
              126.44182,
              37.77085
            ],
            [
              126.44323,
              37.77829
            ],
            [
              126.44263,
              37.78807
            ],
            [
              126.43464,
              37.78863
            ],
            [
              126.42976,
              37.79217
            ],
            [
              126.42818,
              37.78967
            ],
            [
              126.41667,
              37.78374
            ],
            [
              126.4106,
              37.78763
            ],
            [
              126.4012,
              37.78924
            ],
            [
              126.39907,
              37.78626
            ],
            [
              126.39007,
              37.7812
            ],
            [
              126.38224,
              37.77965
            ],
            [
              126.37621,
              37.77442
            ],
            [
              126.37197,
              37.77366
            ],
            [
              126.36065,
              37.77864
            ],
            [
              126.35396,
              37.77879
            ],
            [
              126.35333,
              37.77653
            ],
            [
              126.35481,
              37.7564
            ],
            [
              126.3535,
              37.74359
            ],
            [
              126.35472,
              37.74097
            ],
            [
              126.37059,
              37.74029
            ],
            [
              126.37966,
              37.73768
            ],
            [
              126.38886,
              37.73988
            ],
            [
              126.39997,
              37.73957
            ],
            [
              126.40454,
              37.7381
            ],
            [
              126.4213,
              37.74132
            ],
            [
              126.42928,
              37.74503
            ],
            [
              126.43747,
              37.74398
            ],
            [
              126.4406,
              37.74446
            ]
          ]
        ]
      },
      "properties": {
        "code": "23510370",
        "name": "하점면"
      }
    },
    {
      "type": "Feature",
      "geometry": {
        "type": "Polygon",
        "coordinates": [
          [
            [
              126.42976,
              37.79217
            ],
            [
              126.43079,
              37.79706
            ],
            [
              126.43831,
              37.80156
            ],
            [
              126.45356,
              37.81382
            ],
            [
              126.44775,
              37.81933
            ],
            [
              126.44642,
              37.82344
            ],
            [
              126.43926,
              37.82713
            ],
            [
              126.43663,
              37.83123
            ],
            [
              126.42689,
              37.83337
            ],
            [
              126.419,
              37.82652
            ],
            [
              126.41366,
              37.82469
            ],
            [
              126.39387,
              37.82549
            ],
            [
              126.39016,
              37.82316
            ],
            [
              126.37196,
              37.80547
            ],
            [
              126.35749,
              37.79574
            ],
            [
              126.34893,
              37.79197
            ],
            [
              126.3506,
              37.77869
            ],
            [
              126.35396,
              37.77879
            ],
            [
              126.36065,
              37.77864
            ],
            [
              126.37197,
              37.77366
            ],
            [
              126.37621,
              37.77442
            ],
            [
              126.38224,
              37.77965
            ],
            [
              126.39007,
              37.7812
            ],
            [
              126.39907,
              37.78626
            ],
            [
              126.4012,
              37.78924
            ],
            [
              126.4106,
              37.78763
            ],
            [
              126.41667,
              37.78374
            ],
            [
              126.42818,
              37.78967
            ],
            [
              126.42976,
              37.79217
            ]
          ]
        ]
      },
      "properties": {
        "code": "23510380",
        "name": "양사면"
      }
    },
    {
      "type": "Feature",
      "geometry": {
        "type": "Polygon",
        "coordinates": [
          [
            [
              126.48751,
              37.79151
            ],
            [
              126.47394,
              37.79888
            ],
            [
              126.46473,
              37.80496
            ],
            [
              126.45356,
              37.81382
            ],
            [
              126.43831,
              37.80156
            ],
            [
              126.43079,
              37.79706
            ],
            [
              126.42976,
              37.79217
            ],
            [
              126.43464,
              37.78863
            ],
            [
              126.44263,
              37.78807
            ],
            [
              126.44323,
              37.77829
            ],
            [
              126.44182,
              37.77085
            ],
            [
              126.44563,
              37.76475
            ],
            [
              126.44347,
              37.76253
            ],
            [
              126.44361,
              37.75279
            ],
            [
              126.4406,
              37.74446
            ],
            [
              126.45079,
              37.74897
            ],
            [
              126.45703,
              37.74811
            ],
            [
              126.46731,
              37.75108
            ],
            [
              126.47324,
              37.75992
            ],
            [
              126.48142,
              37.75631
            ],
            [
              126.48019,
              37.76304
            ],
            [
              126.48317,
              37.76856
            ],
            [
              126.48706,
              37.77077
            ],
            [
              126.48428,
              37.77706
            ],
            [
              126.48751,
              37.79151
            ]
          ]
        ]
      },
      "properties": {
        "code": "23510390",
        "name": "송해면"
      }
    },
    {
      "type": "Feature",
      "geometry": {
        "type": "Polygon",
        "coordinates": [
          [
            [
              126.26807,
              37.81569
            ],
            [
              126.26326,
              37.81829
            ],
            [
              126.25681,
              37.81465
            ],
            [
              126.23698,
              37.81641
            ],
            [
              126.23292,
              37.81104
            ],
            [
              126.22318,
              37.80541
            ],
            [
              126.22349,
              37.8
            ],
            [
              126.21852,
              37.79608
            ],
            [
              126.22216,
              37.79092
            ],
            [
              126.21599,
              37.77838
            ],
            [
              126.20919,
              37.77411
            ],
            [
              126.20355,
              37.77295
            ],
            [
              126.20728,
              37.76833
            ],
            [
              126.2268,
              37.75298
            ],
            [
              126.23206,
              37.75114
            ],
            [
              126.23964,
              37.75708
            ],
            [
              126.24148,
              37.76226
            ],
            [
              126.24785,
              37.76545
            ],
            [
              126.25899,
              37.76456
            ],
            [
              126.2705,
              37.76748
            ],
            [
              126.2728,
              37.76975
            ],
            [
              126.28687,
              37.76603
            ],
            [
              126.29014,
              37.76276
            ],
            [
              126.30521,
              37.77059
            ],
            [
              126.31496,
              37.77369
            ],
            [
              126.3224,
              37.78112
            ],
            [
              126.3256,
              37.78642
            ],
            [
              126.33032,
              37.7892
            ],
            [
              126.33023,
              37.79354
            ],
            [
              126.33461,
              37.79918
            ],
            [
              126.32846,
              37.80393
            ],
            [
              126.32151,
              37.805
            ],
            [
              126.31433,
              37.80279
            ],
            [
              126.30567,
              37.80262
            ],
            [
              126.30137,
              37.80447
            ],
            [
              126.29702,
              37.80253
            ],
            [
              126.28275,
              37.80821
            ],
            [
              126.27341,
              37.81404
            ],
            [
              126.26807,
              37.81569
            ]
          ]
        ]
      },
      "properties": {
        "code": "23510400",
        "name": "교동면"
      }
    },
    {
      "type": "Feature",
      "geometry": {
        "type": "MultiPolygon",
        "coordinates": [
          [
            [
              [
                126.23621,
                37.72903
              ],
              [
                126.23044,
                37.73275
              ],
              [
                126.21811,
                37.71908
              ],
              [
                126.23188,
                37.71593
              ],
              [
                126.24723,
                37.71726
              ],
              [
                126.2405,
                37.72214
              ],
              [
                126.23621,
                37.72903
              ]
            ]
          ],
          [
            [
              [
                126.2695,
                37.72536
              ],
              [
                126.26664,
                37.73352
              ],
              [
                126.2627,
                37.73624
              ],
              [
                126.25738,
                37.73344
              ],
              [
                126.25679,
                37.7255
              ],
              [
                126.26593,
                37.72394
              ],
              [
                126.2695,
                37.72536
              ]
            ]
          ],
          [
            [
              [
                126.33045,
                37.74681
              ],
              [
                126.33056,
                37.74901
              ],
              [
                126.32395,
                37.75428
              ],
              [
                126.31767,
                37.75292
              ],
              [
                126.30377,
                37.74652
              ],
              [
                126.29399,
                37.74622
              ],
              [
                126.28892,
                37.74403
              ],
              [
                126.28688,
                37.72781
              ],
              [
                126.28478,
                37.71766
              ],
              [
                126.28217,
                37.71319
              ],
              [
                126.27156,
                37.71271
              ],
              [
                126.26994,
                37.70829
              ],
              [
                126.28335,
                37.70008
              ],
              [
                126.28514,
                37.69623
              ],
              [
                126.29626,
                37.69041
              ],
              [
                126.31332,
                37.68461
              ],
              [
                126.3173,
                37.68174
              ],
              [
                126.32374,
                37.669
              ],
              [
                126.32695,
                37.66659
              ],
              [
                126.32682,
                37.66203
              ],
              [
                126.32339,
                37.65911
              ],
              [
                126.32258,
                37.64454
              ],
              [
                126.32503,
                37.64144
              ],
              [
                126.34281,
                37.64358
              ],
              [
                126.35193,
                37.64867
              ],
              [
                126.37661,
                37.66793
              ],
              [
                126.37696,
                37.67532
              ],
              [
                126.37959,
                37.6822
              ],
              [
                126.37577,
                37.68764
              ],
              [
                126.37533,
                37.69225
              ],
              [
                126.37193,
                37.69523
              ],
              [
                126.34639,
                37.69916
              ],
              [
                126.33948,
                37.70266
              ],
              [
                126.33822,
                37.70736
              ],
              [
                126.33173,
                37.709
              ],
              [
                126.32965,
                37.71541
              ],
              [
                126.3206,
                37.71611
              ],
              [
                126.32302,
                37.73187
              ],
              [
                126.33045,
                37.74681
              ]
            ]
          ]
        ]
      },
      "properties": {
        "code": "23510410",
        "name": "삼산면"
      }
    },
    {
      "type": "Feature",
      "geometry": {
        "type": "MultiPolygon",
        "coordinates": [
          [
            [
              [
                126.27431,
                37.63199
              ],
              [
                126.27598,
                37.63822
              ],
              [
                126.27445,
                37.64417
              ],
              [
                126.27625,
                37.65072
              ],
              [
                126.26985,
                37.65648
              ],
              [
                126.26586,
                37.64834
              ],
              [
                126.26879,
                37.63739
              ],
              [
                126.27431,
                37.63199
              ]
            ]
          ],
          [
            [
              [
                126.24399,
                37.65277
              ],
              [
                126.23668,
                37.65393
              ],
              [
                126.23294,
                37.65648
              ],
              [
                126.22541,
                37.64888
              ],
              [
                126.23381,
                37.63793
              ],
              [
                126.24588,
                37.63099
              ],
              [
                126.25937,
                37.62755
              ],
              [
                126.25954,
                37.63082
              ],
              [
                126.25427,
                37.63238
              ],
              [
                126.25141,
                37.63758
              ],
              [
                126.25145,
                37.6431
              ],
              [
                126.25719,
                37.65268
              ],
              [
                126.25314,
                37.65441
              ],
              [
                126.24399,
                37.65277
              ]
            ]
          ],
          [
            [
              [
                126.23504,
                37.66218
              ],
              [
                126.22384,
                37.6663
              ],
              [
                126.22139,
                37.66292
              ],
              [
                126.22438,
                37.65789
              ],
              [
                126.23504,
                37.66218
              ]
            ]
          ],
          [
            [
              [
                126.19631,
                37.68493
              ],
              [
                126.192,
                37.68881
              ],
              [
                126.18822,
                37.68488
              ],
              [
                126.1722,
                37.67668
              ],
              [
                126.16676,
                37.67991
              ],
              [
                126.16113,
                37.67889
              ],
              [
                126.15473,
                37.67267
              ],
              [
                126.16856,
                37.66837
              ],
              [
                126.17769,
                37.66955
              ],
              [
                126.18911,
                37.66404
              ],
              [
                126.1941,
                37.65839
              ],
              [
                126.20477,
                37.65625
              ],
              [
                126.2061,
                37.66075
              ],
              [
                126.21124,
                37.66701
              ],
              [
                126.20531,
                37.66979
              ],
              [
                126.19615,
                37.68168
              ],
              [
                126.19631,
                37.68493
              ]
            ]
          ],
          [
            [
              [
                126.1286,
                37.69173
              ],
              [
                126.1219,
                37.69011
              ],
              [
                126.12657,
                37.68156
              ],
              [
                126.13171,
                37.68264
              ],
              [
                126.13802,
                37.68091
              ],
              [
                126.14424,
                37.68138
              ],
              [
                126.14388,
                37.68587
              ],
              [
                126.13366,
                37.68891
              ],
              [
                126.1286,
                37.69173
              ]
            ]
          ]
        ]
      },
      "properties": {
        "code": "23510420",
        "name": "서도면"
      }
    }
  ]
}
