{
  "type": "FeatureCollection",
  "features": [
    {
      "type": "Feature",
      "geometry": {
        "type": "MultiPolygon",
        "coordinates": [
          [
            [
              [
                126.41111,
                37.52609
              ],
              [
                126.414,
                37.54022
              ],
              [
                126.40372,
                37.53579
              ],
              [
                126.40113,
                37.53137
              ],
              [
                126.40471,
                37.52743
              ],
              [
                126.41111,
                37.52609
              ]
            ]
          ],
          [
            [
              [
                126.47251,
                37.53755
              ],
              [
                126.46623,
                37.53907
              ],
              [
                126.4614,
                37.54446
              ],
              [
                126.45698,
                37.54453
              ],
              [
                126.45487,
                37.5381
              ],
              [
                126.44904,
                37.53352
              ],
              [
                126.44364,
                37.53406
              ],
              [
                126.43246,
                37.52451
              ],
              [
                126.42927,
                37.51837
              ],
              [
                126.43678,
                37.5147
              ],
              [
                126.45091,
                37.51891
              ],
              [
                126.45838,
                37.51725
              ],
              [
                126.46383,
                37.51101
              ],
              [
                126.47064,
                37.51178
              ],
              [
                126.46855,
                37.51633
              ],
              [
                126.47077,
                37.52229
              ],
              [
                126.46689,
                37.52475
              ],
              [
                126.47389,
                37.5287
              ],
              [
                126.47251,
                37.53755
              ]
            ]
          ],
          [
            [
              [
                126.43202,
                37.54539
              ],
              [
                126.42792,
                37.54839
              ],
              [
                126.42398,
                37.54666
              ],
              [
                126.42018,
                37.5378
              ],
              [
                126.42194,
                37.53299
              ],
              [
                126.41616,
                37.522
              ],
              [
                126.42221,
                37.52276
              ],
              [
                126.43163,
                37.53101
              ],
              [
                126.4351,
                37.53983
              ],
              [
                126.43202,
                37.54539
              ]
            ]
          ],
          [
            [
              [
                126.32976,
                37.55067
              ],
              [
                126.31972,
                37.55615
              ],
              [
                126.30989,
                37.56022
              ],
              [
                126.30898,
                37.55609
              ],
              [
                126.31487,
                37.5509
              ],
              [
                126.32739,
                37.54262
              ],
              [
                126.32968,
                37.53555
              ],
              [
                126.32783,
                37.53096
              ],
              [
                126.3298,
                37.52551
              ],
              [
                126.33985,
                37.52677
              ],
              [
                126.36067,
                37.53067
              ],
              [
                126.37915,
                37.5286
              ],
              [
                126.384,
                37.53076
              ],
              [
                126.38446,
                37.53858
              ],
              [
                126.36485,
                37.53489
              ],
              [
                126.35303,
                37.53557
              ],
              [
                126.34353,
                37.53955
              ],
              [
                126.33746,
                37.55177
              ],
              [
                126.32976,
                37.55067
              ]
            ]
          ]
        ]
      },
      "properties": {
        "code": "23520310",
        "name": "북도면"
      }
    },
    {
      "type": "Feature",
      "geometry": {
        "type": "MultiPolygon",
        "coordinates": [
          [
            [
              [
                125.72004,
                37.60474
              ],
              [
                125.72099,
                37.61398
              ],
              [
                125.71338,
                37.61557
              ],
              [
                125.70578,
                37.61187
              ],
              [
                125.71117,
                37.60685
              ],
              [
                125.72004,
                37.60474
              ]
            ]
          ],
          [
            [
              [
                125.7158,
                37.68011
              ],
              [
                125.70412,
                37.68123
              ],
              [
                125.69207,
                37.67738
              ],
              [
                125.68704,
                37.67792
              ],
              [
                125.68349,
                37.68123
              ],
              [
                125.6768,
                37.67962
              ],
              [
                125.67764,
                37.67401
              ],
              [
                125.68382,
                37.67093
              ],
              [
                125.68493,
                37.66473
              ],
              [
                125.68118,
                37.66269
              ],
              [
                125.68292,
                37.65368
              ],
              [
                125.69267,
                37.6518
              ],
              [
                125.71042,
                37.66625
              ],
              [
                125.71196,
                37.67086
              ],
              [
                125.71723,
                37.67531
              ],
              [
                125.7158,
                37.68011
              ]
            ]
          ]
        ]
      },
      "properties": {
        "code": "23520320",
        "name": "연평면"
      }
    },
    {
      "type": "Feature",
      "geometry": {
        "type": "Polygon",
        "coordinates": [
          [
            [
              124.70666,
              37.9834
            ],
            [
              124.69582,
              37.98276
            ],
            [
              124.69107,
              37.97964
            ],
            [
              124.68307,
              37.98205
            ],
            [
              124.67858,
              37.97948
            ],
            [
              124.67418,
              37.9819
            ],
            [
              124.66778,
              37.97741
            ],
            [
              124.65507,
              37.97304
            ],
            [
              124.64743,
              37.97341
            ],
            [
              124.64255,
              37.96909
            ],
            [
              124.63822,
              37.96913
            ],
            [
              124.62341,
              37.97672
            ],
            [
              124.6156,
              37.97809
            ],
            [
              124.60979,
              37.97006
            ],
            [
              124.61123,
              37.96094
            ],
            [
              124.61821,
              37.95848
            ],
            [
              124.62419,
              37.95428
            ],
            [
              124.62231,
              37.94709
            ],
            [
              124.63034,
              37.93741
            ],
            [
              124.63342,
              37.92954
            ],
            [
              124.63863,
              37.92252
            ],
            [
              124.6495,
              37.92234
            ],
            [
              124.65558,
              37.92067
            ],
            [
              124.66511,
              37.92248
            ],
            [
              124.67147,
              37.91927
            ],
            [
              124.67985,
              37.92196
            ],
            [
              124.68969,
              37.91449
            ],
            [
              124.69633,
              37.91702
            ],
            [
              124.69963,
              37.92099
            ],
            [
              124.69856,
              37.92515
            ],
            [
              124.70443,
              37.9307
            ],
            [
              124.70387,
              37.93817
            ],
            [
              124.708,
              37.9441
            ],
            [
              124.71708,
              37.94822
            ],
            [
              124.72364,
              37.95338
            ],
            [
              124.72779,
              37.95415
            ],
            [
              124.73491,
              37.95137
            ],
            [
              124.73553,
              37.95688
            ],
            [
              124.74626,
              37.95873
            ],
            [
              124.73291,
              37.96569
            ],
            [
              124.72952,
              37.97826
            ],
            [
              124.72158,
              37.98199
            ],
            [
              124.70666,
              37.9834
            ]
          ]
        ]
      },
      "properties": {
        "code": "23520330",
        "name": "백령면"
      }
    },
    {
      "type": "Feature",
      "geometry": {
        "type": "MultiPolygon",
        "coordinates": [
          [
            [
              [
                124.76943,
                37.77966
              ],
              [
                124.76154,
                37.77798
              ],
              [
                124.7511,
                37.7777
              ],
              [
                124.742,
                37.77572
              ],
              [
                124.74101,
                37.77251
              ],
              [
                124.73431,
                37.77089
              ],
              [
                124.732,
                37.76449
              ],
              [
                124.7383,
                37.76156
              ],
              [
                124.74069,
                37.76573
              ],
              [
                124.75273,
                37.76976
              ],
              [
                124.76447,
                37.76557
              ],
              [
                124.77206,
                37.77738
              ],
              [
                124.76943,
                37.77966
              ]
            ]
          ],
          [
            [
              [
                124.70687,
                37.84678
              ],
              [
                124.69998,
                37.84032
              ],
              [
                124.69167,
                37.83864
              ],
              [
                124.68071,
                37.82744
              ],
              [
                124.67932,
                37.82216
              ],
              [
                124.6718,
                37.81729
              ],
              [
                124.67677,
                37.81325
              ],
              [
                124.68375,
                37.81279
              ],
              [
                124.68428,
                37.80637
              ],
              [
                124.67914,
                37.80191
              ],
              [
                124.68094,
                37.79876
              ],
              [
                124.68883,
                37.80595
              ],
              [
                124.69707,
                37.80854
              ],
              [
                124.7013,
                37.8045
              ],
              [
                124.71166,
                37.80699
              ],
              [
                124.71718,
                37.81132
              ],
              [
                124.72055,
                37.81644
              ],
              [
                124.71819,
                37.8265
              ],
              [
                124.71393,
                37.8295
              ],
              [
                124.71844,
                37.83579
              ],
              [
                124.72863,
                37.83916
              ],
              [
                124.71796,
                37.84674
              ],
              [
                124.70885,
                37.84518
              ],
              [
                124.70687,
                37.84678
              ]
            ]
          ]
        ]
      },
      "properties": {
        "code": "23520340",
        "name": "대청면"
      }
    },
    {
      "type": "Feature",
      "geometry": {
        "type": "MultiPolygon",
        "coordinates": [
          [
            [
              [
                125.98258,
                37.03986
              ],
              [
                125.97898,
                37.03374
              ],
              [
                125.98314,
                37.02421
              ],
              [
                125.99041,
                37.02345
              ],
              [
                125.99668,
                37.01811
              ],
              [
                126.00177,
                37.01876
              ],
              [
                126.01399,
                37.02417
              ],
              [
                126.00518,
                37.02598
              ],
              [
                126.00211,
                37.02476
              ],
              [
                125.99501,
                37.02704
              ],
              [
                125.99235,
                37.0326
              ],
              [
                125.99455,
                37.03476
              ],
              [
                125.98684,
                37.04061
              ],
              [
                125.98258,
                37.03986
              ]
            ]
          ],
          [
            [
              [
                126.0153,
                37.07738
              ],
              [
                126.01698,
                37.07292
              ],
              [
                126.01209,
                37.0652
              ],
              [
                126.02066,
                37.06809
              ],
              [
                126.02134,
                37.07683
              ],
              [
                126.0153,
                37.07738
              ]
            ]
          ],
          [
            [
              [
                125.95468,
                37.08929
              ],
              [
                125.94881,
                37.08842
              ],
              [
                125.9448,
                37.07881
              ],
              [
                125.95288,
                37.07085
              ],
              [
                125.95593,
                37.07556
              ],
              [
                125.95181,
                37.08163
              ],
              [
                125.95313,
                37.0853
              ],
              [
                125.95872,
                37.08428
              ],
              [
                125.96465,
                37.08089
              ],
              [
                125.9672,
                37.08742
              ],
              [
                125.96198,
                37.08986
              ],
              [
                125.95468,
                37.08929
              ]
            ]
          ],
          [
            [
              [
                125.91463,
                37.10823
              ],
              [
                125.91739,
                37.11399
              ],
              [
                125.91104,
                37.11557
              ],
              [
                125.91078,
                37.11046
              ],
              [
                125.91463,
                37.10823
              ]
            ]
          ],
          [
            [
              [
                125.88078,
                37.17506
              ],
              [
                125.86801,
                37.17474
              ],
              [
                125.86926,
                37.16895
              ],
              [
                125.87837,
                37.17112
              ],
              [
                125.88078,
                37.17506
              ]
            ]
          ],
          [
            [
              [
                126.09702,
                37.18733
              ],
              [
                126.09249,
                37.18766
              ],
              [
                126.08925,
                37.18161
              ],
              [
                126.08493,
                37.17911
              ],
              [
                126.08695,
                37.17283
              ],
              [
                126.09401,
                37.16696
              ],
              [
                126.11036,
                37.16552
              ],
              [
                126.11261,
                37.17052
              ],
              [
                126.1082,
                37.17558
              ],
              [
                126.10515,
                37.18197
              ],
              [
                126.09702,
                37.18733
              ]
            ]
          ],
          [
            [
              [
                125.9764,
                37.19359
              ],
              [
                125.97271,
                37.18969
              ],
              [
                125.9604,
                37.18465
              ],
              [
                125.96137,
                37.18236
              ],
              [
                125.97532,
                37.18624
              ],
              [
                125.97988,
                37.18854
              ],
              [
                125.98222,
                37.19319
              ],
              [
                125.9764,
                37.19359
              ]
            ]
          ],
          [
            [
              [
                126.1708,
                37.22689
              ],
              [
                126.1696,
                37.22914
              ],
              [
                126.15964,
                37.21823
              ],
              [
                126.16255,
                37.21307
              ],
              [
                126.16883,
                37.21091
              ],
              [
                126.17778,
                37.21076
              ],
              [
                126.17921,
                37.20093
              ],
              [
                126.18152,
                37.19537
              ],
              [
                126.18804,
                37.2029
              ],
              [
                126.19192,
                37.20935
              ],
              [
                126.1826,
                37.2094
              ],
              [
                126.17986,
                37.218
              ],
              [
                126.17314,
                37.2221
              ],
              [
                126.1708,
                37.22689
              ]
            ]
          ],
          [
            [
              [
                126.10583,
                37.27412
              ],
              [
                126.10041,
                37.27277
              ],
              [
                126.10167,
                37.26505
              ],
              [
                126.098,
                37.26215
              ],
              [
                126.09547,
                37.25378
              ],
              [
                126.08948,
                37.2473
              ],
              [
                126.08942,
                37.23953
              ],
              [
                126.09179,
                37.23656
              ],
              [
                126.09126,
                37.2299
              ],
              [
                126.08548,
                37.22411
              ],
              [
                126.0891,
                37.22029
              ],
              [
                126.09502,
                37.22526
              ],
              [
                126.09695,
                37.22994
              ],
              [
                126.10302,
                37.22975
              ],
              [
                126.10438,
                37.22628
              ],
              [
                126.10051,
                37.22172
              ],
              [
                126.10403,
                37.2196
              ],
              [
                126.11262,
                37.22233
              ],
              [
                126.11588,
                37.21622
              ],
              [
                126.11206,
                37.21201
              ],
              [
                126.11736,
                37.20929
              ],
              [
                126.12678,
                37.21259
              ],
              [
                126.14305,
                37.21346
              ],
              [
                126.14335,
                37.20965
              ],
              [
                126.13304,
                37.20265
              ],
              [
                126.13646,
                37.20082
              ],
              [
                126.13735,
                37.19544
              ],
              [
                126.14326,
                37.19889
              ],
              [
                126.14002,
                37.20322
              ],
              [
                126.14925,
                37.20421
              ],
              [
                126.15249,
                37.20739
              ],
              [
                126.15728,
                37.21604
              ],
              [
                126.14934,
                37.21643
              ],
              [
                126.14659,
                37.21952
              ],
              [
                126.14913,
                37.22303
              ],
              [
                126.15407,
                37.22213
              ],
              [
                126.15556,
                37.22694
              ],
              [
                126.16274,
                37.22873
              ],
              [
                126.16618,
                37.23258
              ],
              [
                126.15186,
                37.23921
              ],
              [
                126.14479,
                37.23874
              ],
              [
                126.13727,
                37.24689
              ],
              [
                126.1311,
                37.2481
              ],
              [
                126.12865,
                37.25181
              ],
              [
                126.12067,
                37.24736
              ],
              [
                126.11709,
                37.25099
              ],
              [
                126.11892,
                37.25801
              ],
              [
                126.1117,
                37.25844
              ],
              [
                126.10979,
                37.26598
              ],
              [
                126.10987,
                37.27363
              ],
              [
                126.10583,
                37.27412
              ]
            ]
          ],
          [
            [
              [
                126.09244,
                37.2754
              ],
              [
                126.09785,
                37.27972
              ],
              [
                126.08159,
                37.29013
              ],
              [
                126.07498,
                37.28939
              ],
              [
                126.07523,
                37.28495
              ],
              [
                126.08519,
                37.2809
              ],
              [
                126.0868,
                37.27568
              ],
              [
                126.09244,
                37.2754
              ]
            ]
          ]
        ]
      },
      "properties": {
        "code": "23520350",
        "name": "덕적면"
      }
    },
    {
      "type": "Feature",
      "geometry": {
        "type": "MultiPolygon",
        "coordinates": [
          [
            [
              [
                126.0797,
                37.1085
              ],
              [
                126.07667,
                37.10616
              ],
              [
                126.06634,
                37.10558
              ],
              [
                126.06017,
                37.09607
              ],
              [
                126.07197,
                37.09729
              ],
              [
                126.07293,
                37.09221
              ],
              [
                126.06569,
                37.09288
              ],
              [
                126.06224,
                37.08849
              ],
              [
                126.06753,
                37.08337
              ],
              [
                126.07535,
                37.08375
              ],
              [
                126.08165,
                37.09018
              ],
              [
                126.08888,
                37.09493
              ],
              [
                126.08966,
                37.09891
              ],
              [
                126.08559,
                37.10389
              ],
              [
                126.08549,
                37.10768
              ],
              [
                126.0797,
                37.1085
              ]
            ]
          ],
          [
            [
              [
                126.27497,
                37.15088
              ],
              [
                126.2715,
                37.14532
              ],
              [
                126.27594,
                37.14042
              ],
              [
                126.27789,
                37.15051
              ],
              [
                126.27497,
                37.15088
              ]
            ]
          ],
          [
            [
              [
                126.29645,
                37.17362
              ],
              [
                126.28954,
                37.17211
              ],
              [
                126.30658,
                37.16103
              ],
              [
                126.30685,
                37.15789
              ],
              [
                126.31558,
                37.16046
              ],
              [
                126.32045,
                37.15814
              ],
              [
                126.3259,
                37.16127
              ],
              [
                126.31735,
                37.16693
              ],
              [
                126.31215,
                37.17227
              ],
              [
                126.30729,
                37.1711
              ],
              [
                126.30277,
                37.17378
              ],
              [
                126.29645,
                37.17362
              ]
            ]
          ],
          [
            [
              [
                126.25605,
                37.1818
              ],
              [
                126.24373,
                37.17608
              ],
              [
                126.24934,
                37.16976
              ],
              [
                126.25444,
                37.17081
              ],
              [
                126.26574,
                37.16763
              ],
              [
                126.27291,
                37.16259
              ],
              [
                126.27315,
                37.15919
              ],
              [
                126.27984,
                37.15704
              ],
              [
                126.28475,
                37.1621
              ],
              [
                126.27465,
                37.16474
              ],
              [
                126.27183,
                37.17009
              ],
              [
                126.2715,
                37.17616
              ],
              [
                126.26644,
                37.17587
              ],
              [
                126.26168,
                37.18115
              ],
              [
                126.25605,
                37.1818
              ]
            ]
          ],
          [
            [
              [
                126.21658,
                37.1891
              ],
              [
                126.21484,
                37.18223
              ],
              [
                126.21926,
                37.17844
              ],
              [
                126.22351,
                37.1796
              ],
              [
                126.22835,
                37.17747
              ],
              [
                126.233,
                37.17914
              ],
              [
                126.23782,
                37.17767
              ],
              [
                126.24126,
                37.18106
              ],
              [
                126.24851,
                37.18234
              ],
              [
                126.24026,
                37.18663
              ],
              [
                126.22751,
                37.18802
              ],
              [
                126.22404,
                37.18225
              ],
              [
                126.21827,
                37.18432
              ],
              [
                126.21658,
                37.1891
              ]
            ]
          ],
          [
            [
              [
                126.31431,
                37.21168
              ],
              [
                126.31971,
                37.21234
              ],
              [
                126.31966,
                37.21869
              ],
              [
                126.31434,
                37.22232
              ],
              [
                126.3127,
                37.21662
              ],
              [
                126.31431,
                37.21168
              ]
            ]
          ],
          [
            [
              [
                126.29785,
                37.26614
              ],
              [
                126.28417,
                37.26888
              ],
              [
                126.28034,
                37.259
              ],
              [
                126.28576,
                37.25996
              ],
              [
                126.29694,
                37.25191
              ],
              [
                126.304,
                37.25334
              ],
              [
                126.31066,
                37.24885
              ],
              [
                126.31656,
                37.24793
              ],
              [
                126.31692,
                37.2443
              ],
              [
                126.32533,
                37.24747
              ],
              [
                126.33134,
                37.24538
              ],
              [
                126.3429,
                37.25
              ],
              [
                126.34885,
                37.259
              ],
              [
                126.34781,
                37.26101
              ],
              [
                126.33834,
                37.26362
              ],
              [
                126.33372,
                37.26143
              ],
              [
                126.33365,
                37.25564
              ],
              [
                126.32612,
                37.25715
              ],
              [
                126.31536,
                37.26254
              ],
              [
                126.30745,
                37.26298
              ],
              [
                126.29785,
                37.26614
              ]
            ]
          ]
        ]
      },
      "properties": {
        "code": "23520360",
        "name": "자월면"
      }
    },
    {
      "type": "Feature",
      "geometry": {
        "type": "MultiPolygon",
        "coordinates": [
          [
            [
              [
                126.51514,
                37.22816
              ],
              [
                126.51907,
                37.23153
              ],
              [
                126.51516,
                37.23478
              ],
              [
                126.51118,
                37.23194
              ],
              [
                126.51514,
                37.22816
              ]
            ]
          ],
          [
            [
              [
                126.52406,
                37.25762
              ],
              [
                126.51441,
                37.25719
              ],
              [
                126.51514,
                37.2505
              ],
              [
                126.52056,
                37.24991
              ],
              [
                126.52565,
                37.24513
              ],
              [
                126.52385,
                37.23546
              ],
              [
                126.53224,
                37.23194
              ],
              [
                126.54061,
                37.23379
              ],
              [
                126.53441,
                37.23893
              ],
              [
                126.53127,
                37.24565
              ],
              [
                126.5266,
                37.2491
              ],
              [
                126.52959,
                37.25214
              ],
              [
                126.52406,
                37.25762
              ]
            ]
          ],
          [
            [
              [
                126.4721,
                37.2845
              ],
              [
                126.45156,
                37.28228
              ],
              [
                126.45383,
                37.27846
              ],
              [
                126.44712,
                37.27189
              ],
              [
                126.44397,
                37.27348
              ],
              [
                126.43363,
                37.27407
              ],
              [
                126.43577,
                37.26537
              ],
              [
                126.42959,
                37.26392
              ],
              [
                126.43496,
                37.25465
              ],
              [
                126.43559,
                37.24725
              ],
              [
                126.43146,
                37.24723
              ],
              [
                126.43156,
                37.23303
              ],
              [
                126.4354,
                37.23112
              ],
              [
                126.44255,
                37.23116
              ],
              [
                126.45263,
                37.22901
              ],
              [
                126.45702,
                37.22418
              ],
              [
                126.46865,
                37.23225
              ],
              [
                126.4704,
                37.23827
              ],
              [
                126.48148,
                37.24107
              ],
              [
                126.48238,
                37.25487
              ],
              [
                126.48916,
                37.2503
              ],
              [
                126.48713,
                37.25892
              ],
              [
                126.49171,
                37.25943
              ],
              [
                126.49843,
                37.25314
              ],
              [
                126.50163,
                37.25826
              ],
              [
                126.49648,
                37.26455
              ],
              [
                126.4943,
                37.27143
              ],
              [
                126.49686,
                37.27741
              ],
              [
                126.487,
                37.2826
              ],
              [
                126.48268,
                37.28126
              ],
              [
                126.4721,
                37.2845
              ]
            ]
          ]
        ]
      },
      "properties": {
        "code": "23520370",
        "name": "영흥면"
      }
    }
  ]
}
